{"type":"FeatureCollection","features":[{"type":"Feature","properties":{"KEY_CODE":"43510001001","PREF":"43","CITY":"510","CITY_NAME":"相良村","S_NAME":"大字四浦","SETAI":"233"},"geometry":{"type":"Polygon","coordinates":[[[130.7778869710606,32.371514801327635],[130.7780297080592,32.371287120517835],[130.7781900529896,32.370322121512245],[130.7795687116203,32.36856828688474],[130.78120740146983,32.36704950941076],[130.7806579830614,32.365614049826654],[130.78067796244198,32.363898040243164],[130.78129477462397,32.36357733767285],[130.7816301618415,32.362063025897335],[130.78244769745748,32.360368493960635],[130.78431240236745,32.3600231503753],[130.7847575920477,32.35879051193705],[130.7847129403221,32.357624040844605],[130.78513502848554,32.356129969860625],[130.78578334139857,32.35582268862368],[130.7872711627542,32.35449802804204],[130.78864902779782,32.352891544922514],[130.78973182461922,32.3525112681332],[130.79166284732526,32.35070459051367],[130.79288048760571,32.350049656879165],[130.7931976581156,32.34947370376358],[130.7923776569291,32.34890927605176],[130.79221468381365,32.34764206772373],[130.79086106289336,32.34560210855859],[130.79117976798054,32.3443558530741],[130.79057561811922,32.34264554395197],[130.7906884223231,32.34165365103704],[130.7897586531944,32.34076726465886],[130.7895552356006,32.33993576624997],[130.79026776446625,32.339119174446175],[130.79104483552433,32.337685920224736],[130.7918677001164,32.336949961415435],[130.79265062717153,32.335814498866135],[130.79393904361993,32.33334285617686],[130.79341238509716,32.33124167602632],[130.79399230974383,32.33005238768231],[130.79403097760772,32.32916567721899],[130.79456647353823,32.327377355547945],[130.7943130903754,32.32599225209556],[130.7947019184807,32.324234833828655],[130.7945377371092,32.32390785793581],[130.79504609404688,32.32195610028028],[130.7944095118243,32.31988588058256],[130.79354092269068,32.3191298598375],[130.79387472618743,32.31740339833479],[130.79298018226658,32.316001715371854],[130.7930738879599,32.31509950696438],[130.7935880752615,32.31460249022623],[130.79335219389964,32.31360631404199],[130.7920358634235,32.312390566363426],[130.79323933491966,32.3109067920117],[130.7945209388477,32.31130557709779],[130.79567346707177,32.3120698172523],[130.7966212402166,32.312230871811906],[130.79675702122657,32.312938983273],[130.79810135868698,32.31393685549894],[130.80001680164943,32.313504259373644],[130.80038531703988,32.31460560821575],[130.8011088989479,32.31463789211107],[130.80280980179717,32.315947418275854],[130.80370844870248,32.31552099652101],[130.80495439753003,32.31545289202106],[130.8070404008677,32.31450314589335],[130.80823385675168,32.313252491628205],[130.8095354686156,32.31282663428136],[130.8099031742235,32.312204826445516],[130.81067782328492,32.311898719261],[130.8138740029344,32.312276902391794],[130.81278488943636,32.30960315381458],[130.81310265565884,32.30875953092317],[130.81422340442072,32.30719756704263],[130.81503568239975,32.306393627799174],[130.81542348328557,32.30488504019589],[130.81472001994015,32.30399714977806],[130.8147360566478,32.302873072705594],[130.81414141274217,32.30252991038955],[130.81352075470642,32.30147880449437],[130.81211735953326,32.300259267386956],[130.81286476034217,32.29639780114034],[130.81216081912962,32.29558514068023],[130.81120651969823,32.29498432800378],[130.81057711740297,32.29368482991634],[130.8091516608632,32.29345792707322],[130.80850739958007,32.292245692260465],[130.80690533912923,32.29211840596065],[130.80624441417078,32.29183020349383],[130.80586425570286,32.29110607451902],[130.80612316939278,32.29011334719938],[130.80854605637063,32.28975502030956],[130.81089878855278,32.288835477012775],[130.80995904943322,32.289770609802346],[130.8102119729807,32.290029363612305],[130.8116707523201,32.28935337568076],[130.81502088863436,32.28998638845704],[130.8189518556791,32.29003131995298],[130.82073891330975,32.28966557666416],[130.82420927263655,32.2887374307457],[130.8233293743923,32.289354904467864],[130.82432360950756,32.289405396784154],[130.82541273403564,32.28819888728597],[130.82788672277897,32.28832014648108],[130.82894024415137,32.28756533384528],[130.83003284438888,32.287552005785486],[130.8319895655498,32.28602248490865],[130.83348087604725,32.28608342228345],[130.83431401208782,32.285691638724295],[130.8358315863281,32.28402398562686],[130.83721430885768,32.28340217487994],[130.8376330580004,32.278742479555326],[130.83873237288375,32.278154589159364],[130.83922388992704,32.2768947994874],[130.84137633555852,32.278852964248024],[130.84198266951236,32.28025028792444],[130.84270823174023,32.28003792513318],[130.84325042951028,32.277950849853],[130.84250654950122,32.27659148541427],[130.8448624936827,32.27687089948757],[130.84623173969223,32.276701019962466],[130.84711175193252,32.27702190650001],[130.84821289022847,32.276668129898546],[130.84707881631653,32.276297061494866],[130.8491767307172,32.27536848277279],[130.85013094244795,32.27597062974274],[130.84984026726192,32.276523523713756],[130.85095880386967,32.27775089753514],[130.85206214688418,32.27859100514078],[130.85380542570095,32.278872196064015],[130.8542907598901,32.27857372892358],[130.8560240438289,32.27836370794761],[130.85691880848174,32.27922362347131],[130.8569894845719,32.279968176572666],[130.85819427358322,32.28010834164236],[130.85891626522317,32.28123044089411],[130.85879068703184,32.28230889140904],[130.85993912184693,32.282914291750195],[130.8611821668171,32.283908788734024],[130.86228582835093,32.28446077831789],[130.86328443003202,32.28561669060757],[130.8640739859135,32.28605995681933],[130.8654295670369,32.286310059652],[130.86504909255694,32.28734856882336],[130.8664504955361,32.28821197839941],[130.86809518106747,32.28852189265551],[130.86878605549452,32.28893606381929],[130.86935838401462,32.29061476723651],[130.8700017131633,32.291645183157556],[130.8714518037433,32.292449049838964],[130.87337645490183,32.29296971934939],[130.87517355568534,32.293114065475315],[130.87560756911668,32.294072738531995],[130.87244496368325,32.29611925753541],[130.87080701194677,32.296599459591164],[130.87035284891047,32.29765256482162],[130.87110722109887,32.29841478352284],[130.8718403632594,32.299663843661406],[130.87141601296938,32.30041238976024],[130.8720461230635,32.30178365914626],[130.87079398165235,32.30375720832396],[130.87080772170017,32.30646854482318],[130.87128330684865,32.30692841891113],[130.87133151662871,32.30816431461906],[130.87023811800566,32.31005811526403],[130.8696449611919,32.311612878844564],[130.86990826380344,32.31250698815678],[130.87053124505587,32.31270230386518],[130.8717780341936,32.31459855430195],[130.87212673517038,32.315425243315396],[130.8733860524312,32.316807144510285],[130.8749374371261,32.31749277363957],[130.87587312926908,32.31908400925399],[130.87661932985807,32.31951918526356],[130.87672439294425,32.32009345113655],[130.8773951553684,32.31978958364077],[130.87769628447109,32.31886610149],[130.8788719160026,32.31917929287792],[130.87882266331022,32.31972726713947],[130.88013384029247,32.32093061503352],[130.87994580871882,32.32193285888828],[130.88171379035225,32.32235023609193],[130.8819493735392,32.32207334056599],[130.8837634009341,32.32213491388509],[130.8831807195389,32.32271362080268],[130.88438948890038,32.32292716769185],[130.88402655679533,32.324277679163096],[130.88492270035866,32.32537836732626],[130.88526088633583,32.32638138090507],[130.88775324483854,32.32761013165821],[130.88923477495882,32.329457970987534],[130.88992380239011,32.329908530630185],[130.88958442084996,32.33137919219583],[130.89015807717516,32.33202291603374],[130.8911997032801,32.33198388247214],[130.89126858541857,32.333468223000374],[130.89198685935062,32.334664250185966],[130.8913751221582,32.33574391562669],[130.89170024900858,32.33717464024649],[130.8922347401561,32.3374646833014],[130.892483505419,32.33835343122013],[130.89211483281693,32.33928363497268],[130.89346712012298,32.34043585501251],[130.89450478446707,32.34244073978145],[130.89573796440737,32.343865636685436],[130.89680162070346,32.34438127819844],[130.8968612453997,32.346147115205426],[130.898568414393,32.347976881998285],[130.8986860296119,32.34909999062991],[130.89920860912687,32.350285078190495],[130.89876094579057,32.35075212414396],[130.8984459112914,32.350899332954484],[130.89793504026477,32.351378232365676],[130.89738119020816,32.351460704066604],[130.8959270459406,32.350731391253426],[130.895215926719,32.35065244500685],[130.89400010120522,32.35042094832242],[130.89369656777183,32.34999675120998],[130.89201339879483,32.35016122472967],[130.89191553155226,32.35029014576081],[130.8911874540843,32.35077798647082],[130.88898777528908,32.35154563577683],[130.88729341316954,32.35195888618884],[130.8863704742762,32.35194881569201],[130.88503608968153,32.35101671906198],[130.88453806835287,32.349873387645026],[130.8838976799923,32.34968847957979],[130.88263786033463,32.349926922691296],[130.88207418338013,32.349198226426964],[130.88112393131797,32.34934020935144],[130.8792324254629,32.35104350055443],[130.87879670228295,32.352102948498626],[130.87696182704826,32.351990605274864],[130.87394825551496,32.35229633181885],[130.8734480805453,32.35280275534591],[130.87145132096904,32.351971191389424],[130.87063698053694,32.35195197765224],[130.86970134399783,32.353241355424046],[130.86573264335883,32.35322342641536],[130.86450632376528,32.35276127326831],[130.86435535729964,32.35205140541507],[130.86152730020885,32.35171192958263],[130.8602154587435,32.35039253199482],[130.85829419012396,32.34998486290322],[130.85756285877446,32.34895636488882],[130.8564351656498,32.3479689160797],[130.85549423531214,32.34560832257567],[130.85435071472438,32.34437662182534],[130.852734439467,32.34345302852931],[130.85170391435113,32.34288957246884],[130.8475719647951,32.343350191535734],[130.84669159388122,32.343867056747094],[130.84484532937407,32.34420396633],[130.8434346156164,32.343769028219306],[130.84309925977982,32.34306810969069],[130.84224183354638,32.34259946937128],[130.84204482890715,32.34168128745197],[130.84118395784782,32.341811321027336],[130.84091800336623,32.34246666928508],[130.84120173897816,32.344265481377334],[130.84100136022246,32.34527686398588],[130.839918522403,32.34613723757465],[130.8380924148152,32.34923525831696],[130.83853169305058,32.350434787965774],[130.83846429210536,32.35110911192609],[130.83659183170178,32.35534981024891],[130.83597291387616,32.355873557069245],[130.83493516769107,32.35609701849387],[130.8316871690472,32.35802220230957],[130.8302053123346,32.3596687371216],[130.82768750939292,32.360508267697824],[130.82648313136528,32.361265328921164],[130.8244932044075,32.363042198831295],[130.8237398636584,32.364521092995],[130.82290036557657,32.36489458465243],[130.821090859251,32.36464843142088],[130.81974414166044,32.36477761858484],[130.81738078094796,32.365561049415255],[130.81616710427963,32.36539066638937],[130.8151509146349,32.36580126385429],[130.8134707894865,32.36705393319252],[130.81163440314393,32.369130513633294],[130.80994459029884,32.37006026933526],[130.80913575333852,32.370846768045475],[130.80864912129928,32.37194207467675],[130.80845821370906,32.373152041654045],[130.80793174665584,32.37399610224895],[130.80632177147854,32.375061077550235],[130.80508837351587,32.37929491761615],[130.8028724884754,32.378038705925725],[130.8000002050028,32.37665327695663],[130.79906963562834,32.37595468687907],[130.79809262123823,32.374840314261135],[130.79798376899583,32.37406256739413],[130.793874367398,32.371434865831944],[130.79235909583497,32.37086927349567],[130.79058667758554,32.37220700562038],[130.79001834460132,32.37204520311796],[130.78908542614124,32.372405583587465],[130.7891466997727,32.373223560722],[130.78758123923384,32.37385102984706],[130.78645996233666,32.373688204356355],[130.78430316425454,32.3738387497567],[130.78332305799276,32.374105150263134],[130.77995799252204,32.37412613041541],[130.77917157408007,32.37270359922216],[130.7778869710606,32.371514801327635]]]}},{"type":"Feature","properties":{"KEY_CODE":"43510002005","PREF":"43","CITY":"510","CITY_NAME":"相良村","S_NAME":"大字川辺","SETAI":"347"},"geometry":{"type":"Polygon","coordinates":[[[130.80053319847568,32.257003347338845],[130.80083616996174,32.256635892053495],[130.80090452392068,32.25368726439547],[130.80118084545455,32.25312811592964],[130.80114409497426,32.25120655064454],[130.801734039613,32.249140346294446],[130.8032082413768,32.24911063149452],[130.80455649576442,32.24941355350415],[130.8050351241083,32.24901486929534],[130.8068108617436,32.24846756603454],[130.8075454503146,32.246868004536445],[130.80842255904582,32.24664854079443],[130.8094226226987,32.24753716764912],[130.81015891573279,32.24539899931162],[130.811990635575,32.24757059704677],[130.81923435533875,32.24752974994941],[130.82036947237364,32.24618407760067],[130.82044809332763,32.24528027377925],[130.821072469651,32.24449060706323],[130.82160580283136,32.24476631336024],[130.8231991331235,32.242730346847196],[130.82544928498965,32.24098610386848],[130.82616559128488,32.24104056920911],[130.82738963627588,32.24060115872802],[130.83007857696643,32.24173378860372],[130.8332510236693,32.24356264910378],[130.83585406934793,32.24423252806182],[130.83961905796144,32.24601342505102],[130.84254157909305,32.24709942187433],[130.84913689638566,32.25047883764711],[130.85002431753134,32.25165940170472],[130.85096316296418,32.25470573865749],[130.85088726704927,32.256416775185485],[130.8505736846406,32.25880930513543],[130.85056194626003,32.26048469409675],[130.84862915729158,32.26071633401534],[130.8471030363906,32.26048888330874],[130.84729394357512,32.263416270411106],[130.8494279625025,32.264093041706964],[130.84927650434804,32.2661509511703],[130.84833057517358,32.27150697903706],[130.8476242016227,32.27301034512713],[130.8487313434625,32.273498334652686],[130.84930626931742,32.274415827473454],[130.8491767307172,32.27536848277279],[130.84707881631653,32.276297061494866],[130.84821289022847,32.276668129898546],[130.84711175193252,32.27702190650001],[130.84623173969223,32.276701019962466],[130.8448624936827,32.27687089948757],[130.84250654950122,32.27659148541427],[130.84325042951028,32.277950849853],[130.84270823174023,32.28003792513318],[130.84198266951236,32.28025028792444],[130.84137633555852,32.278852964248024],[130.83922388992704,32.2768947994874],[130.83873237288375,32.278154589159364],[130.8376330580004,32.278742479555326],[130.83721430885768,32.28340217487994],[130.8358315863281,32.28402398562686],[130.83431401208782,32.285691638724295],[130.83348087604725,32.28608342228345],[130.8319895655498,32.28602248490865],[130.83003284438888,32.287552005785486],[130.82894024415137,32.28756533384528],[130.82788672277897,32.28832014648108],[130.82541273403564,32.28819888728597],[130.82432360950756,32.289405396784154],[130.8233293743923,32.289354904467864],[130.82420927263655,32.2887374307457],[130.82073891330975,32.28966557666416],[130.8189518556791,32.29003131995298],[130.81502088863436,32.28998638845704],[130.8116707523201,32.28935337568076],[130.8102119729807,32.290029363612305],[130.80995904943322,32.289770609802346],[130.81089878855278,32.288835477012775],[130.80854605637063,32.28975502030956],[130.80612316939278,32.29011334719938],[130.80586425570286,32.29110607451902],[130.80477688328025,32.29041446244668],[130.80465192353535,32.28999101953177],[130.8058872037074,32.28757799773805],[130.80534335728322,32.28625357900886],[130.80591871596602,32.285627517815605],[130.80664133066804,32.2800672648815],[130.80703278483062,32.27914484680968],[130.8054766901238,32.27826008667159],[130.80472848348697,32.27663350184824],[130.80503024522656,32.276105737244706],[130.8054410840799,32.274083277416196],[130.80640891387702,32.272803263390465],[130.80618568231776,32.271734756186625],[130.80546191930148,32.271280369174804],[130.80492427144657,32.270017111725075],[130.8056116363223,32.26834688599907],[130.8055802851974,32.26719919506188],[130.80445000435313,32.266738318104466],[130.8042327096748,32.26570511308825],[130.80251186192322,32.26508553233273],[130.8021076100733,32.26462584826084],[130.8012260609967,32.262379324947965],[130.80158194612207,32.26176301767463],[130.8018371056462,32.260874012273945],[130.80153591608658,32.259611038799406],[130.80259963489985,32.2595697474786],[130.8027521104429,32.25932605801585],[130.80358022372894,32.25892567700137],[130.80375033360784,32.25832344614713],[130.80294222022525,32.25727492994362],[130.8008587813037,32.25706009586784],[130.80053319847568,32.257003347338845]]]}},{"type":"Feature","properties":{"KEY_CODE":"43510003011","PREF":"43","CITY":"510","CITY_NAME":"相良村","S_NAME":"大字深水","SETAI":"367"},"geometry":{"type":"Polygon","coordinates":[[[130.79126516739436,32.23554097706275],[130.79211878548466,32.23489974209634],[130.7930681144819,32.23519062958397],[130.7932756082643,32.23419636509104],[130.79317748431015,32.232966610737684],[130.79349216726038,32.232438613305746],[130.79561796839937,32.23161146376832],[130.79777963869375,32.232193885048616],[130.79909276931824,32.233393049573706],[130.80081932705718,32.23364588061424],[130.80357320809952,32.23376833755488],[130.80474887105953,32.231767629917606],[130.8055135109579,32.23108120074082],[130.80858927581355,32.23265729327351],[130.81050286740125,32.23262716723875],[130.8131690113606,32.23353476444707],[130.81129595221455,32.23489367590069],[130.81153567854383,32.237366218206574],[130.8112451972017,32.23965679925728],[130.8131349483802,32.24018239096837],[130.8135317019565,32.2407076338959],[130.8149379365379,32.240657235729174],[130.81518622977936,32.24225100074903],[130.81848638984115,32.24181864665447],[130.81918665985668,32.241500970235414],[130.81785736225254,32.23963943132698],[130.82086512361428,32.23902387199868],[130.82248879165692,32.240023077714916],[130.82381837636697,32.24058461296543],[130.82544928498965,32.24098610386848],[130.8231991331235,32.242730346847196],[130.82160580283136,32.24476631336024],[130.821072469651,32.24449060706323],[130.82044809332763,32.24528027377925],[130.82036947237364,32.24618407760067],[130.81923435533875,32.24752974994941],[130.811990635575,32.24757059704677],[130.81015891573279,32.24539899931162],[130.8094226226987,32.24753716764912],[130.80842255904582,32.24664854079443],[130.8075454503146,32.246868004536445],[130.8068108617436,32.24846756603454],[130.8050351241083,32.24901486929534],[130.80455649576442,32.24941355350415],[130.8032082413768,32.24911063149452],[130.801734039613,32.249140346294446],[130.80114409497426,32.25120655064454],[130.80118084545455,32.25312811592964],[130.80090452392068,32.25368726439547],[130.80083616996174,32.256635892053495],[130.80053319847568,32.257003347338845],[130.80021649270364,32.25660065567556],[130.7998374507222,32.256171369902496],[130.79962135708948,32.25613699069341],[130.79946328143902,32.25606669857057],[130.79941463167162,32.25589441711841],[130.79914207615474,32.25568675482349],[130.79825660057344,32.25564734517336],[130.7979899818737,32.25561746045469],[130.79766874970375,32.2553667356756],[130.79765661814994,32.254716794284484],[130.79722031270742,32.254431425529376],[130.79697846096525,32.254291519687115],[130.79668869800784,32.25436150601014],[130.79655417544927,32.25392415332798],[130.7964856640572,32.25351142802266],[130.79649932696606,32.25345395511543],[130.79687434816006,32.25311953193234],[130.79697296076654,32.25293854108311],[130.7969122251994,32.25283486603736],[130.79651312220025,32.252509957501836],[130.79538548551457,32.25265325329897],[130.79528331834368,32.25235165879543],[130.79530570180182,32.25226023834651],[130.7954900499389,32.25172448397183],[130.79509961999685,32.25063523748933],[130.79682700051478,32.249593084728936],[130.79686195918185,32.24923027458813],[130.79727155851128,32.24937601969021],[130.79819502872675,32.24884054904935],[130.79714650777987,32.247989730758334],[130.79687457532265,32.24737966831935],[130.79501330995296,32.24720243484887],[130.79489785187332,32.245358874365124],[130.79532535891119,32.245112829040906],[130.79617934848662,32.24509971889818],[130.79635084622373,32.244780676388096],[130.79559518756994,32.24281269501593],[130.79588649063845,32.242377733436996],[130.79522129410023,32.241984742269295],[130.79520562312143,32.24136058469922],[130.79594070318942,32.2410425408449],[130.79527636684,32.240257654870504],[130.79524432696152,32.23931414685245],[130.795836106283,32.2381466864163],[130.7948086799928,32.2378202472922],[130.79391302126675,32.236960921427965],[130.79267849737056,32.23735767284986],[130.79133336296755,32.23640386878684],[130.79126516739436,32.23554097706275]]]}},{"type":"Feature","properties":{"KEY_CODE":"43510004013","PREF":"43","CITY":"510","CITY_NAME":"相良村","S_NAME":"大字柳瀬","SETAI":"519"},"geometry":{"type":"Polygon","coordinates":[[[130.77998267954382,32.214409536938],[130.78005334807057,32.214265782725015],[130.78079112412655,32.213722631053386],[130.78215505304712,32.212438691283865],[130.78234435455195,32.21193882490363],[130.78238636306935,32.211108599808156],[130.78170323871456,32.208895542809024],[130.7812982403021,32.20754729702921],[130.78107561778074,32.20692080396546],[130.7808919789369,32.20672989076961],[130.78106167635602,32.206056450333925],[130.78214565189865,32.204642722054274],[130.78238198826503,32.20455808561555],[130.78295161308438,32.204415471911794],[130.7840933011761,32.20432329975052],[130.78421853819134,32.204322034158615],[130.7863226553121,32.20455025666353],[130.78804994484798,32.20471855688487],[130.79012487858037,32.205222875936904],[130.79186572519643,32.20572505643567],[130.79254385096073,32.20585758792893],[130.7938700157723,32.2058801381002],[130.79470179742134,32.20544592058604],[130.79709743510736,32.20476389424955],[130.79862317259284,32.20480278189359],[130.80047551202256,32.205441995606854],[130.8012953786889,32.20572281139931],[130.80273483924896,32.206210058215156],[130.80617491093588,32.206740487496326],[130.80873012967243,32.20663822962866],[130.81085109177715,32.20587984901209],[130.81354984236918,32.20601563756646],[130.8152959770171,32.2066967349674],[130.8178058509739,32.208943455246654],[130.8194621726557,32.210880710843554],[130.8190423860664,32.21129785926539],[130.81878939925926,32.21326206414162],[130.81646943578,32.21326060912203],[130.81641759873716,32.215717344327146],[130.81049280231932,32.21561654213245],[130.80850594952835,32.21560049452856],[130.80849447852694,32.21658290087472],[130.80836805491413,32.22580340738432],[130.807723875205,32.22996077746943],[130.8074416452484,32.230442926509134],[130.8071899233847,32.23057592057969],[130.80422524746712,32.2303750775827],[130.8055135109579,32.23108120074082],[130.80474887105953,32.231767629917606],[130.80357320809952,32.23376833755488],[130.80081932705718,32.23364588061424],[130.79909276931824,32.233393049573706],[130.79777963869375,32.232193885048616],[130.79561796839937,32.23161146376832],[130.79349216726038,32.232438613305746],[130.79111306465626,32.2324209131685],[130.7904870727507,32.23146386796275],[130.78855280409516,32.23098352456051],[130.7878184254083,32.230115557485675],[130.7874591597977,32.22947010181556],[130.78788723805954,32.22879984316587],[130.78880080538852,32.22833149673599],[130.78971249767855,32.2273188418694],[130.78947059281427,32.226460240827905],[130.78991395012,32.22560074798717],[130.78803097248485,32.22412976508275],[130.78689515184698,32.22373988829431],[130.78552570100436,32.2227433021561],[130.78521894992755,32.22101187701346],[130.78522579442895,32.22100026242239],[130.78599473082699,32.2204392425877],[130.78645092904605,32.22019179166572],[130.78653311344394,32.220101039120614],[130.78686169773817,32.219479226803],[130.78671206083288,32.21829651497849],[130.78622489326105,32.21738604914187],[130.78666215315067,32.21537220512308],[130.7869985311967,32.21447420186706],[130.78621688113037,32.213957388340695],[130.78401272625854,32.215306513663144],[130.78162596013308,32.215193240500504],[130.78020856131798,32.21470184743978],[130.78005200219505,32.21457467542633],[130.77998267954382,32.214409536938]],[[130.78653311344394,32.220101039120614],[130.787070131288,32.220020641775314],[130.78665921637116,32.22007800249669],[130.78653311344394,32.220101039120614]]]}}]}