{"type":"FeatureCollection","features":[{"type":"Feature","properties":{"KEY_CODE":"10448001001","PREF":"10","CITY":"448","CITY_NAME":"昭和村","S_NAME":"大字川額","SETAI":"510"},"geometry":{"type":"Polygon","coordinates":[[[139.0428645735907,36.61470501250893],[139.04286633747026,36.61453231653787],[139.0430200706844,36.612434572578344],[139.04291524670518,36.61149640916957],[139.04302212070678,36.60962488271512],[139.0433811052897,36.60887430777346],[139.04348130680444,36.60870817290803],[139.04448907803345,36.607808039771044],[139.04553270990812,36.60709746742981],[139.046279155797,36.60646399610177],[139.04751109080485,36.60487052328769],[139.0476790431513,36.60448938032949],[139.04827636032783,36.60338570713361],[139.04882085077455,36.60259908544045],[139.04978152932242,36.6010858903602],[139.0502361119046,36.59931795049988],[139.05043447721138,36.596558105942655],[139.0499033740338,36.593801451481546],[139.05028966045535,36.59215841668158],[139.05210860222434,36.59071250031829],[139.05247545290644,36.591000647535765],[139.0531083003735,36.590104727404686],[139.05403890587442,36.589611540058044],[139.05670285770861,36.58708418432283],[139.05794304969737,36.58657601354201],[139.0589033361151,36.58661733990711],[139.06015001853567,36.5868302919989],[139.0640908111405,36.58709233012714],[139.06495451119025,36.586275061480514],[139.06711175046465,36.582674010909244],[139.06923843156773,36.58039791224321],[139.0705426328257,36.57978140134267],[139.07279615592478,36.58006847593012],[139.07496435131623,36.57967102495928],[139.0767858696774,36.58283964466722],[139.07590430066998,36.586385327492],[139.07752854385026,36.58589605566863],[139.07904587478703,36.58369782293442],[139.0811693909538,36.583135750552145],[139.08245289387014,36.58344741249191],[139.08490419681965,36.58326338261476],[139.08594220661632,36.58282585240068],[139.08751384723328,36.58121805550605],[139.09021600121062,36.58064582351001],[139.09505621073163,36.579130726045996],[139.09783514370372,36.579927218040496],[139.1016053619865,36.58041929279923],[139.10228302439964,36.58447520716081],[139.10387975887426,36.586564663934176],[139.1036853487733,36.58682750401869],[139.10370296876738,36.59047075224437],[139.10352148788363,36.59142725807618],[139.10347033983837,36.59162961346417],[139.1033932946968,36.591962876114636],[139.10328870967595,36.59207749379982],[139.10303146574026,36.59218716610519],[139.1025491973376,36.59246633997793],[139.10030762210172,36.594235966385405],[139.09696477937976,36.59399271173034],[139.09512402987315,36.59446534032461],[139.0936916267956,36.59532123594777],[139.09015728495928,36.59565789387687],[139.0894792957554,36.59540337429543],[139.08669939984463,36.595641334319716],[139.08473092637897,36.5952612778859],[139.0826324755026,36.59444743784682],[139.0799771054628,36.5944417880085],[139.07775166830632,36.59474866063604],[139.07776556626763,36.59479183742593],[139.0776458943045,36.59501216086083],[139.07751646198912,36.59513195107964],[139.0772297270072,36.59531967711297],[139.0769336573829,36.595372368907164],[139.0762489458981,36.59530114734116],[139.07589796495483,36.59541530729457],[139.0755556436254,36.59597400619085],[139.0756629735752,36.596935540808126],[139.07615066542797,36.601895825883325],[139.07659158849287,36.602918967094446],[139.07547129782597,36.60275337859118],[139.0738668343931,36.603777911325224],[139.0728177494782,36.60357233404144],[139.07157077241834,36.602473211568764],[139.068493034022,36.60315062283027],[139.06657507135807,36.60261248047031],[139.06447719300942,36.60338104674],[139.06277676855416,36.604535233583476],[139.06025930448826,36.60503094400179],[139.05690442713723,36.60469309011753],[139.0557497585298,36.60410817210349],[139.0543951670809,36.6043959935829],[139.05434671131997,36.605002034681824],[139.05219447054267,36.60755586524027],[139.0514855086149,36.608760497284344],[139.0512291751702,36.60934145029025],[139.05105161338372,36.60981850118562],[139.05067160406333,36.61093564817386],[139.05062539151018,36.611247888551716],[139.05051876172828,36.612110741984495],[139.05057029724523,36.612429111866966],[139.05085001756152,36.6126630062028],[139.05099752914407,36.61288688217296],[139.0510753484985,36.61339594571536],[139.05056499049573,36.61379075976483],[139.04920020461103,36.61475717166489],[139.04864755981578,36.61477304872117],[139.0482495245361,36.61505326137838],[139.0475460120875,36.61502124843574],[139.0471541972313,36.61509274069035],[139.04669445465618,36.6148444160744],[139.04536133472178,36.614736428746994],[139.04493398297814,36.615038684339446],[139.0440059283836,36.615084306372744],[139.04371678025026,36.61484280036253],[139.0428645735907,36.61470501250893]],[[139.0491924292378,36.61091399267163],[139.04922475787657,36.61092096377891],[139.04922124111064,36.610638884297344],[139.0491924292378,36.61091399267163]],[[139.07709243331672,36.590298814555155],[139.0788991361922,36.589728867173854],[139.07889913619212,36.58972886717386],[139.07709243331672,36.590298814555155]],[[139.08919780747587,36.586802690313604],[139.0893714192158,36.587842958929066],[139.09090329380305,36.587638689855325],[139.0893714192158,36.58784295892905],[139.08919780747587,36.586802690313604]]]}},{"type":"Feature","properties":{"KEY_CODE":"10448002001","PREF":"10","CITY":"448","CITY_NAME":"昭和村","S_NAME":"大字森下","SETAI":"397"},"geometry":{"type":"MultiPolygon","coordinates":[[[[139.0426253739079,36.61666996544439],[139.0428645735907,36.61470501250893],[139.04371678025026,36.61484280036253],[139.0440059283836,36.615084306372744],[139.04493398297814,36.615038684339446],[139.04536133472178,36.614736428746994],[139.04669445465618,36.6148444160744],[139.0471541972313,36.61509274069035],[139.0475460120875,36.61502124843574],[139.0482495245361,36.61505326137838],[139.04864755981578,36.61477304872117],[139.04920020461103,36.61475717166489],[139.05056499049573,36.61379075976483],[139.0510753484985,36.61339594571536],[139.05099752914407,36.61288688217296],[139.05085001756152,36.6126630062028],[139.05057029724523,36.612429111866966],[139.05051876172828,36.612110741984495],[139.05062539151018,36.611247888551716],[139.05067160406333,36.61093564817386],[139.05105161338372,36.60981850118562],[139.0512291751702,36.60934145029024],[139.0514855086149,36.608760497284344],[139.05219447054267,36.60755586524027],[139.05434671131997,36.605002034681824],[139.0543951670809,36.6043959935829],[139.0557497585298,36.60410817210349],[139.05690442713723,36.60469309011753],[139.06025930448826,36.60503094400179],[139.06277676855416,36.604535233583476],[139.06447719300942,36.60338104674],[139.06657507135807,36.60261248047031],[139.068493034022,36.60315062283027],[139.07157077241834,36.602473211568764],[139.0728177494782,36.60357233404144],[139.0738668343931,36.603777911325224],[139.07547129782597,36.60275337859118],[139.07659158849287,36.602918967094446],[139.07721075019612,36.60444194752354],[139.07387889014464,36.604666614389174],[139.07347955539493,36.60545793016915],[139.07420725510323,36.60843604680044],[139.07589676996986,36.61083776294671],[139.07622338684033,36.61162319560865],[139.07645912612819,36.61321816165667],[139.07611796072865,36.61367710477906],[139.07611699217793,36.61379383404504],[139.06862436428065,36.6149390334073],[139.0692868712235,36.61748753338462],[139.06581090880528,36.61728611795388],[139.06527758925938,36.61572400001265],[139.06155073445547,36.61676222128191],[139.06016564280154,36.61656846441057],[139.0597892144096,36.61577456952786],[139.05885950059664,36.61730015233398],[139.05772619758503,36.615987004620536],[139.05657678281355,36.61659307509264],[139.05541354496404,36.61614130201734],[139.05245570574112,36.61596035117713],[139.05280397381736,36.6170880261203],[139.05443821017653,36.61925761516532],[139.05496752923378,36.61910616875293],[139.05611080783993,36.620706503245856],[139.0581266389188,36.623606543034214],[139.05941879184164,36.62499136601544],[139.0588477580263,36.624698929046204],[139.05776628953473,36.623655386093525],[139.05588700015036,36.62407967770811],[139.05466561125576,36.62397927212616],[139.0540326904387,36.62367711212478],[139.0539115975701,36.623689065963106],[139.05353783394264,36.62398556754414],[139.05350911070713,36.62421856430514],[139.05349782819667,36.62468007182385],[139.05071472976974,36.62358978305663],[139.0472433650973,36.621534778382504],[139.04600616315176,36.61960067237069],[139.04547259268105,36.61763680881658],[139.0426253739079,36.61666996544439]]],[[[139.0755556436254,36.59597400619085],[139.07589796495483,36.59541530729457],[139.0762489458981,36.59530114734116],[139.0769336573829,36.595372368907164],[139.0772297270072,36.59531967711297],[139.07751646198912,36.59513195107964],[139.0776458943045,36.59501216086083],[139.07776556626763,36.59479183742593],[139.07775166830632,36.59474866063604],[139.0799771054628,36.5944417880085],[139.0826324755026,36.59444743784682],[139.08473092637897,36.5952612778859],[139.08669939984463,36.595641334319716],[139.0894792957554,36.59540337429543],[139.09015728495928,36.59565789387687],[139.0936916267956,36.59532123594777],[139.09512402987315,36.59446534032461],[139.09696477937976,36.59399271173034],[139.10030762210172,36.594235966385405],[139.1025491973376,36.59246633997793],[139.10265456191394,36.592584072482424],[139.1024519897592,36.5931872841023],[139.10224449040467,36.593636764793864],[139.1019151291829,36.593870403214325],[139.10165546326934,36.594124885883154],[139.10153524741867,36.59458130781201],[139.10125213960268,36.594793472677814],[139.10114616083712,36.59492082464724],[139.10112971468118,36.594979656755186],[139.10142141334916,36.59553590929587],[139.10266165179107,36.5972223852232],[139.10312310537955,36.599794757430544],[139.10245645616084,36.599981489089345],[139.10164621469775,36.60053733048339],[139.0998466619274,36.6015181389592],[139.10058715026372,36.60186796402653],[139.10037811249393,36.60232855990175],[139.10016147214,36.60234194545347],[139.09987639695024,36.60242644692769],[139.0994891918641,36.60289883082693],[139.09945508112338,36.60291854738167],[139.0992505749941,36.602895254346855],[139.09904417590724,36.60272627362859],[139.09878709533785,36.60260689930161],[139.0985733194668,36.60245625007424],[139.09856032447783,36.60224747910441],[139.09870603396158,36.602006523983256],[139.09870779230957,36.60195922046968],[139.09867735675078,36.60186757139728],[139.09818010774646,36.60178931850496],[139.09769695507822,36.60188653554842],[139.096794953231,36.60190238249204],[139.09629800774513,36.602279168659],[139.0962091424066,36.602257849293814],[139.096143138696,36.60216492558546],[139.0959230084507,36.60180652687239],[139.09579818324622,36.601783649100646],[139.095705597621,36.60179553961421],[139.09552679482633,36.601893286685694],[139.0948186666753,36.60223693785575],[139.09402594831678,36.60216571089723],[139.09347981266387,36.60213226435995],[139.09319471363304,36.60206790465701],[139.09285642153856,36.60205081149393],[139.09259328406543,36.60212803691699],[139.09133225289833,36.60216773445034],[139.09067169048893,36.60208357500348],[139.09044607561665,36.602135964216636],[139.08920027996118,36.60219833487555],[139.08850387711885,36.602127599317136],[139.08778873455293,36.602225792248674],[139.0869848465426,36.60219077885826],[139.08614492056614,36.60218925835793],[139.08555785459646,36.6022081147866],[139.08508809879436,36.60229529486382],[139.08472780019912,36.60230556915278],[139.08440235884396,36.602079420657745],[139.08414848776883,36.60201023740104],[139.0839241707175,36.60208142242142],[139.08378049699584,36.60216571368896],[139.08346965475621,36.60252425160153],[139.083394908119,36.60255131307615],[139.08265686420057,36.60260553918462],[139.08208853694543,36.60260950164192],[139.08184856651994,36.60270057840474],[139.0816076953122,36.60288437605988],[139.0814905990624,36.60310894424389],[139.08143129496642,36.603146170175094],[139.08071252663052,36.60329182537557],[139.08008296464973,36.60336924977253],[139.0799730267332,36.60318077874472],[139.08000284409746,36.60298818809899],[139.08008546410304,36.60279839680294],[139.08002386915032,36.60274794968691],[139.07962338298498,36.60273289161529],[139.07889367612174,36.603051317773485],[139.07876904861354,36.60309805547524],[139.07822843276338,36.60297325680288],[139.07814505925018,36.602917600657314],[139.07808709655808,36.60281711454707],[139.0779052016928,36.60268324563921],[139.07769724938095,36.60266939873251],[139.0774354582988,36.602767933056725],[139.07706643939218,36.603017868759295],[139.07697524644743,36.60302088177913],[139.07688029992008,36.60296113937486],[139.0767385855788,36.602906520514026],[139.07659158849287,36.602918967094446],[139.07615066542797,36.601895825883325],[139.0756629735752,36.596935540808126],[139.0755556436254,36.59597400619085]]]]}},{"type":"Feature","properties":{"KEY_CODE":"10448003001","PREF":"10","CITY":"448","CITY_NAME":"昭和村","S_NAME":"大字橡久保","SETAI":"166"},"geometry":{"type":"Polygon","coordinates":[[[139.05245570574112,36.61596035117713],[139.05541354496404,36.61614130201734],[139.05657678281355,36.61659307509264],[139.05772619758503,36.615987004620536],[139.05885950059664,36.61730015233398],[139.0597892144096,36.61577456952786],[139.06016564280154,36.61656846441057],[139.06155073445547,36.61676222128191],[139.06527758925938,36.61572400001265],[139.06581090880528,36.61728611795388],[139.0692868712235,36.61748753338462],[139.06862436428065,36.6149390334073],[139.07611699217793,36.61379383404504],[139.07636817822126,36.61463173196435],[139.0764707280427,36.61527267091447],[139.07710071100527,36.61667291669018],[139.07769187581778,36.6175521054739],[139.07839297725724,36.61855146932005],[139.0785852504787,36.61878045189417],[139.07830003857106,36.61906239613096],[139.0787462462621,36.62056038565369],[139.07897141502175,36.62098185524517],[139.07911583146566,36.621363528025825],[139.07911774351476,36.622001076937764],[139.0793881714921,36.622143596453824],[139.07966303419315,36.62220756892872],[139.0797628686708,36.62213574962624],[139.07991457679907,36.62219056697675],[139.08027315520863,36.622304350476405],[139.08043429032983,36.62232395199399],[139.08071920961044,36.62243170770808],[139.08099549329853,36.62259235520258],[139.08108059253271,36.622607746461455],[139.07916080486189,36.623937897120534],[139.07183367355972,36.62634302796525],[139.07189991273773,36.626686614226884],[139.06672967357727,36.62867983427664],[139.06442607541481,36.62873602063062],[139.0640581048003,36.62868746871228],[139.06368770455146,36.629217989517336],[139.06316551175104,36.62949906974936],[139.06199438933245,36.62989199069549],[139.061541772264,36.62995736500394],[139.0610551777248,36.630206417881816],[139.0607159574232,36.6299810408348],[139.05985108651063,36.629515348856756],[139.05899731683726,36.629269104776526],[139.05755204162605,36.62777246555981],[139.05698937361268,36.62662661083183],[139.05470330532026,36.625260905457814],[139.05445222696116,36.625152320370276],[139.05381798312177,36.624859234351014],[139.05350911070713,36.62421856430514],[139.05353783394264,36.62398556754414],[139.0539115975701,36.623689065963106],[139.0540326904387,36.62367711212478],[139.05466561125576,36.62397927212616],[139.05588700015036,36.62407967770811],[139.05776628953473,36.623655386093525],[139.0588477580263,36.624698929046204],[139.05941879184164,36.62499136601544],[139.0581266389188,36.623606543034214],[139.05611080783993,36.620706503245856],[139.05496752923378,36.61910616875293],[139.05443821017653,36.61925761516532],[139.05280397381736,36.6170880261203],[139.05245570574112,36.61596035117713]]]}},{"type":"Feature","properties":{"KEY_CODE":"10448004001","PREF":"10","CITY":"448","CITY_NAME":"昭和村","S_NAME":"大字糸井","SETAI":"872"},"geometry":{"type":"Polygon","coordinates":[[[139.0610551777248,36.630206417881816],[139.061541772264,36.62995736500394],[139.06199438933245,36.62989199069549],[139.06316551175104,36.62949906974936],[139.06368770455146,36.629217989517336],[139.06442607541481,36.62873602063062],[139.06672967357727,36.62867983427664],[139.07189991273773,36.626686614226884],[139.07183367355972,36.62634302796525],[139.07916080486189,36.623937897120534],[139.08108059253271,36.622607746461455],[139.0812075179093,36.622597349509725],[139.081355862615,36.62252210290251],[139.08139209379456,36.6223439177363],[139.08143911154107,36.62225127693165],[139.08161463678843,36.62222822959706],[139.08177333794112,36.62226457258011],[139.08182835164527,36.622302022908606],[139.08190781045738,36.62242150932184],[139.0820162528171,36.62241662848688],[139.08225758649687,36.62225458894684],[139.08222164446818,36.62209707453439],[139.082376838638,36.62193674449678],[139.08252906939393,36.621901723841205],[139.08294612873576,36.62201086648999],[139.0830157694031,36.62201707682702],[139.0832729449657,36.62203164609082],[139.08333132735353,36.62209108284014],[139.08334482247784,36.62221276083087],[139.08375485443796,36.62267804873355],[139.08406269433908,36.623161703403454],[139.08415347215768,36.62324028506464],[139.08434931253854,36.62327523722128],[139.08459224970179,36.62330837285693],[139.08486569525135,36.62315828763126],[139.08514439106528,36.62313370153298],[139.0857985422945,36.62324002661647],[139.08610766477722,36.623185071898114],[139.08646364317147,36.622881588491616],[139.08673430271557,36.62247639737188],[139.0870408534373,36.62217140817265],[139.08720744506917,36.62155230129452],[139.08754001918555,36.62140131214358],[139.08695182455273,36.62072419490606],[139.09438724226496,36.615450282661065],[139.09730086100947,36.61370590088414],[139.09820247687733,36.61264111977427],[139.1023326278284,36.61047673928336],[139.10288003860353,36.61100695818638],[139.11294088992656,36.604435505142405],[139.11557478178392,36.60158766968766],[139.11735312047446,36.6019050836152],[139.1179985587049,36.60054753739527],[139.12043706474861,36.59924665696537],[139.12213537528598,36.59734287317936],[139.12202470004922,36.59628180660407],[139.123555684297,36.59429014805224],[139.12554009361565,36.59297223161947],[139.12734270416607,36.59257368704063],[139.12827093744806,36.59145798513826],[139.13043792915676,36.590400141688804],[139.13211609451687,36.587930283107674],[139.13366736121313,36.58625165895552],[139.13797796210517,36.58266168876148],[139.13941899648984,36.58286593025881],[139.1399773955758,36.58360484937705],[139.141047310293,36.58240946098299],[139.1415557520458,36.580600214880825],[139.14516602636675,36.57617884599353],[139.14761138046688,36.577363609492835],[139.1492564052863,36.577477174616504],[139.1523276685746,36.57703263138652],[139.15396191637296,36.57645298492673],[139.15594437063487,36.57708093889694],[139.15593139365916,36.57710251116382],[139.15649462189558,36.577477104453614],[139.1571963900546,36.58120899016901],[139.15726365428642,36.58499107529925],[139.15695625129925,36.58612208054039],[139.15338760279948,36.593287153911966],[139.15112580989114,36.59574843302583],[139.14962761723783,36.59667349609589],[139.1485602064447,36.599056592676135],[139.14787096299656,36.599070631824766],[139.14564673244809,36.60074763503072],[139.14466465659305,36.6021446414984],[139.14069468138692,36.606290606026754],[139.13797273239894,36.60862720200576],[139.13417479431234,36.61070447739825],[139.13446715833857,36.61243153603468],[139.13252161368592,36.61365349048154],[139.12229560404262,36.620562832843916],[139.1210163186482,36.61941870519796],[139.11964517485814,36.62070511912794],[139.12065267252487,36.621675141477795],[139.11858335387421,36.62302496707559],[139.11769308843606,36.62353016891362],[139.11584839402434,36.62480186376961],[139.11288465283906,36.62692349946278],[139.1111935447659,36.62808648540599],[139.11147391377287,36.62848822866503],[139.1098724117557,36.63012915649966],[139.10808172454367,36.63124199388678],[139.10644882888673,36.63133155983514],[139.10287262707283,36.633500813313816],[139.10354065243308,36.63520246598503],[139.10112358757075,36.6368337221494],[139.10061100556666,36.63716487292354],[139.09882708336474,36.63827909508851],[139.09830869778398,36.638731933636954],[139.09804672823986,36.63905517846408],[139.0974930720974,36.64010688640461],[139.09744383424453,36.64023176631987],[139.09748499831383,36.64056588654818],[139.0970815586982,36.641184812945816],[139.09681512502888,36.64158554538966],[139.09630616615055,36.6420220264157],[139.09627215380658,36.642483824626254],[139.0960653968429,36.642644625435835],[139.09547033138603,36.64292905775131],[139.09508035356808,36.64311801477874],[139.09450222749683,36.64355856721109],[139.094214674036,36.64375315274924],[139.09409805998155,36.64385128238588],[139.09407276954192,36.643928784943974],[139.09413691332514,36.64400965523138],[139.0942695582458,36.64406278864199],[139.09456854417218,36.64413525527839],[139.094916145709,36.64425885283881],[139.09518919326533,36.64438551152783],[139.0956318295112,36.64446590262926],[139.0957924602732,36.64453469485476],[139.09585115500275,36.644628275829334],[139.0958298580122,36.644653561738615],[139.09534310048247,36.644609579674764],[139.094410601644,36.64452686476905],[139.09380982714762,36.64449210105231],[139.09292876365524,36.64453114295522],[139.09363642782972,36.64512018006823],[139.09380022881902,36.64522286006864],[139.09394688240926,36.64546526269497],[139.0940367687418,36.64596155071735],[139.09403802585985,36.64619601149794],[139.093083650296,36.64776059036432],[139.09254580835207,36.64865268649593],[139.09358927594693,36.64969151916698],[139.09426951601208,36.65003748215145],[139.09314146440173,36.649601161691315],[139.09284237837414,36.6493451410396],[139.0923336009151,36.64921624087446],[139.09161842817218,36.649225956281335],[139.0901960982615,36.650595533917574],[139.0900416981272,36.65061435884917],[139.0897649261538,36.650601301443146],[139.0891406849907,36.65026692855652],[139.08909909095587,36.650158101860285],[139.0886839658775,36.649767366719374],[139.08828657313816,36.649486431046085],[139.08884893917966,36.6487301824644],[139.0893060276903,36.64814478423352],[139.08949028604562,36.64810981281448],[139.08956671877422,36.64810282491302],[139.08986458384564,36.64814755584713],[139.08995041956746,36.648125770455465],[139.0898702516477,36.64803951734646],[139.09001929210177,36.64793237069105],[139.0899157360114,36.64787955597451],[139.09010784631565,36.647863993622366],[139.09020723666433,36.64786827228271],[139.09039682340236,36.6478788167347],[139.0904479042215,36.647854913385025],[139.0915942879353,36.644064100085934],[139.09194910761016,36.643715958496685],[139.09197571871522,36.64335458593502],[139.09282133763352,36.64149250444629],[139.09392168333716,36.6393820504855],[139.0958924773354,36.637745583022436],[139.09627347187617,36.63746954509592],[139.09666934953387,36.63734602801248],[139.09714795516868,36.63717669102402],[139.0975444206764,36.636940312235865],[139.09817014954916,36.636595014369355],[139.09908589860507,36.63573478227059],[139.0990342832552,36.63566419837082],[139.09895482430468,36.63564167415276],[139.09861904393026,36.63560145076853],[139.09829864410682,36.63551921837702],[139.09818685932464,36.63549248061653],[139.09776883213314,36.63546582927996],[139.09773086756078,36.635434334599346],[139.09763304821448,36.635445702375286],[139.09747277576326,36.635552579541006],[139.097345075588,36.63558256063997],[139.09722528615532,36.63544664238957],[139.0974244059885,36.63527840051352],[139.0977675140127,36.63515384934196],[139.09787497744017,36.63501925931],[139.09748093435675,36.6340224104662],[139.09694660508399,36.630447671016526],[139.09661342853587,36.63070570078991],[139.09586939524462,36.63142517538837],[139.09540118314823,36.631809098876964],[139.0945379980567,36.632150309309246],[139.09442207353806,36.63222387177505],[139.09416913355577,36.63277774637013],[139.09407523439097,36.63295972969552],[139.0937708127574,36.63327812603528],[139.0907048818565,36.635567752093756],[139.08926395587338,36.639043287509466],[139.08918750651043,36.639244032518825],[139.0891873968621,36.63946468608253],[139.08917939312468,36.63956123463938],[139.0890555827734,36.63987201179001],[139.08847297573672,36.64078683743487],[139.0884216236177,36.64110292507317],[139.08846841823353,36.641469963386186],[139.08861139271514,36.642201885577755],[139.08858441540633,36.642390759630764],[139.0883284686283,36.64262277296019],[139.08783909795915,36.64283396990334],[139.0873717492354,36.6428537249649],[139.0871067943907,36.64265979024717],[139.08696868509398,36.642576200770364],[139.08681299965963,36.64264823898311],[139.08572052451368,36.643909573094035],[139.08569687502666,36.64437755923262],[139.08582598056634,36.644806085148495],[139.0859131038998,36.64497659083072],[139.0860033368041,36.64525040250219],[139.0858493178361,36.6454208083006],[139.08579058847204,36.6454406475942],[139.0856151590769,36.645403150714955],[139.08530951688175,36.64536885075651],[139.08510185324786,36.645457601075464],[139.08493973986975,36.64551593691556],[139.08458055808333,36.645551988268174],[139.08316440842603,36.64613388404692],[139.08298151797715,36.646488004321384],[139.08250232652517,36.646645871631286],[139.08238707051555,36.64677342702049],[139.08224068248634,36.64716508995744],[139.08202886324477,36.647312174271455],[139.08178121205776,36.647369968967226],[139.08153021283064,36.6475747493595],[139.0812552055507,36.64763335633945],[139.08118042441242,36.64762330905302],[139.08086276989164,36.647538933479495],[139.08071650140212,36.647548572133054],[139.0803321279607,36.647784333178],[139.07954810501673,36.64844246890561],[139.07830356890312,36.65018053051532],[139.0765052256914,36.64982021335799],[139.07522621128686,36.64954483735491],[139.0749266239087,36.64924786468527],[139.07451305536858,36.648982624050504],[139.07414737975918,36.64888581519713],[139.07369771957175,36.64873756779154],[139.07298517314712,36.648417826460296],[139.07165476469427,36.64766741519231],[139.0710308037824,36.647066250951895],[139.0710472588937,36.646885553807124],[139.07188547713784,36.64653261350078],[139.0709065929804,36.64583681084607],[139.06969783978246,36.64442469697113],[139.06883727001542,36.64385643043336],[139.06811056578903,36.64354416824903],[139.06629583492688,36.64257422062558],[139.06551407799353,36.641445375410754],[139.06452587283303,36.63855787396469],[139.06413754222746,36.63687683207423],[139.0629399895276,36.634575713344724],[139.06284751169002,36.63259544360957],[139.0622247286729,36.631140012544144],[139.0610551777248,36.630206417881816]],[[139.06629583492688,36.64257422062558],[139.06770895211042,36.64119052858378],[139.06859424594055,36.64033880132189],[139.06770895211042,36.64119052858377],[139.06629583492688,36.64257422062558]],[[139.06866883743498,36.633976743730564],[139.06881078863236,36.63418964752291],[139.06963988961132,36.633012962405196],[139.06992369288662,36.6327224483468],[139.06866883743498,36.633976743730564]],[[139.07015704256767,36.63976034920461],[139.07025604803343,36.63990897681559],[139.07034467206068,36.64003824509614],[139.07025604803346,36.63990897681559],[139.07015704256767,36.63976034920461]],[[139.07619458594226,36.64186300774007],[139.07640484341164,36.64218834848418],[139.07745715141135,36.643256878508126],[139.07619458594226,36.64186300774007]],[[139.09594771251486,36.62962155561047],[139.09675254695145,36.62888119408651],[139.09742192529237,36.62943556029424],[139.0967525469514,36.62888119408645],[139.09594771251486,36.62962155561047]],[[139.10639847847787,36.624150974686344],[139.10762874238438,36.625011007567196],[139.10670027042394,36.6239079362808],[139.10639847847787,36.624150974686344]]]}},{"type":"Feature","properties":{"KEY_CODE":"10448005001","PREF":"10","CITY":"448","CITY_NAME":"昭和村","S_NAME":"大字貝野瀬","SETAI":"356"},"geometry":{"type":"MultiPolygon","coordinates":[[[[139.07830356890312,36.650180530515314],[139.07954810501673,36.64844246890561],[139.0803321279607,36.647784333178],[139.08071650140212,36.647548572133054],[139.08086276989164,36.647538933479495],[139.08118042441242,36.64762330905302],[139.0812552055507,36.64763335633945],[139.08153021283064,36.6475747493595],[139.08178121205776,36.647369968967226],[139.08202886324477,36.647312174271455],[139.08224068248634,36.64716508995744],[139.08238707051555,36.64677342702049],[139.08250232652517,36.646645871631286],[139.08298151797715,36.646488004321384],[139.08316440842603,36.64613388404692],[139.08458055808333,36.645551988268174],[139.08493973986975,36.64551593691556],[139.08510185324786,36.645457601075464],[139.08530951688175,36.64536885075651],[139.0856151590769,36.645403150714955],[139.08579058847204,36.6454406475942],[139.0858493178361,36.6454208083006],[139.0860033368041,36.64525040250219],[139.0859131038998,36.64497659083072],[139.08582598056634,36.644806085148495],[139.08569687502666,36.64437755923262],[139.08572052451368,36.643909573094035],[139.08681299965963,36.64264823898311],[139.08696868509398,36.642576200770364],[139.0871067943907,36.64265979024717],[139.0873717492354,36.6428537249649],[139.08783909795915,36.64283396990334],[139.0883284686283,36.64262277296019],[139.08858441540633,36.642390759630764],[139.08861139271514,36.642201885577755],[139.08846841823353,36.641469963386186],[139.0884216236177,36.64110292507317],[139.08847297573672,36.64078683743487],[139.0890555827734,36.63987201179001],[139.08917939312468,36.63956123463938],[139.0891873968621,36.63946468608253],[139.08918750651043,36.639244032518825],[139.08926395587338,36.639043287509466],[139.0907048818565,36.635567752093756],[139.0937708127574,36.63327812603528],[139.09407523439097,36.63295972969552],[139.09416913355577,36.63277774637013],[139.09442207353806,36.63222387177505],[139.0945379980567,36.632150309309246],[139.09540118314823,36.631809098876964],[139.09586939524462,36.63142517538837],[139.09661342853587,36.63070570078991],[139.09694660508399,36.630447671016526],[139.09748093435675,36.6340224104662],[139.09787497744017,36.63501925931],[139.0977675140127,36.63515384934196],[139.0974244059885,36.63527840051352],[139.09722528615532,36.63544664238957],[139.097345075588,36.63558256063997],[139.09747277576326,36.635552579541006],[139.09763304821448,36.635445702375286],[139.09773086756078,36.635434334599346],[139.09776883213314,36.63546582927996],[139.09818685932464,36.63549248061653],[139.09829864410682,36.63551921837702],[139.09861904393026,36.63560145076853],[139.09895482430468,36.63564167415276],[139.0990342832552,36.63566419837082],[139.09908589860507,36.63573478227059],[139.09817014954916,36.636595014369355],[139.0975444206764,36.636940312235865],[139.09714795516868,36.63717669102402],[139.09666934953387,36.63734602801248],[139.09627347187617,36.63746954509592],[139.0958924773354,36.637745583022436],[139.09392168333716,36.6393820504855],[139.09282133763352,36.64149250444629],[139.09197571871522,36.64335458593502],[139.09194910761016,36.643715958496685],[139.0915942879352,36.64406410008593],[139.0904479042215,36.647854913385025],[139.09039682340236,36.6478788167347],[139.09020723666433,36.64786827228271],[139.09010784631565,36.647863993622366],[139.0899157360114,36.64787955597451],[139.09001929210177,36.64793237069105],[139.0898702516477,36.64803951734646],[139.08995041956746,36.648125770455465],[139.08986458384564,36.64814755584713],[139.08956671877422,36.64810282491302],[139.08949028604562,36.64810981281448],[139.0893060276903,36.64814478423352],[139.08884893917966,36.6487301824644],[139.08828657313816,36.649486431046085],[139.0886839658775,36.649767366719374],[139.08909909095587,36.650158101860285],[139.0891406849907,36.65026692855652],[139.0897649261538,36.650601301443146],[139.0900416981272,36.65061435884917],[139.0901960982615,36.650595533917574],[139.09161842817218,36.649225956281335],[139.0923336009151,36.64921624087446],[139.09284237837414,36.6493451410396],[139.09314146440173,36.649601161691315],[139.09426951601208,36.65003748215145],[139.09358927594693,36.64969151916698],[139.09254580835207,36.64865268649593],[139.093083650296,36.64776059036432],[139.09403802585985,36.64619601149794],[139.0940367687418,36.64596155071735],[139.09394688240926,36.64546526269497],[139.09380022881902,36.64522286006864],[139.09363642782972,36.64512018006823],[139.09292876365524,36.64453114295522],[139.09380982714762,36.64449210105231],[139.094410601644,36.64452686476905],[139.09534310048247,36.644609579674764],[139.0958298580122,36.644653561738615],[139.09585115500275,36.644628275829334],[139.0957924602732,36.64453469485476],[139.0956318295112,36.64446590262926],[139.09518919326533,36.64438551152783],[139.094916145709,36.64425885283881],[139.09456854417218,36.64413525527839],[139.0942695582458,36.64406278864199],[139.09413691332514,36.64400965523138],[139.09407276954192,36.643928784943974],[139.09409805998155,36.64385128238588],[139.094214674036,36.64375315274924],[139.09450222749683,36.64355856721109],[139.09508035356808,36.64311801477874],[139.09547033138603,36.64292905775131],[139.0960653968429,36.642644625435835],[139.09627215380658,36.642483824626254],[139.09630616615055,36.6420220264157],[139.09681512502888,36.64158554538966],[139.0970815586982,36.641184812945816],[139.09748499831383,36.64056588654818],[139.09744383424453,36.64023176631987],[139.0974930720974,36.64010688640461],[139.09804672823986,36.63905517846408],[139.09830869778398,36.638731933636954],[139.09882708336474,36.63827909508851],[139.10061100556666,36.63716487292354],[139.10120158895484,36.63691354908205],[139.10112358757075,36.6368337221494],[139.10354065243308,36.63520246598503],[139.10287262707283,36.633500813313816],[139.10644882888673,36.63133155983514],[139.10808172454367,36.63124199388678],[139.1098724117557,36.63012915649966],[139.11147391377287,36.62848822866503],[139.1111935447659,36.62808648540599],[139.11288465283906,36.62692349946278],[139.11584839402434,36.62480186376961],[139.11769308843606,36.62353016891362],[139.11858335387421,36.62302496707559],[139.12065267252487,36.62167514147779],[139.11964517485814,36.62070511912794],[139.1210163186482,36.61941870519796],[139.12229560404262,36.620562832843916],[139.13252161368592,36.61365349048154],[139.13446715833857,36.61243153603468],[139.13417479431234,36.61070447739825],[139.13797273239894,36.60862720200576],[139.14069468138692,36.606290606026754],[139.14466465659305,36.6021446414984],[139.14564673244809,36.60074763503072],[139.14787096299656,36.599070631824766],[139.1485602064447,36.599056592676135],[139.14628923976827,36.60177694508184],[139.1464019990714,36.60423688002219],[139.14718390083073,36.60533762674736],[139.1456245452504,36.606102042341966],[139.14471334527855,36.60822869833953],[139.1447946537373,36.60897526927163],[139.14680530669864,36.610858206866304],[139.1465526239725,36.61171416679507],[139.14646336079582,36.61212412934627],[139.14601738473968,36.612509012297835],[139.14561417689094,36.612635251468],[139.14496028291478,36.612853966353505],[139.14470722138836,36.612948400016826],[139.14395379104712,36.61312436132224],[139.14344382040454,36.61348014042401],[139.14319432909886,36.61371266212218],[139.14305771835674,36.61489155043587],[139.14324402956777,36.615345349654426],[139.14350840085464,36.61558091170351],[139.14359726394403,36.615757867929275],[139.14344811909922,36.61594112028268],[139.1430279230303,36.61903655231488],[139.14290712958905,36.62057617077097],[139.1423945909012,36.62228229759305],[139.1416726056365,36.62265796958817],[139.14086955413802,36.62304844567058],[139.13662788037655,36.626353731306416],[139.13592175693967,36.62733750864382],[139.13512299941928,36.62829961166059],[139.13456991498555,36.62867424629148],[139.1337179051062,36.6292131474114],[139.1318964182975,36.62837828726645],[139.1337179051062,36.62921314741144],[139.13171809009827,36.63064545303622],[139.13126956201927,36.631509027312454],[139.13014084816075,36.633418638455026],[139.1294230692902,36.63462089460257],[139.1287587348047,36.6362263273422],[139.12846536131195,36.63655451900006],[139.12798639471393,36.63714056980857],[139.12756056185415,36.63790146948747],[139.12711207548026,36.63879839765018],[139.12695135520622,36.6391065316584],[139.12691148833588,36.63909052499009],[139.1221587048397,36.64144938316364],[139.11606574731226,36.64409637720978],[139.11265317359707,36.645871217916486],[139.1089071858331,36.647358305720786],[139.1038332376321,36.650572079195975],[139.10125177262768,36.65293808747115],[139.09874240341603,36.65687192874172],[139.09673308637647,36.65799402746825],[139.09432158601396,36.65773079938595],[139.0925311260565,36.65668353910626],[139.0915160183057,36.656698920387115],[139.08907969924877,36.65587796755995],[139.08834502904983,36.65562802285959],[139.08635049210588,36.65429912576202],[139.08694842761992,36.65419162494204],[139.08628838283946,36.65403436689528],[139.0861631651145,36.65325525427771],[139.08373776312644,36.65214524362669],[139.08313044709732,36.65183354217504],[139.08102513468384,36.65083882903948],[139.08099220424617,36.65081968392984],[139.07830356890312,36.650180530515314]],[[139.0875977050947,36.65058441596052],[139.08801637620658,36.65144204208931],[139.08842979677505,36.65099303369283],[139.0875977050947,36.65058441596052]]],[[[139.15338760279948,36.593287153911966],[139.15695625129925,36.58612208054039],[139.15726365428642,36.58499107529925],[139.1571963900546,36.58120899016901],[139.15649462189558,36.577477104453614],[139.15593139365916,36.57710251116382],[139.15594437063487,36.57708093889694],[139.15760353013616,36.57566265231536],[139.15982406066829,36.57182290852196],[139.15984694554632,36.57091095178688],[139.16179420660094,36.56961985973146],[139.1622314993505,36.57408698008421],[139.16263978011932,36.57583627226717],[139.16245550097065,36.57748760129223],[139.16290465945005,36.579159947389584],[139.16208061934176,36.57974106925386],[139.16060229960524,36.58341651587209],[139.15940925915302,36.585191865058945],[139.158829873096,36.586771163455],[139.15935628983328,36.58844159119611],[139.1580912772911,36.58994727963559],[139.15676322044573,36.590532888318776],[139.1554402719905,36.59183988322754],[139.1542230240836,36.59218416304977],[139.15338760279948,36.593287153911966]]]]}},{"type":"Feature","geometry":{"type":"Polygon","coordinates":[[[139.12843210290265,36.65278816581987],[139.12475980807443,36.653256604710144],[139.12358648190778,36.653832530427636],[139.12207266074708,36.6555640335868],[139.119695753284,36.65616289958195],[139.11851255092637,36.65824879453883],[139.11660942068224,36.65906545198608],[139.114206779664,36.657775697716566],[139.1126130831773,36.65799274245472],[139.11171509115363,36.657179489263854],[139.11033156980764,36.65697913833258],[139.10728851724568,36.65593911590427],[139.10249789257534,36.65620171075354],[139.10132950732137,36.65700881515001],[139.09874240341603,36.65687192874172],[139.10125177262768,36.65293808747115],[139.1038332376321,36.650572079195975],[139.1089071858331,36.647358305720786],[139.11265317359707,36.645871217916486],[139.11606574731226,36.64409637720978],[139.1221587048397,36.64144938316364],[139.12691148833588,36.63909052499009],[139.12695135520622,36.6391065316584],[139.12649260591039,36.64069563113059],[139.12414203900673,36.64538307467612],[139.12462266834885,36.64579829479675],[139.12821116632912,36.64696271038769],[139.12761772358755,36.649128637729696],[139.12833596252494,36.650508194992895],[139.12843210290265,36.65278816581987]]]},"properties":{"KEY_CODE":"104480060","PREF":"10","CITY":"448","CITY_NAME":"昭和村","S_NAME":"大字生越","SETAI":"63"}},{"type":"Feature","properties":{"KEY_CODE":"10448007001","PREF":"10","CITY":"448","CITY_NAME":"昭和村","S_NAME":"大字赤城原","SETAI":"237"},"geometry":{"type":"Polygon","coordinates":[[[139.07347955539493,36.60545793016915],[139.07387889014464,36.604666614389174],[139.07721075019612,36.60444194752354],[139.07659158849287,36.602918967094446],[139.0767385855788,36.602906520514026],[139.07688029992008,36.60296113937486],[139.07697524644743,36.60302088177913],[139.07706643939218,36.603017868759295],[139.0774354582988,36.602767933056725],[139.07769724938095,36.60266939873251],[139.0779052016928,36.60268324563921],[139.07808709655808,36.60281711454707],[139.07814505925018,36.602917600657314],[139.07822843276338,36.60297325680288],[139.07876904861354,36.60309805547524],[139.07889367612174,36.603051317773485],[139.07962338298498,36.60273289161529],[139.08002386915032,36.60274794968691],[139.08008546410304,36.60279839680294],[139.08000284409746,36.60298818809899],[139.0799730267332,36.60318077874472],[139.08008296464973,36.60336924977253],[139.08071252663052,36.60329182537557],[139.08143129496642,36.603146170175094],[139.0814905990624,36.60310894424389],[139.0816076953122,36.60288437605988],[139.08184856651994,36.60270057840474],[139.08208853694543,36.60260950164192],[139.08265686420057,36.60260553918462],[139.083394908119,36.60255131307615],[139.08346965475621,36.60252425160153],[139.08378049699584,36.60216571368896],[139.0839241707175,36.60208142242142],[139.08414848776883,36.60201023740104],[139.08440235884396,36.602079420657745],[139.08472780019912,36.60230556915278],[139.08508809879436,36.60229529486382],[139.08555785459646,36.6022081147866],[139.08614492056614,36.60218925835793],[139.0869848465426,36.60219077885826],[139.08778873455293,36.602225792248674],[139.08850387711885,36.602127599317136],[139.08920027996118,36.60219833487555],[139.09044607561665,36.602135964216636],[139.09067169048893,36.60208357500348],[139.09133225289833,36.60216773445034],[139.09259328406543,36.60212803691699],[139.09285642153856,36.60205081149393],[139.09319471363304,36.60206790465701],[139.09347981266387,36.60213226435995],[139.09402594831678,36.60216571089723],[139.0948186666753,36.60223693785575],[139.09552679482633,36.601893286685694],[139.095705597621,36.60179553961421],[139.09579818324622,36.601783649100646],[139.0959230084507,36.60180652687239],[139.096143138696,36.60216492558546],[139.0962091424066,36.602257849293814],[139.09629800774513,36.602279168659],[139.096794953231,36.60190238249204],[139.09769695507822,36.60188653554842],[139.09818010774646,36.60178931850496],[139.09867735675078,36.60186757139728],[139.09870779230957,36.60195922046968],[139.09870603396158,36.602006523983256],[139.09856032447783,36.60224747910441],[139.0985733194668,36.60245625007424],[139.09878709533785,36.60260689930161],[139.09904417590724,36.60272627362859],[139.0992505749941,36.602895254346855],[139.09945508112338,36.60291854738167],[139.0994891918641,36.60289883082693],[139.09987639695024,36.60242644692769],[139.10016147214,36.60234194545347],[139.10037811249393,36.60232855990175],[139.1009945072383,36.60226010084132],[139.10058715026372,36.60186796402653],[139.0998466619274,36.6015181389592],[139.10164621469775,36.60053733048339],[139.10245645616084,36.599981489089345],[139.10312310537955,36.599794757430544],[139.10266165179107,36.5972223852232],[139.10142141334916,36.59553590929587],[139.10112971468118,36.594979656755186],[139.10114616083712,36.59492082464724],[139.10125213960268,36.594793472677814],[139.10153524741867,36.59458130781201],[139.10165546326934,36.594124885883154],[139.1019151291829,36.593870403214325],[139.10224449040467,36.593636764793864],[139.1024519897592,36.5931872841023],[139.10265456191394,36.592584072482424],[139.1025491973376,36.59246633997793],[139.10303146574026,36.59218716610519],[139.10328870967595,36.59207749379982],[139.1033932946968,36.591962876114636],[139.10347033983837,36.59162961346417],[139.10352148788363,36.59142725807618],[139.10370296876738,36.59047075224437],[139.1036853487733,36.58682750401869],[139.10387975887426,36.586564663934176],[139.10228302439964,36.58447520716081],[139.1016053619865,36.58041929279923],[139.10323682083043,36.58082586009255],[139.10548763522792,36.580440869987086],[139.10826556452184,36.580761386471714],[139.1113759635878,36.57977445023362],[139.1126721967653,36.57872665842653],[139.11511414256577,36.57832465314089],[139.11826216063852,36.576893919848835],[139.11964877643103,36.57455993892826],[139.12138429355153,36.57398149802428],[139.12240845588383,36.57563232505081],[139.12437093412902,36.57604290841048],[139.1263719890953,36.5771513561885],[139.12760895575087,36.57704103892004],[139.129955623557,36.57783885334522],[139.1315959493478,36.57784866856375],[139.13227648204946,36.578387275770005],[139.13495786568004,36.57820844991865],[139.13622223189824,36.57754557874411],[139.1387116009218,36.57810393334636],[139.14347548204265,36.57622512233747],[139.14516602636675,36.57617884599353],[139.1415557520458,36.580600214880825],[139.141047310293,36.58240946098299],[139.1399773955758,36.58360484937705],[139.13941899648984,36.58286593025881],[139.13797796210517,36.58266168876148],[139.13366736121313,36.58625165895552],[139.13211609451687,36.587930283107674],[139.13043792915676,36.590400141688804],[139.12827093744806,36.59145798513826],[139.12734270416607,36.59257368704063],[139.12554009361565,36.59297223161947],[139.123555684297,36.59429014805224],[139.12202470004922,36.59628180660407],[139.12213537528598,36.59734287317936],[139.12043706474861,36.59924665696537],[139.1179985587049,36.60054753739527],[139.11735312047446,36.6019050836152],[139.11557478178392,36.60158766968766],[139.11294088992656,36.604435505142405],[139.10288003860353,36.61100695818638],[139.1023326278284,36.61047673928336],[139.09820247687733,36.61264111977427],[139.09730086100947,36.61370590088414],[139.09438724226496,36.615450282661065],[139.08695182455273,36.62072419490606],[139.08754001918555,36.62140131214358],[139.08720744506917,36.62155230129452],[139.0870408534373,36.62217140817265],[139.08673430271557,36.62247639737188],[139.08646364317147,36.622881588491616],[139.08610766477722,36.623185071898114],[139.0857985422945,36.62324002661647],[139.08514439106528,36.62313370153298],[139.08486569525135,36.62315828763126],[139.08459224970179,36.62330837285693],[139.08434931253854,36.62327523722128],[139.08415347215768,36.62324028506464],[139.08406269433908,36.623161703403454],[139.08375485443796,36.62267804873355],[139.08334482247784,36.62221276083087],[139.08333132735353,36.62209108284014],[139.0832729449657,36.62203164609082],[139.0830157694031,36.62201707682702],[139.08294612873576,36.62201086648999],[139.08252906939393,36.621901723841205],[139.082376838638,36.62193674449678],[139.08222164446818,36.62209707453439],[139.08225758649687,36.62225458894684],[139.0820162528171,36.62241662848688],[139.08190781045738,36.62242150932184],[139.08182835164527,36.622302022908606],[139.08177333794112,36.62226457258011],[139.08161463678843,36.62222822959706],[139.08143911154107,36.62225127693165],[139.08139209379456,36.6223439177363],[139.081355862615,36.62252210290251],[139.0812075179093,36.622597349509725],[139.08108059253271,36.622607746461455],[139.08099549329853,36.62259235520258],[139.08071920961044,36.62243170770808],[139.08043429032983,36.62232395199399],[139.08027315520863,36.622304350476405],[139.07991457679907,36.62219056697675],[139.0797628686708,36.62213574962624],[139.07966303419315,36.62220756892872],[139.0793881714921,36.622143596453824],[139.07911774351476,36.622001076937764],[139.07911583146566,36.621363528025825],[139.07897141502175,36.62098185524517],[139.0787462462621,36.62056038565369],[139.07830003857106,36.61906239613096],[139.0785852504787,36.61878045189417],[139.07839297725724,36.61855146932005],[139.07769187581778,36.6175521054739],[139.07710071100527,36.61667291669018],[139.0764707280427,36.61527267091447],[139.07636817822126,36.61463173196435],[139.07611796072865,36.61367710477906],[139.07645912612819,36.61321816165667],[139.07622338684033,36.61162319560865],[139.07650638931628,36.610725943959636],[139.07589676996986,36.61083776294671],[139.07420725510323,36.60843604680044],[139.07347955539493,36.60545793016915]],[[139.08105177428888,36.60964253312589],[139.0844475096109,36.608604988793104],[139.0852634310497,36.610212098675284],[139.0844475096109,36.60860498879307],[139.08105177428888,36.60964253312589]]]}}]}