{"type":"FeatureCollection","features":[{"type":"Feature","properties":{"KEY_CODE":"10525011001","PREF":"10","CITY":"525","CITY_NAME":"邑楽町","S_NAME":"大字中野","SETAI":"3925"},"geometry":{"type":"Polygon","coordinates":[[[139.44216509899115,36.26589377477969],[139.44486525922375,36.26200500220972],[139.44345949264468,36.26032282928262],[139.44676456131594,36.25826315008363],[139.44898940163122,36.25730654623768],[139.44804101242258,36.25583949057059],[139.4513542695921,36.25316470305149],[139.45303256638937,36.252193358763],[139.45251454472606,36.251334539208486],[139.45405175175767,36.25072928358962],[139.45457213555255,36.25157877360531],[139.45678627591056,36.250734093725946],[139.45732863962988,36.25159309343438],[139.45881754702302,36.25141059340879],[139.46038878740814,36.25174629214165],[139.46341614989828,36.25244137027139],[139.46367604917918,36.252558040211206],[139.4644515916352,36.253126784183955],[139.46630027728506,36.25454433790743],[139.46572964907432,36.25505682180553],[139.4672039767531,36.25838161251488],[139.47093203980114,36.25849340827081],[139.47196068373688,36.25817257458624],[139.471551397431,36.25911521362121],[139.47481986228115,36.25926904110136],[139.47509876668693,36.25874995187446],[139.47702184579353,36.25938362222492],[139.47917289036928,36.260095443968176],[139.48137346021392,36.26085743554742],[139.4826260333708,36.26174134519518],[139.485057032299,36.262529604614514],[139.48481738373795,36.26301094893195],[139.48771780084928,36.26378450286136],[139.48720306200192,36.26523944778825],[139.48546734428822,36.266915130856354],[139.4843905464646,36.270715315592554],[139.48379979005117,36.27072888690405],[139.48385745215558,36.272808542625384],[139.48305284346992,36.272038081855825],[139.4805993609001,36.27106475471266],[139.47901943714012,36.2720807958055],[139.4765859829413,36.27214666734535],[139.4753439360577,36.27319280824724],[139.47592601423412,36.275522207714424],[139.47419988821943,36.276558887447926],[139.47122730075353,36.275820025984025],[139.4713367085914,36.27405859856732],[139.47273890418458,36.27256904902773],[139.47216779907845,36.27056160690967],[139.4686520131085,36.270390952394926],[139.46657460969146,36.27155842145549],[139.46418822725317,36.27120113081428],[139.4620185503878,36.272284376663286],[139.46331791146397,36.270896479627865],[139.45900958620672,36.27082386560234],[139.45896943317268,36.27082895117947],[139.4576605595216,36.270959412827615],[139.45564653723747,36.271116471730686],[139.45543782232713,36.2703559163502],[139.45309039008495,36.271158379694064],[139.4509646164311,36.27004177608455],[139.4483056566137,36.27015680856528],[139.44784094564594,36.2689938917915],[139.4485008040187,36.268890024008385],[139.4476453787935,36.266750114030394],[139.44565208107414,36.26665120972309],[139.443987582345,36.26657182255622],[139.4427716438046,36.26653550769346],[139.44242034437767,36.266534044358416],[139.44216509899115,36.26589377477969]],[[139.46569069489405,36.26836414356303],[139.46594102657102,36.268692855874725],[139.46605479518456,36.26865720864533],[139.46569069489405,36.26836414356303]]]}},{"type":"Feature","properties":{"KEY_CODE":"10525012001","PREF":"10","CITY":"525","CITY_NAME":"邑楽町","S_NAME":"大字鶉","SETAI":"465"},"geometry":{"type":"Polygon","coordinates":[[[139.48379979005117,36.27072888690405],[139.4843905464646,36.270715315592554],[139.48546734428822,36.266915130856354],[139.48720306200192,36.26523944778825],[139.48771780084928,36.26378450286136],[139.4877809960759,36.26336309222264],[139.49011401900384,36.26161807015159],[139.48960079373518,36.26289878691985],[139.49123625172888,36.26260392444635],[139.49348663995818,36.26148860354786],[139.49553431380895,36.26142561046765],[139.49581688712178,36.2637233153992],[139.4948260008805,36.264638975243514],[139.49590370690723,36.267223163739516],[139.4973160255313,36.26792704605967],[139.4973805185366,36.27049154366124],[139.49817648222094,36.273241477336654],[139.50075052496004,36.27462556459145],[139.50038376761518,36.27612626237834],[139.4986396798498,36.275776184032985],[139.4969401972436,36.27591715868253],[139.49528773880704,36.27548795150263],[139.49442171416456,36.27427023561711],[139.4925517341816,36.273873213299936],[139.49142777150453,36.274151333329044],[139.49130905393048,36.27553020832999],[139.48856536835717,36.27627112243474],[139.48529970852547,36.27524102560971],[139.48423657359808,36.27429528235275],[139.48385745215558,36.272808542625384],[139.48379979005117,36.27072888690405]]]}},{"type":"Feature","geometry":{"type":"Polygon","coordinates":[[[139.49011401900384,36.26161807015159],[139.4877809960759,36.26336309222264],[139.48682861913582,36.260293626716965],[139.48498455813797,36.26048929653259],[139.4821129077164,36.25753157204299],[139.48251186534512,36.25653449032213],[139.48218894673184,36.25508334480907],[139.4813425468661,36.25420429053957],[139.4817607157125,36.25304061922355],[139.48600934542793,36.25510109695803],[139.48893406704698,36.254892069674085],[139.48902035728017,36.25541572672729],[139.49202648419862,36.2555097169077],[139.4938372254053,36.256354768823186],[139.49374862603187,36.25677324041038],[139.4908464040551,36.25767581890638],[139.48886466142093,36.2590776448165],[139.48857348867998,36.2622111896162],[139.49011401900384,36.26161807015159]]]},"properties":{"KEY_CODE":"105250130","PREF":"10","CITY":"525","CITY_NAME":"邑楽町","S_NAME":"大字鶉新田","SETAI":"60"}},{"type":"Feature","geometry":{"type":"Polygon","coordinates":[[[139.47667572497446,36.25164305671724],[139.47568380838243,36.25245576595924],[139.47425512716504,36.255390176767726],[139.4721415544902,36.254721278465816],[139.47108581819134,36.25616665749052],[139.4676860412708,36.25382059542185],[139.467031667786,36.25391403350953],[139.46630027728506,36.25454433790743],[139.4644515916352,36.253126784183955],[139.46367604917918,36.252558040211206],[139.46341614989828,36.25244137027139],[139.46038878740814,36.25174629214165],[139.45881754702302,36.25141059340879],[139.4596136769579,36.25065884470556],[139.4611554490357,36.25053452292036],[139.46387238135404,36.24912618994442],[139.46470456533248,36.24683702441671],[139.46476725811848,36.2467679671922],[139.46473994321627,36.24667991924967],[139.46490200749642,36.2466074375217],[139.4654382328465,36.246323603702734],[139.46631798504035,36.24736305017238],[139.46664645367522,36.2475546497565],[139.46702226694248,36.24768793199571],[139.46756702424435,36.24792337312708],[139.46802333473866,36.24828560050766],[139.46835487630744,36.24850007050833],[139.46884627625775,36.248687531698586],[139.47158644300913,36.24908671009156],[139.47586959145562,36.25069583751718],[139.47667572497446,36.25164305671724]]]},"properties":{"KEY_CODE":"105250140","PREF":"10","CITY":"525","CITY_NAME":"邑楽町","S_NAME":"大字光善寺","SETAI":"219"}},{"type":"Feature","geometry":{"type":"Polygon","coordinates":[[[139.48893406704698,36.254892069674085],[139.48600934542793,36.25510109695803],[139.4817607157125,36.25304061922355],[139.4813425468661,36.25420429053957],[139.48218894673184,36.25508334480907],[139.48251186534512,36.25653449032213],[139.4821129077164,36.25753157204299],[139.48498455813797,36.26048929653259],[139.48682861913582,36.260293626716965],[139.4877809960759,36.26336309222264],[139.48771780084928,36.26378450286136],[139.48481738373795,36.26301094893195],[139.485057032299,36.262529604614514],[139.4826260333708,36.26174134519518],[139.48137346021392,36.26085743554742],[139.47917289036928,36.260095443968176],[139.4809187321626,36.25662346817703],[139.47882516249166,36.255768733894335],[139.47757668934196,36.2556682062732],[139.47329357062122,36.25717237801054],[139.47196068373688,36.25817257458624],[139.47093203980114,36.25849340827081],[139.4672039767531,36.25838161251488],[139.46572964907432,36.25505682180553],[139.46630027728506,36.25454433790743],[139.467031667786,36.25391403350953],[139.4676860412708,36.25382059542185],[139.47108581819134,36.25616665749052],[139.4721415544902,36.254721278465816],[139.47425512716504,36.255390176767726],[139.47568380838243,36.25245576595924],[139.47667572497446,36.25164305671724],[139.48301149995086,36.24952895043047],[139.48895750276054,36.25284404052338],[139.48943751757764,36.25374526851693],[139.48893406704698,36.254892069674085]]]},"properties":{"KEY_CODE":"105250150","PREF":"10","CITY":"525","CITY_NAME":"邑楽町","S_NAME":"大字新中野","SETAI":"480"}},{"type":"Feature","geometry":{"type":"Polygon","coordinates":[[[139.47917289036928,36.260095443968176],[139.47702184579353,36.25938362222492],[139.47509876668693,36.25874995187446],[139.47481986228115,36.25926904110136],[139.471551397431,36.25911521362121],[139.47196068373688,36.25817257458624],[139.47329357062122,36.25717237801054],[139.47757668934196,36.2556682062732],[139.47882516249166,36.255768733894335],[139.4809187321626,36.25662346817703],[139.47917289036928,36.260095443968176]]]},"properties":{"KEY_CODE":"105250160","PREF":"10","CITY":"525","CITY_NAME":"邑楽町","S_NAME":"大字明野","SETAI":"498"}},{"type":"Feature","properties":{"KEY_CODE":"10525021001","PREF":"10","CITY":"525","CITY_NAME":"邑楽町","S_NAME":"大字藤川","SETAI":"322"},"geometry":{"type":"MultiPolygon","coordinates":[[[[139.43298856508218,36.28347935146857],[139.4351485228979,36.28187203591814],[139.4365451673895,36.27858158921844],[139.43700246784604,36.278568738708074],[139.43716249690024,36.28125550789945],[139.43987157942217,36.28114826055993],[139.44079542862747,36.28126089908448],[139.4406530079191,36.28136013473849],[139.44037283592348,36.28165918664341],[139.43978339468015,36.28328720241032],[139.43968876469057,36.283635866694354],[139.4396299342022,36.28371340764307],[139.4392774972608,36.28385337223006],[139.43888611246328,36.28406838989887],[139.43877475303333,36.284215061674395],[139.43869900454277,36.2844311861396],[139.43834141641256,36.28474664858202],[139.43708175836832,36.285475214161906],[139.43533958618244,36.28593629615623],[139.43481195790505,36.286020430841155],[139.43313036984046,36.285724466982735],[139.43298856508218,36.28347935146857]]],[[[139.44601015562708,36.280416522852484],[139.44802683224128,36.279803439403],[139.45159777595964,36.277678001870996],[139.45153021964944,36.27564120964372],[139.45261279217362,36.27537468023451],[139.45244061247442,36.27171712520461],[139.44843950690458,36.27185331513693],[139.4509646164311,36.27004177608455],[139.45309039008495,36.271158379694064],[139.45543782232713,36.2703559163502],[139.45564653723747,36.271116471730686],[139.4576605595216,36.270959412827615],[139.45896943317268,36.27082895117947],[139.45900958620672,36.27082386560234],[139.46331791146397,36.270896479627865],[139.4620185503878,36.272284376663286],[139.4609550438737,36.27411336595401],[139.45969002865885,36.27447942908878],[139.45864719354836,36.2738441048168],[139.45657447585475,36.27418575616994],[139.45680400375318,36.27536004031102],[139.4563769666256,36.27755253956625],[139.4533840772589,36.27905634254759],[139.45154674230966,36.27970976116683],[139.45144665788214,36.28261552911153],[139.45107648545093,36.28357851973734],[139.4486207360136,36.28353244413631],[139.44813004874226,36.2825202422935],[139.44716545698017,36.28251458477057],[139.44722261969622,36.28043579858041],[139.44601015562708,36.280416522852484]]]]}},{"type":"Feature","geometry":{"type":"Polygon","coordinates":[[[139.45969002865885,36.27447942908878],[139.45918482939848,36.275793944380354],[139.45808020182392,36.276882571367196],[139.46108913299025,36.277771001973825],[139.46146045120418,36.2785320157409],[139.46321541944556,36.27927962907371],[139.4643471050673,36.27879146408857],[139.46809096995423,36.27896684090719],[139.46762505468257,36.279612123750795],[139.46841675882567,36.280258012520164],[139.46442274918806,36.282024545678475],[139.46322986070186,36.28284762437369],[139.46249601051863,36.284211216274905],[139.46113525609488,36.28472456048424],[139.4602254135569,36.286306162740374],[139.4605814670301,36.287037766872416],[139.45795752533832,36.288694406877134],[139.45689057909885,36.288092023149595],[139.45462842399962,36.288422178176475],[139.44376296121055,36.28817627551446],[139.44104971441243,36.2881210972983],[139.44107939032017,36.287126626527794],[139.4378974236914,36.287078645340785],[139.43656794014646,36.28735065645909],[139.43483879125552,36.28696068344205],[139.43481195790505,36.286020430841155],[139.43533958618244,36.28593629615623],[139.43708175836832,36.285475214161906],[139.43834141641256,36.28474664858202],[139.43869900454277,36.2844311861396],[139.43877475303333,36.284215061674395],[139.43888611246328,36.28406838989887],[139.4392774972608,36.28385337223006],[139.4396299342022,36.28371340764307],[139.43968876469057,36.283635866694354],[139.43978339468015,36.28328720241032],[139.44037283592348,36.28165918664341],[139.4406530079191,36.28136013473849],[139.44079542862747,36.28126089908448],[139.44101771695628,36.28111983395737],[139.44601015562708,36.280416522852484],[139.44722261969622,36.28043579858041],[139.44716545698017,36.28251458477057],[139.44813004874226,36.2825202422935],[139.4486207360136,36.28353244413631],[139.45107648545093,36.28357851973734],[139.45144665788214,36.28261552911153],[139.45154674230966,36.27970976116683],[139.4533840772589,36.27905634254759],[139.4563769666256,36.27755253956625],[139.45680400375318,36.27536004031102],[139.45657447585475,36.27418575616994],[139.45864719354836,36.2738441048168],[139.45969002865885,36.27447942908878]]]},"properties":{"KEY_CODE":"105250220","PREF":"10","CITY":"525","CITY_NAME":"邑楽町","S_NAME":"大字秋妻","SETAI":"258"}},{"type":"Feature","properties":{"KEY_CODE":"10525023001","PREF":"10","CITY":"525","CITY_NAME":"邑楽町","S_NAME":"大字石打","SETAI":"496"},"geometry":{"type":"Polygon","coordinates":[[[139.42951602172144,36.27921209703222],[139.43063378271555,36.27916802372995],[139.4305191342529,36.277391276843865],[139.43232663924695,36.27730193663769],[139.4342817560591,36.273090778262336],[139.43356323740684,36.27089736084692],[139.43501523069438,36.2676669209305],[139.4347832568098,36.26585583960911],[139.43407072048734,36.26497212898008],[139.43509832014925,36.264425029858565],[139.43705919214628,36.263227250745594],[139.43791256577447,36.26245555035326],[139.4449660213653,36.257557246457715],[139.44804101242258,36.25583949057059],[139.44898940163122,36.25730654623768],[139.44676456131594,36.25826315008363],[139.44345949264468,36.26032282928262],[139.44486525922375,36.26200500220972],[139.44216509899115,36.26589377477969],[139.44242034437767,36.266534044358416],[139.44188098593673,36.2665402206025],[139.4427716438046,36.26653550769346],[139.443987582345,36.26657182255622],[139.44565208107414,36.26665120972309],[139.4476453787935,36.266750114030394],[139.4485008040187,36.268890024008385],[139.44784094564594,36.2689938917915],[139.4483056566137,36.27015680856528],[139.4509646164311,36.27004177608455],[139.44843950690458,36.27185331513693],[139.45244061247442,36.27171712520461],[139.45261279217362,36.27537468023451],[139.45153021964944,36.27564120964372],[139.45159777595964,36.277678001870996],[139.44802683224128,36.279803439403],[139.44601015562708,36.280416522852484],[139.44101771695628,36.28111983395737],[139.43987157942217,36.28114826055993],[139.43716249690024,36.28125550789945],[139.43700246784604,36.278568738708074],[139.4365451673895,36.27858158921844],[139.4351485228979,36.28187203591814],[139.43298856508218,36.28347935146857],[139.43313036984046,36.285724466982735],[139.43481195790505,36.286020430841155],[139.43483879125552,36.28696068344205],[139.43455887253876,36.287372765144944],[139.43422004829714,36.28651627098709],[139.43418156422865,36.28632001395793],[139.43424456860535,36.28609902607387],[139.43368453674486,36.28651620182846],[139.4333755825981,36.28678822780099],[139.43299895502074,36.28697704857984],[139.43259513798895,36.28642706132345],[139.431671136628,36.28534999466044],[139.43198160928426,36.28455283100059],[139.4315828425746,36.284235244625464],[139.43138323684502,36.28423864419004],[139.4312866248835,36.282915626048954],[139.4302493171546,36.282507794841436],[139.42958357062906,36.28133331379022],[139.42961858586582,36.28113686118478],[139.42951602172144,36.27921209703222]]]}},{"type":"Feature","properties":{"KEY_CODE":"10525031001","PREF":"10","CITY":"525","CITY_NAME":"邑楽町","S_NAME":"大字篠塚","SETAI":"1779"},"geometry":{"type":"Polygon","coordinates":[[[139.4267713821345,36.24629272333417],[139.42757051308035,36.2455161899762],[139.43171619242005,36.241449201741624],[139.43247550694304,36.2409773782405],[139.4326776063842,36.2409155644386],[139.43367835369534,36.240609397589736],[139.43302526864707,36.23907086726067],[139.4335692889593,36.23838822031948],[139.43801916731306,36.23707004063429],[139.43782350026618,36.23660019539063],[139.43998064541822,36.235962531757494],[139.4408518770927,36.2351177530443],[139.44122500025858,36.2336649033993],[139.4411098828185,36.23086866555543],[139.4420229233663,36.23060120615034],[139.44331519971996,36.23013671528518],[139.44435446396875,36.229797512235564],[139.44677277939596,36.229134333637376],[139.4489866431199,36.22870866139182],[139.44990583122274,36.23287687769498],[139.45199931892756,36.23271284276792],[139.45514005859252,36.23205141972217],[139.45622515557682,36.23516966883447],[139.45565409555746,36.235261073876494],[139.45555457936203,36.2352795060948],[139.45620887225218,36.23660403430383],[139.45764666106288,36.2389958101666],[139.4582398213833,36.23911401356209],[139.46005164832917,36.242300525348206],[139.46241144313953,36.24138141531987],[139.4632395618646,36.242350209095456],[139.4658128233205,36.24133179793377],[139.46441510518912,36.243138513125366],[139.46595615053394,36.24302316262736],[139.46664860656622,36.24380963742708],[139.46481689863816,36.24559173426448],[139.4654382328465,36.246323603702734],[139.46490200749642,36.2466074375217],[139.46473994321627,36.24667991924967],[139.46476725811848,36.2467679671922],[139.46470456533248,36.24683702441671],[139.46387238135404,36.24912618994442],[139.4611554490357,36.25053452292036],[139.4596136769579,36.25065884470556],[139.45881754702302,36.25141059340879],[139.45732863962988,36.25159309343438],[139.45678627591056,36.250734093725946],[139.45678627591056,36.250734093725924],[139.45457213555255,36.25157877360531],[139.45405175175767,36.25072928358962],[139.45251454472606,36.251334539208486],[139.45303256638937,36.252193358763],[139.4513542695921,36.25316470305149],[139.44804101242258,36.25583949057059],[139.4449660213653,36.257557246457715],[139.43791256577447,36.26245555035326],[139.43705919214628,36.263227250745594],[139.4361626161384,36.263076993687235],[139.43502678192093,36.26096039586012],[139.43348935998876,36.2608333326933],[139.43264233133564,36.2575027414253],[139.43195941947096,36.25778624301463],[139.43128347215344,36.256575947977055],[139.43046291038846,36.25476826766888],[139.42863703550177,36.25076754084781],[139.42817977185442,36.24954229508349],[139.4267713821345,36.24629272333417]]]}},{"type":"Feature","properties":{"KEY_CODE":"10525032001","PREF":"10","CITY":"525","CITY_NAME":"邑楽町","S_NAME":"大字狸塚","SETAI":"640"},"geometry":{"type":"Polygon","coordinates":[[[139.45514005859252,36.23205141972217],[139.4553072843789,36.232048655304254],[139.45683007053287,36.231935556093724],[139.46219771133286,36.23095933571944],[139.46258335229112,36.23233218079898],[139.4641395271815,36.23204825549023],[139.4641530832304,36.23203951356509],[139.46863397268925,36.23341053303715],[139.4722895133149,36.23454117801868],[139.4728501427406,36.23471924123174],[139.475991402171,36.23592048451802],[139.47874729491258,36.24159506338519],[139.481642608155,36.247603077907826],[139.48301149995086,36.24952895043047],[139.47667572497446,36.25164305671724],[139.47586959145562,36.25069583751718],[139.47158644300913,36.24908671009156],[139.46884627625775,36.248687531698586],[139.46835487630744,36.24850007050833],[139.46802333473866,36.24828560050766],[139.46756702424435,36.24792337312708],[139.46702226694248,36.24768793199571],[139.46664645367522,36.2475546497565],[139.46631798504035,36.24736305017238],[139.4654382328465,36.246323603702734],[139.46481689863816,36.24559173426448],[139.46664860656622,36.24380963742708],[139.46595615053394,36.24302316262736],[139.46441510518912,36.243138513125366],[139.4658128233205,36.24133179793377],[139.4632395618646,36.242350209095456],[139.46241144313953,36.24138141531987],[139.46005164832917,36.242300525348206],[139.4582398213833,36.23911401356209],[139.45764666106288,36.2389958101666],[139.45620887225218,36.23660403430383],[139.45565409555746,36.235261073876494],[139.45622515557682,36.23516966883447],[139.45514005859252,36.23205141972217]],[[139.46509877843974,36.237116309769796],[139.46563681914176,36.238044866524625],[139.46509877843974,36.23711630976979],[139.46509877843974,36.237116309769796]]]}},{"type":"Feature","properties":{"KEY_CODE":"10525033001","PREF":"10","CITY":"525","CITY_NAME":"邑楽町","S_NAME":"大字赤堀","SETAI":"586"},"geometry":{"type":"Polygon","coordinates":[[[139.45468908163647,36.228200306917586],[139.45935609633545,36.22883689939652],[139.46080239954054,36.228628178210364],[139.46198595513064,36.22831518018782],[139.46274317383174,36.22784120760133],[139.46370496569477,36.22708822669073],[139.46335318173956,36.22520949838046],[139.4634301081649,36.22444052535758],[139.4729892625137,36.224422967437384],[139.47285049989446,36.22186472703299],[139.47453191849596,36.2204158083038],[139.4764763744577,36.21923810712917],[139.4778511960166,36.22112931849515],[139.47827267022598,36.22093985118347],[139.47902836683383,36.22408309065153],[139.48060781806345,36.22599050783824],[139.4820133911225,36.22537085623233],[139.4824812656202,36.22603201478452],[139.48385998639722,36.22537473249633],[139.4848858699472,36.22683019449829],[139.48206573322534,36.22812528997503],[139.4848858699472,36.22683019449832],[139.48776894246572,36.225458077261735],[139.48861279041373,36.2266393723423],[139.489190997636,36.22635493003464],[139.48966712246906,36.2269097755634],[139.49181554318284,36.22762732638989],[139.49366553288306,36.22774987371575],[139.49589244700283,36.228566184146196],[139.49576143397775,36.23010401467987],[139.4955594343808,36.231300643536414],[139.4954859128349,36.23156444003725],[139.49515379622358,36.23249301369108],[139.4943626776575,36.23228176808883],[139.4929867939333,36.235434910434385],[139.49196249215709,36.238378224189496],[139.49172466751395,36.23894590439406],[139.49939090693854,36.24109014239139],[139.50066217713442,36.238032187196694],[139.50093995147384,36.23740438634367],[139.50298400609736,36.23675005125833],[139.5036633531725,36.237193774791926],[139.50351210824675,36.23764437352259],[139.50180093364347,36.23878364923754],[139.50087725737785,36.23993242104333],[139.4993710630425,36.24181658766193],[139.49997325336847,36.242315125725156],[139.49974245479606,36.242840644546874],[139.49779934841663,36.24228631404234],[139.49740126154634,36.24322958448197],[139.49127806541574,36.24153888367985],[139.49101000068669,36.24216599224977],[139.48960989820205,36.24177308895818],[139.48859014275286,36.24182954137792],[139.48689018296287,36.24134805791762],[139.48557382968556,36.24097796801464],[139.48480314816953,36.24076925602284],[139.48371170778304,36.24046059863574],[139.4833700318246,36.240357781195776],[139.48309497307216,36.24091637727405],[139.48305860617842,36.24091442268869],[139.48148592120577,36.2407482680369],[139.47926743898466,36.24108388622176],[139.47874729491258,36.24159506338519],[139.475991402171,36.23592048451802],[139.4728501427406,36.23471924123174],[139.4722895133149,36.23454117801868],[139.46863397268925,36.23341053303715],[139.46415308323037,36.23203951356509],[139.4641395271815,36.23204825549023],[139.46258335229112,36.23233218079898],[139.46219771133286,36.23095933571944],[139.45683007053287,36.231935556093724],[139.4553072843789,36.232048655304254],[139.45468908163647,36.228200306917586]],[[139.48089485215118,36.23019438166803],[139.4829004168486,36.229283721259215],[139.4829004168486,36.229283721259215],[139.48089485215118,36.23019438166803]]]}}]}