{"type":"FeatureCollection","features":[{"type":"Feature","properties":{"KEY_CODE":"34431001001","PREF":"34","CITY":"431","CITY_NAME":"大崎上島町","S_NAME":"中野","SETAI":"1277"},"geometry":{"type":"MultiPolygon","coordinates":[[[[132.85789842029047,34.26825903140087],[132.85838221601796,34.26853131658326],[132.85797638646747,34.26846344527076],[132.85789842029047,34.26825903140087]]],[[[132.85888570072228,34.26853846057051],[132.85907060633963,34.26851360411791],[132.85903409456552,34.268677788449615],[132.85888570072228,34.26853846057051]]],[[[132.8600734076133,34.26798768153119],[132.86016529719146,34.2678295354608],[132.86040520199228,34.26818625251818],[132.8600734076133,34.26798768153119]]],[[[132.8606537312814,34.253329359276606],[132.86102841511112,34.25149079845709],[132.8619829760431,34.249943772448404],[132.86188121023633,34.25143088353982],[132.86220885745078,34.25204501987515],[132.86172813989774,34.25343060658134],[132.86191026304758,34.25388695693721],[132.8629873568955,34.25429779584731],[132.86283044624147,34.25504033543404],[132.8620846858776,34.25493864166734],[132.86127640625128,34.25458796865946],[132.86163387232727,34.254097285203684],[132.8606537312814,34.253329359276606]]],[[[132.86346404394806,34.26381254049143],[132.86375539915466,34.26306810719144],[132.86523115277328,34.2628234729268],[132.86604592761614,34.26366626203912],[132.86669507510845,34.26325151434967],[132.8677681049159,34.263677126193194],[132.86884978311414,34.26331398236978],[132.86927711918875,34.26234055704073],[132.86823225992072,34.26177674980589],[132.86874546071954,34.261603505958824],[132.86901878765096,34.25986917557589],[132.86783185143395,34.259450425379505],[132.86858585005226,34.25897027095395],[132.86907664807512,34.25775617081973],[132.8697307675336,34.25749266604056],[132.87108424054247,34.2575758891182],[132.87272513706083,34.25673929007034],[132.87295607382399,34.25598799926517],[132.8745015051487,34.25515318905618],[132.8750017100494,34.25459768643677],[132.8764045756769,34.255776901756995],[132.87710535378844,34.25725852701995],[132.87796387685992,34.258259731958844],[132.87801789719245,34.25889330489414],[132.87647848635203,34.258792225371955],[132.87559712046155,34.25928415758847],[132.8749309422124,34.26054015149534],[132.8741128666185,34.26061066456079],[132.87349861208492,34.26129838801123],[132.87404495045686,34.26261780350787],[132.87435589390063,34.26279546723133],[132.87379524851318,34.26457105791174],[132.8738754437074,34.26637097718417],[132.87424410056514,34.26695568693994],[132.87592497548337,34.26759957000404],[132.87681871945634,34.26746916073631],[132.87631351219687,34.26818486166798],[132.87557253305047,34.26855638644402],[132.87484449808693,34.268240556704534],[132.8740569876837,34.26860304435296],[132.87431444033646,34.26913247325684],[132.87351211084146,34.26928135238335],[132.87340461990323,34.268245214613735],[132.8725956406196,34.267987592460756],[132.87062752998276,34.26883283058777],[132.87096985405495,34.26938614921749],[132.87044591285525,34.2698435859515],[132.87056302678195,34.270605551221685],[132.86946934092896,34.27148997458741],[132.86886261754955,34.270611785649145],[132.8696350523571,34.27026829749573],[132.86947440112925,34.269751825338936],[132.86843512034835,34.26882286887489],[132.86904089255776,34.268156774301644],[132.8691223072474,34.26750002281685],[132.86726197670714,34.267594488228546],[132.8668261200614,34.26832806353878],[132.86565364066723,34.26888567569682],[132.86459842102929,34.26720681881121],[132.8646278612629,34.2656450350024],[132.8636732994033,34.26522590480553],[132.86346404394806,34.26381254049143]]],[[[132.86417001185035,34.24738001304663],[132.86425610592488,34.247535599699255],[132.8646902996188,34.24762313810153],[132.86517693600615,34.24750330498313],[132.86587832130837,34.247148410504344],[132.86630674178625,34.24654292534325],[132.86681384588834,34.24627914703053],[132.8674629266039,34.246149360857885],[132.86799154442613,34.245867423777895],[132.8701077685153,34.24560778684278],[132.87145815172207,34.24511418189732],[132.87205773970834,34.244899150757156],[132.872678407439,34.24396868964502],[132.87266555359372,34.24243010650601],[132.872377222011,34.24163982978949],[132.87241392960152,34.24149114747031],[132.87364662282076,34.239891297292644],[132.87507676260478,34.239230703651835],[132.87640794070444,34.23904284296899],[132.8780580269486,34.23942023463],[132.8788194366381,34.23977586184614],[132.87989034412735,34.2395625696178],[132.88125267056094,34.24005554726631],[132.88174276391382,34.238261057823905],[132.88175170596608,34.23748330185018],[132.8826068760843,34.23705445863761],[132.88343375861282,34.23553001901613],[132.88314700885283,34.23425422677623],[132.88312915310416,34.233167308322315],[132.88243082343877,34.23010948927465],[132.88232258158882,34.228179903219846],[132.88142375530677,34.22658171768062],[132.88173868180735,34.22627168010276],[132.88186774387552,34.22416533667919],[132.88212282027965,34.22231279725453],[132.88280455141458,34.221525643125275],[132.88324195570672,34.219380015270204],[132.88411773079594,34.219414215588664],[132.88548426114633,34.21891824616822],[132.88852071984394,34.218506993868985],[132.88939842049285,34.21850559471063],[132.89044866475848,34.21806789141165],[132.8915717686261,34.218873580848374],[132.8922393328366,34.218669579958416],[132.89349999348997,34.21913001353084],[132.8947973654397,34.21849359461429],[132.89565100173496,34.21836594038357],[132.89646358236084,34.21869886410074],[132.8965985472635,34.219917075626064],[132.89891630441932,34.221661133550576],[132.89937936499723,34.22285919430363],[132.90061187911732,34.22218283820243],[132.9015144919791,34.22265393656818],[132.90212263385985,34.22356403052104],[132.9030319531793,34.22387730902732],[132.90510089614747,34.224024532608446],[132.90584419471065,34.224433448933844],[132.90631022227603,34.22552100939712],[132.90714442476866,34.22530775442348],[132.90849257057155,34.22574438582253],[132.90676516326613,34.22673582739845],[132.90791092091143,34.22756921873061],[132.9078804409294,34.2279422553602],[132.90959271281318,34.22940921778724],[132.91200621643836,34.229927654646374],[132.91292029523467,34.229585304840214],[132.91284222548697,34.23027194230802],[132.91043832240436,34.2305973839056],[132.90961966175968,34.23090577654581],[132.9087661302076,34.23027369175943],[132.90774114319927,34.230832977193174],[132.90694183377,34.23231820777746],[132.90764136949312,34.23273684217197],[132.90726426272835,34.23295057523764],[132.90771232436035,34.23399379287025],[132.90694162309603,34.234263583394466],[132.9075518709292,34.2355440253819],[132.90707205031578,34.23574781282282],[132.90733308059106,34.23634914094863],[132.90623150340838,34.23593575242164],[132.9047240261433,34.236276896342474],[132.90509448060862,34.23741678926181],[132.90563274686343,34.23814490158855],[132.9055971528927,34.23906946786165],[132.90604873128578,34.23953243385391],[132.9076927182613,34.23960797852707],[132.90859171881002,34.240056388756315],[132.90881538044184,34.240860776199725],[132.9087086564573,34.24216118241814],[132.90938710310851,34.24169347554297],[132.91076274629646,34.24276471707736],[132.91051422425454,34.24302231523536],[132.9099089896102,34.24482412030637],[132.9087428262355,34.24666258522503],[132.90799353829266,34.24689110418324],[132.90741794593907,34.24760356369333],[132.90664286389602,34.24796816348979],[132.90455911035681,34.248349111661426],[132.90404325533234,34.247921318781565],[132.90365109816753,34.24824626116826],[132.90291053888512,34.24778586929876],[132.90278881205433,34.24681971084438],[132.9037008934341,34.2459805832732],[132.90436198789104,34.24495589435213],[132.9068839139499,34.243609203496625],[132.90791885416144,34.24355827917395],[132.91000644008875,34.24383057384037],[132.91005625291763,34.24352530012914],[132.90902221696297,34.243630608554795],[132.9066765108213,34.243401416489924],[132.9055213721677,34.24414878562291],[132.90407777317992,34.244605308446495],[132.9017844179385,34.24617482017086],[132.9026864893203,34.246825538653034],[132.90125313424588,34.2487118729774],[132.9003348738182,34.24798545539234],[132.8999811936004,34.247389750385196],[132.89896333758844,34.24819468622397],[132.89886987688814,34.24793112690087],[132.89789029468935,34.24876991256401],[132.89733474479286,34.250065091709104],[132.89689836267203,34.25019306556974],[132.89542352927484,34.25077066817217],[132.89510188828652,34.25161551029588],[132.89433353854128,34.25177615984932],[132.89356109628878,34.25146155556395],[132.89401998193998,34.24984707024416],[132.89165261118535,34.249586018439075],[132.89164784650737,34.250167530193764],[132.89223384908232,34.25102684354054],[132.89191114377334,34.25149473285057],[132.89171487988347,34.253047503939115],[132.89198320752595,34.25356612363696],[132.89177787182683,34.25456620551739],[132.89023611740578,34.25418669147581],[132.8896964263453,34.25429905138694],[132.89079671107154,34.25486050646496],[132.89175274138583,34.25480075193191],[132.89275572462049,34.25603975758989],[132.89361396584226,34.25622665854003],[132.89425189015645,34.25679364624056],[132.8941512393691,34.257339669445294],[132.89255773648406,34.258141493560856],[132.89239510122957,34.259175694773624],[132.89164015671133,34.26028454292151],[132.89195850786467,34.260807232351105],[132.89137565727836,34.26172756850306],[132.88977862107046,34.26162432798567],[132.88879689780777,34.26109921235118],[132.88754058358714,34.2622325476758],[132.88666208928035,34.261715820029586],[132.88643048043022,34.26117527928985],[132.88666228333983,34.260464385066875],[132.8863374778416,34.2598171961816],[132.88555126703727,34.25967405237266],[132.88539966668515,34.25882483083158],[132.88456456672012,34.25778748111624],[132.88386169287367,34.257485081333236],[132.88313538809382,34.25762005592366],[132.88240397119247,34.256901281122715],[132.88124698034488,34.256820704730536],[132.88129791648083,34.25590253876313],[132.88174543403537,34.25515982628011],[132.88088287465195,34.25522881459325],[132.87911083064313,34.25417716763531],[132.87881921518724,34.253199860900885],[132.87794248521445,34.25300394655525],[132.8772610322174,34.251881839917125],[132.87763100613108,34.250308358438396],[132.87825358424547,34.25062379858731],[132.87869765166369,34.24946190962528],[132.87979479912653,34.24902645594396],[132.88092514478384,34.24957064388345],[132.8812462788576,34.25005474943765],[132.88229666081511,34.24999719979312],[132.88269201645812,34.24808816416927],[132.88303268801295,34.2474243967022],[132.88260328583922,34.24556258175267],[132.8827415976491,34.24510016437964],[132.88387076411323,34.24410005733215],[132.88329913285094,34.244028603206125],[132.88267807798286,34.24452004096418],[132.88225054820478,34.24415911317419],[132.88242755136753,34.24519130682681],[132.88246380572193,34.24729967830926],[132.88175753526255,34.248509170460224],[132.880820929612,34.24866972607092],[132.87862442464663,34.248501364649336],[132.87888565614514,34.24819952467186],[132.87759211321747,34.24851722122622],[132.8769546933281,34.249280034211225],[132.87668107598535,34.248491798460286],[132.87560265238264,34.24845029230187],[132.8751981618494,34.24876281528121],[132.87393257240174,34.24878999306418],[132.87342538026223,34.24837906203645],[132.8721290458228,34.24797267782911],[132.87088419947256,34.248403561499586],[132.86997100360517,34.24838091753021],[132.86964514263119,34.24887947539249],[132.86814928802937,34.24837249043255],[132.8665644802706,34.24812631248344],[132.8649877901862,34.24834365015716],[132.8643091743167,34.2479336601069],[132.86417001185035,34.24738001304663]]],[[[132.86429901031067,34.253821961446555],[132.86508650415854,34.25281043965388],[132.8656148649242,34.253076194034186],[132.86527444636232,34.254097566593735],[132.86429901031067,34.253821961446555]]],[[[132.87710515438505,34.260728143085394],[132.87763765949472,34.26065264716574],[132.8776021723412,34.261335056067296],[132.87710515438505,34.260728143085394]]],[[[132.8774051362451,34.267635217363825],[132.87791668583426,34.26723106608596],[132.87860642494553,34.268171973049114],[132.8774051362451,34.267635217363825]]],[[[132.880573579379,34.25858965634196],[132.88078930376932,34.25829004920575],[132.88136025765195,34.25878171195322],[132.880573579379,34.25858965634196]]],[[[132.88131676613244,34.25904524021928],[132.88260049095538,34.258822217868364],[132.88257918558787,34.25938128988365],[132.88132769047772,34.25929408269689],[132.88131676613244,34.25904524021928]]],[[[132.88674611266487,34.27128873550207],[132.887598696055,34.26983393880748],[132.8874394303698,34.26885713981713],[132.8877233268748,34.2686323380147],[132.8886313683905,34.269658530387915],[132.88970043252183,34.26925540159618],[132.89054037967924,34.26966781434371],[132.89098394425247,34.27073885634593],[132.8898798829931,34.271286307393204],[132.88951011519083,34.27058896049518],[132.88865305916457,34.27068600628767],[132.88844847315474,34.271523806436655],[132.8871633247895,34.27185142623571],[132.88674611266487,34.27128873550207]]],[[[132.90848383602957,34.23349789906095],[132.9088981851676,34.233169551445776],[132.91014309665582,34.23354894446752],[132.9106870044158,34.23430986241107],[132.91148228296228,34.234685248980206],[132.90848383602957,34.23349789906095]]]]}},{"type":"Feature","properties":{"KEY_CODE":"34431002001","PREF":"34","CITY":"431","CITY_NAME":"大崎上島町","S_NAME":"原田","SETAI":"212"},"geometry":{"type":"Polygon","coordinates":[[[132.86164567144075,34.24456624638624],[132.86210331610633,34.243980473457704],[132.86258041992858,34.243426141351826],[132.86309551338996,34.24297484340618],[132.8648444376615,34.242157311688665],[132.86576870335537,34.24190158085481],[132.86694853091,34.24168255579018],[132.86755087610643,34.24160219697432],[132.8676116550181,34.24158874919207],[132.86767523095702,34.241544435645345],[132.86778135751985,34.24107827250707],[132.8677377128046,34.24080073908101],[132.8677725845579,34.24067488884769],[132.86786312277326,34.24049181075145],[132.8682083670888,34.240262619191036],[132.8689619005214,34.240130534563576],[132.86916253394355,34.24006782573161],[132.86943242891297,34.23984934602512],[132.86986690544276,34.239684294264755],[132.86987695882394,34.23920065002851],[132.86983528563675,34.238854927581635],[132.86982355520615,34.23850480716908],[132.86967710932407,34.238291676097425],[132.86963341206595,34.23813077872249],[132.8696070855266,34.237937383400876],[132.86959877924386,34.23778515661185],[132.8696331684609,34.2374639306399],[132.86965904839863,34.23718543475167],[132.86977434534094,34.237044048701065],[132.86982257091202,34.23690318934324],[132.8698346416428,34.236656889706445],[132.86997851468772,34.2363468714543],[132.87003741143016,34.2362145451479],[132.8700781414638,34.23602386625108],[132.87008942288645,34.235468384853164],[132.8701303161571,34.23529221323935],[132.87031172463728,34.23504508619897],[132.87043332561143,34.234815768533416],[132.87101688678584,34.23433911884993],[132.8713413016474,34.23431091144167],[132.87192681352457,34.23427824175248],[132.87242132718052,34.2341273479514],[132.87157508681665,34.23423941762487],[132.87128345211414,34.23423771526414],[132.8708625084219,34.23402306853601],[132.87050496112212,34.23388059996286],[132.8702415799738,34.233865209858706],[132.86993818441005,34.23390738017953],[132.86904237588152,34.23381490292084],[132.86856305653723,34.233395628209124],[132.86805793966607,34.232063148512516],[132.86756393983947,34.232075976165],[132.8670222896197,34.23219683392226],[132.8665847908612,34.23218243009312],[132.8665191338112,34.232081947524456],[132.86636227480017,34.23171955868737],[132.86630358836837,34.23147761006666],[132.86610453396315,34.230913746618],[132.86573665478153,34.230010942691216],[132.8650988749235,34.2292812440438],[132.86530605946638,34.228869730440344],[132.86575920848998,34.22882010052976],[132.86650428822816,34.22881585199402],[132.8670944078469,34.228677960757324],[132.8679457995794,34.22879409672109],[132.86807468655687,34.22871264577616],[132.86809680608488,34.22845023441046],[132.86742760495815,34.22734728622454],[132.8653410976061,34.22313125283434],[132.86662655140208,34.22332466712961],[132.86881854949505,34.22261205881252],[132.86903482903097,34.221614063955904],[132.86994350101688,34.22112626404464],[132.8702745855524,34.219998157263745],[132.8713334606834,34.21914760077695],[132.8713209513864,34.21868873030319],[132.87336093140658,34.218292464225314],[132.87460436349986,34.21864170907124],[132.87573126724516,34.21972003272639],[132.8778576685783,34.218900883362814],[132.87889186524444,34.21798279337365],[132.87995441903885,34.21742430111777],[132.88032371765678,34.21750315837912],[132.88198996735818,34.21822782295886],[132.88261507626746,34.21823771132125],[132.88324195570672,34.219380015270204],[132.88280455141458,34.221525643125275],[132.88212282027965,34.22231279725453],[132.88186774387552,34.22416533667919],[132.88173868180735,34.22627168010276],[132.88142375530677,34.22658171768062],[132.88232258158882,34.228179903219846],[132.88243082343877,34.23010948927465],[132.88312915310416,34.233167308322315],[132.88314700885283,34.23425422677623],[132.88343375861282,34.23553001901613],[132.8826068760843,34.23705445863761],[132.88175170596608,34.23748330185018],[132.88174276391382,34.238261057823905],[132.88125267056094,34.24005554726631],[132.87989034412735,34.2395625696178],[132.8788194366381,34.23977586184614],[132.8780580269486,34.23942023463],[132.87640794070444,34.23904284296899],[132.87507676260478,34.239230703651835],[132.87364662282076,34.239891297292644],[132.87241392960152,34.24149114747031],[132.872377222011,34.24163982978949],[132.87266555359372,34.24243010650601],[132.872678407439,34.24396868964502],[132.87205773970834,34.24489915075716],[132.87145815172207,34.24511418189732],[132.8701077685153,34.24560778684278],[132.86799154442613,34.245867423777895],[132.8674629266039,34.246149360857885],[132.86681384588834,34.24627914703053],[132.86630674178625,34.24654292534325],[132.86587832130837,34.247148410504344],[132.86517693600615,34.24750330498313],[132.8646902996188,34.24762313810153],[132.86425610592488,34.247535599699255],[132.86417001185035,34.24738001304663],[132.86392067159025,34.24610492552012],[132.86293954613654,34.245476762801445],[132.86285464556968,34.24465685570141],[132.86164567144075,34.24456624638624]]]}},{"type":"Feature","properties":{"KEY_CODE":"34431003001","PREF":"34","CITY":"431","CITY_NAME":"大崎上島町","S_NAME":"大串","SETAI":"188"},"geometry":{"type":"MultiPolygon","coordinates":[[[[132.79996389249598,34.22680975375635],[132.8008995127845,34.22637671282479],[132.8010329097969,34.22564408904109],[132.8020931754141,34.2260533359552],[132.80302654686037,34.22691216874992],[132.80326765796985,34.22779443475149],[132.80463552516196,34.22854551349857],[132.8043644553276,34.22916096748811],[132.80321067022604,34.229592357564634],[132.80249588569333,34.230384073540385],[132.802271107713,34.230370864826256],[132.80153072955866,34.22891413727045],[132.80052703982088,34.228382866134496],[132.80065747714903,34.2279728360374],[132.79996389249598,34.22680975375635]]],[[[132.83543445845962,34.2539427041704],[132.83633042960832,34.25329322172924],[132.8378272364828,34.25338957362211],[132.839198249725,34.25323332030345],[132.8408938435107,34.25416260495249],[132.84141224192788,34.25477364595698],[132.84056617400404,34.25527963082999],[132.83990226680467,34.25548428675354],[132.83890287446673,34.2548631954596],[132.838294456873,34.25521995602914],[132.83717914107595,34.255044757978965],[132.83618896065968,34.254491207723646],[132.83574978153567,34.25510481704996],[132.83543445845962,34.2539427041704]]],[[[132.8381797263641,34.24216455978586],[132.8382068441363,34.241346694461654],[132.83870322204962,34.240974355132884],[132.8396944025509,34.240847229215746],[132.84085467755932,34.23947139410464],[132.84154868580973,34.237885403742546],[132.84232662881774,34.23825076254486],[132.84333408695392,34.23812718327538],[132.8438999662519,34.237765289358876],[132.8446092144962,34.23781730857908],[132.84589394904376,34.235864617328225],[132.84666556091295,34.23382290910873],[132.84697741418617,34.23156568195654],[132.84664786473635,34.230270146823536],[132.84571859659988,34.22984520895881],[132.84439136319642,34.229867018612396],[132.84213394824474,34.22949075610543],[132.8415790245971,34.22863916724326],[132.84040437273453,34.22833371241762],[132.84118503490512,34.22632798320831],[132.8415249664536,34.22459413847214],[132.84232556306443,34.223190501052414],[132.84314097968618,34.22214754025891],[132.84440441914185,34.2210866125082],[132.8452028939641,34.219703667857125],[132.846024199868,34.219269206812],[132.8468105632061,34.21772938631155],[132.84774736721056,34.21655047917546],[132.8479772768672,34.21545549216639],[132.84866716627315,34.21528586495652],[132.8495933227304,34.214003179901084],[132.85008317352776,34.2137877475741],[132.8505413386072,34.21277953376407],[132.85075511175918,34.21293724653115],[132.85100591632573,34.21314504334079],[132.85109006960198,34.2134184256043],[132.8512858606378,34.21398250466992],[132.8512663460732,34.21404346884299],[132.8513436392432,34.214291532419324],[132.85142993821995,34.21441614418043],[132.85160155066066,34.21463269123985],[132.85191039255773,34.215175009314],[132.8522751479518,34.21554430832758],[132.8524786547021,34.21566840606649],[132.8526188391668,34.215783278006214],[132.8526388471264,34.21595023783993],[132.8526353303286,34.216007872402464],[132.8525973441024,34.21609105620534],[132.85252705492272,34.2162104826553],[132.85243132717014,34.21640245769682],[132.85243222807003,34.21659685218235],[132.85247232155638,34.21677356032762],[132.85254585650804,34.217053902517925],[132.85254069322718,34.217237624725136],[132.85247864169904,34.21739010952511],[132.8524438898526,34.21770472335735],[132.85248101166516,34.217927512213926],[132.85252579637952,34.21802911081059],[132.85265888946316,34.218256999474995],[132.85263590003143,34.21895499287551],[132.85266040364831,34.21909600754841],[132.85268093488435,34.21916562263453],[132.85283228529826,34.219506244571654],[132.85329805797937,34.220175024213994],[132.853630129881,34.220291075208955],[132.85467765236808,34.22040086777422],[132.85477713495195,34.220508779047165],[132.85495902630433,34.22108447330669],[132.8551471370206,34.221523349351784],[132.85533558840842,34.22175373862414],[132.85556989982757,34.22181158907222],[132.85577134053196,34.221841449928775],[132.8561274890938,34.221971726339845],[132.85617303980658,34.22200020758515],[132.85644144440013,34.22223563881444],[132.8567915416192,34.22243454917049],[132.8571018030195,34.22257775686753],[132.8571545798221,34.2226760671103],[132.8570963052718,34.22296362351832],[132.85717441555795,34.22346960104998],[132.85720944676115,34.22351800369179],[132.85749067788248,34.22361009728232],[132.858093976323,34.22381631022587],[132.85834768617076,34.22388136980981],[132.85861482628846,34.22387831446126],[132.8591052238804,34.22379849466846],[132.85924359834289,34.223777851741616],[132.8597210480687,34.22374796945055],[132.85999151572102,34.22374207522949],[132.86040980627624,34.223807751545095],[132.8606860180092,34.2238560576078],[132.86134188238503,34.224132813838764],[132.8616690878549,34.22397882719138],[132.86184323493384,34.22376640170339],[132.86194654805763,34.223611427779446],[132.8623667881617,34.223269843019466],[132.86247006672858,34.223188400996264],[132.86275370232462,34.22300521790379],[132.8628856804191,34.223011231495505],[132.86318244016226,34.22304772374857],[132.8635864179412,34.22291484990795],[132.8638107648872,34.22289413796789],[132.8641481276327,34.22292434022408],[132.86473235313736,34.223073156251736],[132.8653410976061,34.22313125283433],[132.86742760495815,34.22734728622454],[132.86809680608488,34.22845023441046],[132.86807468655687,34.22871264577616],[132.8679457995794,34.22879409672109],[132.8670944078469,34.228677960757324],[132.86650428822816,34.22881585199402],[132.86575920848998,34.22882010052976],[132.86530605946638,34.228869730440344],[132.8650988749235,34.2292812440438],[132.86573665478153,34.230010942691216],[132.86610453396315,34.230913746618],[132.86630358836837,34.23147761006666],[132.86636227480017,34.23171955868737],[132.8665191338112,34.232081947524456],[132.8665847908612,34.23218243009312],[132.8670222896197,34.23219683392226],[132.86756393983947,34.232075976165],[132.86805793966607,34.23206314851249],[132.86856305653723,34.233395628209124],[132.86904237588152,34.23381490292084],[132.86993818441005,34.23390738017953],[132.8702415799738,34.233865209858706],[132.87050496112212,34.23388059996286],[132.8708625084219,34.23402306853601],[132.87128345211414,34.23423771526414],[132.87157508681665,34.23423941762487],[132.87192681352457,34.23427824175248],[132.8713413016474,34.23431091144167],[132.87101688678584,34.23433911884993],[132.87043332561143,34.234815768533416],[132.87031172463728,34.23504508619897],[132.8701303161571,34.23529221323935],[132.87008942288645,34.235468384853164],[132.8700781414638,34.23602386625108],[132.87003741143016,34.2362145451479],[132.86997851468772,34.2363468714543],[132.8698346416428,34.236656889706445],[132.86982257091202,34.23690318934324],[132.86977434534094,34.237044048701065],[132.86965904839863,34.23718543475167],[132.8696331684609,34.2374639306399],[132.86959877924386,34.23778515661185],[132.8696070855266,34.237937383400876],[132.86963341206595,34.23813077872249],[132.86967710932407,34.238291676097425],[132.86982355520615,34.23850480716908],[132.86983528563675,34.238854927581635],[132.86987695882394,34.23920065002851],[132.86986690544276,34.239684294264755],[132.86943242891297,34.23984934602512],[132.86916253394355,34.24006782573161],[132.8689619005214,34.240130534563576],[132.8682083670888,34.240262619191036],[132.86786312277326,34.24049181075145],[132.8677725845579,34.24067488884769],[132.8677377128046,34.24080073908101],[132.86778135751985,34.24107827250707],[132.86767523095702,34.241544435645345],[132.8676116550181,34.24158874919207],[132.86755087610643,34.24160219697432],[132.86694853091,34.24168255579018],[132.86576870335537,34.24190158085481],[132.8648444376615,34.242157311688665],[132.86309551338996,34.24297484340618],[132.86258041992858,34.243426141351826],[132.86210331610633,34.243980473457704],[132.86164567144075,34.24456624638624],[132.86144338873314,34.24583953287986],[132.86010079978317,34.246139154161874],[132.85979490905106,34.24722821026051],[132.8579739738496,34.24823918392276],[132.85740301243345,34.248113511734],[132.85657659684506,34.2484759573986],[132.85585332105734,34.24924096934618],[132.85596574439992,34.24838304242245],[132.8565345730698,34.24811741377296],[132.85662983065333,34.24755257837379],[132.85740306295807,34.24719029213343],[132.8574989959012,34.24577435427373],[132.85714953955235,34.24499016143125],[132.85775133305373,34.24464151664316],[132.85930737771034,34.24482572030668],[132.8602660285906,34.24378354531097],[132.86035011268197,34.24318355467709],[132.8599427386494,34.24168834319213],[132.8591087544316,34.241252295075576],[132.85892708943825,34.24080523338493],[132.85734031559582,34.24017226782322],[132.85116380576147,34.242708632477715],[132.85163543771475,34.24317211434091],[132.85108126306187,34.244716815548195],[132.84939318547552,34.244841593288854],[132.8491961157771,34.24530697658294],[132.84883228072067,34.244481427495856],[132.84806418690872,34.24413593562681],[132.8479230240415,34.245072473369675],[132.84762515657124,34.24501736080359],[132.8480119498695,34.2441153781197],[132.84723053872324,34.24427480350889],[132.8459800890572,34.24293760117633],[132.8453730947029,34.243050968532685],[132.84414685598009,34.24242750687361],[132.8443892327422,34.242194449568025],[132.84352355134953,34.24132022726107],[132.8424086296373,34.241308326994705],[132.84139951333373,34.2420405855709],[132.84072223574762,34.24205049750312],[132.84045479268175,34.24254428220052],[132.8401350284975,34.24206103942286],[132.83913534563524,34.241665327974324],[132.8381797263641,34.24216455978586]]]]}},{"type":"Feature","properties":{"KEY_CODE":"34431004001","PREF":"34","CITY":"431","CITY_NAME":"大崎上島町","S_NAME":"東野","SETAI":"905"},"geometry":{"type":"MultiPolygon","coordinates":[[[[132.88106362112816,34.27480362924687],[132.8820462778749,34.27452560243536],[132.88241314249052,34.27360756009118],[132.88210751781452,34.27329465555813],[132.88321942134195,34.27303304918262],[132.882687024594,34.27401883180099],[132.88276493138417,34.275030063059546],[132.8817680374645,34.27514026813821],[132.88106362112816,34.27480362924687]]],[[[132.88124375454996,34.27977634812597],[132.88204297006166,34.27900270605121],[132.88289724608745,34.27920774160009],[132.88370611693787,34.278543905364735],[132.88412794644296,34.277823872232105],[132.88427112393597,34.27602532597564],[132.8839872745772,34.275590732106565],[132.88508775957166,34.275629356702865],[132.88544472601245,34.27610056325745],[132.88634124419204,34.2764251958125],[132.88677274405006,34.27703893752365],[132.88680272073,34.27786661894588],[132.88738328637376,34.27806111373137],[132.88744713926292,34.27888986504958],[132.88799743707523,34.27948247633934],[132.8879849271251,34.280310268427385],[132.8874052239441,34.280971944628085],[132.88722262063112,34.28258746625683],[132.88669173375948,34.28350297039703],[132.88577117514794,34.28370052633371],[132.88601054130072,34.284435556757735],[132.8854865278935,34.28523452156018],[132.88670018513037,34.286317105644684],[132.88662362078102,34.287474462005264],[132.8846456638724,34.2895235172258],[132.88390402685727,34.290041724657065],[132.8834360999504,34.28993909759917],[132.88204463096258,34.2886535503519],[132.88157492691673,34.287441917658896],[132.8817690090083,34.28663575851275],[132.88259416365625,34.285961978034535],[132.88318620971864,34.28584582698172],[132.8838960477884,34.28490492813085],[132.88435004404195,34.283754649134245],[132.8845659169594,34.282452502742],[132.8835147202745,34.281316389341995],[132.8836360438111,34.279880413122314],[132.88319769943206,34.279418689391925],[132.8815403523937,34.28004324541856],[132.88124375454996,34.27977634812597]]],[[[132.88900960967786,34.28593653187656],[132.88977672021184,34.284201342317616],[132.8905621129137,34.28686705023693],[132.89010465959544,34.28735024000519],[132.8902289163959,34.2885378196272],[132.8898420762502,34.28852024595683],[132.88900960967786,34.28593653187656]]],[[[132.89039066797713,34.276788822277425],[132.89083904787807,34.27625257532477],[132.89071741513047,34.276879013238904],[132.89039066797713,34.276788822277425]]],[[[132.8989597844825,34.26281565628957],[132.9002033807197,34.26285145114956],[132.9007776705712,34.26321045042611],[132.9002686696564,34.26473244419444],[132.89993369260654,34.26493109880623],[132.89905867992917,34.264329637211524],[132.8989597844825,34.26281565628957]]],[[[132.90110378378864,34.29641539398939],[132.9013028525141,34.29457594128566],[132.90215179661544,34.29414712402197],[132.90278173363293,34.29476003230543],[132.90265632966913,34.29557750817504],[132.90311619066617,34.29648795284074],[132.9033497046183,34.29847172376135],[132.90381730092201,34.29865456473997],[132.9037962831793,34.29948141352232],[132.90246847939915,34.29930825673699],[132.901258316409,34.297814498027336],[132.90110378378864,34.29641539398939]]],[[[132.9011451659378,34.252899275694254],[132.90146929894584,34.25259081043842],[132.90295217262195,34.252068872283665],[132.90315681960382,34.25172534074397],[132.90358319821155,34.25122763667546],[132.90365236050565,34.250074106599605],[132.90290148228408,34.24936557350675],[132.9024502679197,34.24941604099049],[132.90125313424588,34.2487118729774],[132.9026864893203,34.246825538653034],[132.9017844179385,34.24617482017086],[132.90407777317992,34.244605308446495],[132.9055213721677,34.24414878562291],[132.9066765108213,34.243401416489924],[132.90902221696297,34.243630608554795],[132.91005625291763,34.24352530012914],[132.91000644008875,34.24383057384037],[132.90791885416144,34.24355827917395],[132.9068839139499,34.243609203496625],[132.90436198789104,34.24495589435213],[132.9037008934341,34.2459805832732],[132.90278881205433,34.24681971084438],[132.90291053888512,34.24778586929876],[132.90365109816753,34.24824626116826],[132.90404325533234,34.247921318781565],[132.90455911035681,34.248349111661426],[132.90664286389602,34.24796816348979],[132.90741794593907,34.24760356369333],[132.90799353829266,34.24689110418324],[132.9087428262355,34.24666258522503],[132.9099089896102,34.24482412030637],[132.91051422425454,34.24302231523536],[132.91076274629646,34.24276471707736],[132.91271450727007,34.24333999345153],[132.91394606995777,34.24289892139733],[132.91382095266673,34.24301181103333],[132.91425895644184,34.24275699709827],[132.91432972120265,34.24260696822214],[132.9148338537886,34.24233062000455],[132.9151151340456,34.242374123344185],[132.9154965944696,34.24240997064219],[132.91581066758852,34.24259371332143],[132.91709585826402,34.24235949482902],[132.91739058473664,34.24266590323155],[132.9180001448475,34.242916151511444],[132.91943322420454,34.24307950703549],[132.91979464119652,34.24325435636475],[132.91980232015652,34.24418274170866],[132.91960722826792,34.244465947963036],[132.91969402590203,34.244764750887335],[132.9198553635625,34.24513831910798],[132.92005471794567,34.24553334831587],[132.92025059304575,34.245670756706474],[132.92052082732891,34.245995903479695],[132.9205378666499,34.2463565536972],[132.92045957111637,34.24680259014016],[132.9205939463777,34.2471195557574],[132.92062285088952,34.24726010214635],[132.9209979239284,34.248022552354215],[132.92130969029253,34.249398152444904],[132.92133567926584,34.249430532942895],[132.92191908411317,34.249537663074875],[132.922271404893,34.24944111544712],[132.9229885248354,34.24921146641356],[132.92314913198055,34.249169207100266],[132.92334655955528,34.249185038260634],[132.92349916411638,34.24931975382989],[132.92408834646594,34.249797184142224],[132.92454018015374,34.24986385118736],[132.92482722234365,34.249761647202895],[132.9249234193774,34.249677804390814],[132.9250476393104,34.24949391524927],[132.92510099719522,34.249419068620206],[132.92531669434678,34.24924940712799],[132.9254797214121,34.249098944589775],[132.9256491806769,34.24887124882747],[132.9257277541367,34.248808784021264],[132.92586773620542,34.24876538048528],[132.92623995148278,34.24871265504531],[132.92650486496663,34.248564803630465],[132.92863203119305,34.246732813265986],[132.92980456138844,34.24806264156561],[132.9305619756074,34.25018458084643],[132.93140847773773,34.25170475138791],[132.93192742164763,34.25194043416545],[132.93199989444676,34.253228333173155],[132.93280786930757,34.254815358438954],[132.93250428772834,34.25629491477948],[132.9337303992802,34.25812359269857],[132.93401769511723,34.259028828355085],[132.9345296827232,34.25945471055755],[132.9340761353423,34.26044837701998],[132.93457296512958,34.26218339725764],[132.93576198174728,34.26302425472859],[132.93627143598516,34.263875827911654],[132.93606502805403,34.26470369668192],[132.93637136999655,34.266268738096244],[132.9381293172578,34.26934264888142],[132.93832111793327,34.27025114132308],[132.93824829715211,34.271671494900325],[132.9384661555246,34.27293494073022],[132.9391652749197,34.2736247386798],[132.94034631997692,34.2742781275665],[132.94015900054205,34.275059117802],[132.94036367112918,34.275943155997844],[132.94151081874332,34.27666388820937],[132.94219050492913,34.27738130351278],[132.94077705473057,34.27827198057088],[132.93989928982327,34.27824226954034],[132.93889458839192,34.27954038931102],[132.93881482840823,34.2803206889071],[132.93811966646115,34.280433220469675],[132.9362302146655,34.28141865374915],[132.93619808604427,34.28111417341002],[132.93465846536722,34.28152311697938],[132.93493937987012,34.28183787732421],[132.93408091921378,34.28203072008074],[132.93345276845386,34.28258188066694],[132.93374031339405,34.283029010169656],[132.93332785952305,34.28449836262288],[132.93286704700307,34.284341638024],[132.93132582521392,34.28445842292715],[132.93078575965674,34.284789138611146],[132.93028110542468,34.284231505594846],[132.9296909450939,34.28214451388244],[132.9299063043563,34.28121561111764],[132.92923321836233,34.28076719891527],[132.92800843180967,34.28091902552507],[132.92724571746723,34.28161607339141],[132.92707491449787,34.28302982118752],[132.92596666627594,34.28213248162889],[132.9260279363099,34.281576689041685],[132.9255370671842,34.28098021433912],[132.9261888095379,34.2805100849795],[132.92583813008355,34.280038111376335],[132.92506430344199,34.280339537051034],[132.9228771419651,34.27914399002969],[132.92265167745873,34.27846839816755],[132.92100286976924,34.27698737314482],[132.9201954812634,34.27583570890633],[132.919354354815,34.27625642044397],[132.91921154416488,34.27693076319183],[132.9183910091572,34.276377836317835],[132.92017777452773,34.275800602442324],[132.91927781134174,34.2747406383614],[132.91938208248757,34.274254865544],[132.91837279169525,34.273472220029305],[132.91709190368627,34.27328721963744],[132.9170361974684,34.27288990354962],[132.9157733218847,34.273146526660376],[132.91552011108868,34.27214639282086],[132.91634251304487,34.2720557252424],[132.9148495253714,34.27073790439057],[132.91557923769668,34.269753463319965],[132.91491208680353,34.2705598933679],[132.91392317406522,34.26986625053564],[132.91292401721316,34.268875291321315],[132.91253863231572,34.26888848088195],[132.9113877715036,34.26768107550277],[132.9116203040096,34.26744977306258],[132.9102766372074,34.266540186509175],[132.90805334695122,34.264633401069524],[132.9075346485237,34.26404955984389],[132.90706808293672,34.26322846543424],[132.90705678353237,34.26193933891598],[132.90753880385515,34.26204728118845],[132.90833582880342,34.261433917304856],[132.9080306170389,34.261048112311364],[132.90871310815533,34.26013075002621],[132.9072936109929,34.25959577084062],[132.9068578853525,34.258757736448025],[132.90639519925983,34.25694170880791],[132.90479049693343,34.25619679351969],[132.90403717086346,34.25535122496041],[132.90485930676167,34.25450954015159],[132.90379638565122,34.25500460140953],[132.90308225860858,34.253798178840235],[132.9011451659378,34.252899275694254]],[[132.9121547743557,34.25026886857079],[132.9165369837038,34.24913328256286],[132.91671445079086,34.248839903604384],[132.9165369837038,34.249133282562845],[132.9121547743557,34.250268868570785],[132.9121547743557,34.25026886857079]],[[132.9182543607462,34.2667112051989],[132.9182543607462,34.26671120519891],[132.91878152335937,34.2662628456553],[132.9182543607462,34.2667112051989]],[[132.91862516520257,34.26783486070915],[132.9187904883089,34.26757508040366],[132.9186603858739,34.26773167382822],[132.91862516520257,34.26783486070915]],[[132.91907348139458,34.25248935579178],[132.92154972164016,34.25315959590587],[132.92154972164016,34.253159595905856],[132.91907348139458,34.25248935579178]],[[132.9203202009183,34.27243971687224],[132.92042661013397,34.27257485529566],[132.9204219649925,34.27234893920737],[132.9203202009183,34.27243971687224]],[[132.92734472655022,34.24935677196488],[132.9280766604402,34.2511223553338],[132.92828600371504,34.25218726603183],[132.9280766604402,34.25112235533379],[132.92734472655022,34.24935677196488]],[[132.93532575333668,34.278456083393735],[132.9360398788146,34.278880974168715],[132.93604861617123,34.27881542012869],[132.93532575333668,34.278456083393735]]],[[[132.90414409735695,34.28958426968411],[132.9050097941184,34.28958256822879],[132.90463235863166,34.2900194080941],[132.90414409735695,34.28958426968411]]],[[[132.90480847651597,34.26770879657514],[132.90503180442175,34.267790981502365],[132.90480986187288,34.26830380013472],[132.90480847651597,34.26770879657514]]],[[[132.90487787235188,34.28481162851822],[132.9053355181588,34.283866772829676],[132.905843646032,34.28434517299623],[132.90642540220773,34.28615456255994],[132.90654726413769,34.2871707160838],[132.90721840951454,34.28778250687017],[132.90812227058305,34.28631472990642],[132.90917512587228,34.28525356090055],[132.90916723234994,34.284723542555334],[132.90991514986408,34.2840625790304],[132.90958198814005,34.28310546758032],[132.91028593928436,34.28300287139457],[132.91103269435808,34.284058610677185],[132.91095838654908,34.284503483197284],[132.9116488558833,34.28495807557791],[132.91188650309394,34.28456179187125],[132.91291307123916,34.28508293058345],[132.91373336959492,34.284520960974106],[132.9137010867955,34.28379797142067],[132.91198286249855,34.28207118010262],[132.9136502856757,34.28247854366629],[132.91489979194904,34.28351217259818],[132.91517702503663,34.28341934094496],[132.91489528332616,34.28226712023343],[132.91416440563123,34.28141696984977],[132.91426630999857,34.27979896944786],[132.9152402739031,34.280267308530526],[132.91589801629775,34.27973224104913],[132.91688918845077,34.27993085220482],[132.91654178685064,34.28068123545361],[132.91796328338108,34.28188591349595],[132.91855310438342,34.28188962111999],[132.9188115910851,34.28128402130383],[132.91962797745677,34.28100489224409],[132.92004774794643,34.28142602348369],[132.9200777623193,34.282355241691675],[132.9210861006288,34.28277105783933],[132.92104951631026,34.28366194665668],[132.92149881740818,34.28398639918453],[132.9221917024327,34.283378116860554],[132.92326164241763,34.283639311732514],[132.92369389132625,34.284483085437884],[132.92491846154616,34.28551058835639],[132.92441820989063,34.28640433217829],[132.9244076088232,34.287038137034926],[132.92542152570792,34.287460955218634],[132.92585375894586,34.28793975579168],[132.9251170135072,34.288625797135104],[132.9247218264231,34.28961638730408],[132.9252532890895,34.2917019623877],[132.9261091449554,34.292056295037646],[132.9254794422328,34.2928156341916],[132.92558373175265,34.29366424971407],[132.92606712807353,34.29390283992109],[132.92619327849098,34.29524630835372],[132.92567352493046,34.29603201427497],[132.92549849810143,34.296867001488636],[132.9248085951395,34.297569944429426],[132.9241573075929,34.29774525703477],[132.92312300039697,34.29675546031556],[132.92332377795793,34.29613034176083],[132.9221332751076,34.29408037799542],[132.92142082073124,34.29311746104013],[132.9208084992495,34.29291205139251],[132.92009625374524,34.29196983321615],[132.91901941107915,34.291315662672744],[132.91887098590064,34.29086764289589],[132.91781198510705,34.29063256232293],[132.9175623512361,34.29126332965981],[132.9168162284954,34.290418637396506],[132.91651166166045,34.29085591163074],[132.91681558801193,34.29168176298358],[132.91641524499204,34.29222780528297],[132.91551906783428,34.29222061057855],[132.91517190229501,34.29300353811437],[132.9141842247365,34.293578375206565],[132.91415552462706,34.294380062168244],[132.9146525783561,34.29482229551987],[132.91575375178357,34.2951572994873],[132.91470880274198,34.29650963099704],[132.91485788451809,34.29751025607189],[132.91539727177744,34.298311145252676],[132.9162223295389,34.29850175689086],[132.9163754538806,34.29813302680381],[132.91766353487264,34.29835234725092],[132.9186111962007,34.29912902447257],[132.9177754854823,34.29933431938162],[132.91663453639,34.29868489108125],[132.91599746954,34.29911616788598],[132.91567913558347,34.29984116404729],[132.91562909814712,34.30044633492785],[132.91451578673193,34.29972656826082],[132.9141253578873,34.298937444001936],[132.91293296546652,34.29909698797021],[132.9127590758465,34.29798565358854],[132.9117980871214,34.296923199411594],[132.9107450525217,34.29515078318437],[132.91009773272359,34.29565153737493],[132.90853176975514,34.295450030918836],[132.9076056521658,34.294879656423454],[132.90736119087822,34.29339630035076],[132.9068917618367,34.29176640035824],[132.90773627270738,34.29109063676997],[132.9074602662028,34.290081617339766],[132.9061457669708,34.28894379251389],[132.90543316996565,34.28918883429423],[132.90577136090772,34.286881567337886],[132.90487787235188,34.28481162851822]]],[[[132.9051980999343,34.27071221038713],[132.90530045451018,34.27045493911343],[132.9052963159947,34.27076725899621],[132.9051980999343,34.27071221038713]]],[[[132.90530979350794,34.26821541938099],[132.90559763496572,34.268166070108336],[132.9055332633812,34.26836226000247],[132.90530979350794,34.26821541938099]]],[[[132.90605635320549,34.27132513980388],[132.9071304308967,34.270958880665944],[132.90757901371396,34.2717266910249],[132.90913804058,34.27226816193382],[132.91021705384125,34.27284760886173],[132.9110020632819,34.27381649856395],[132.91094340346197,34.27491939523115],[132.9112067967996,34.275731988783136],[132.91174955473596,34.27619466988304],[132.91194750406405,34.27696427286422],[132.911368035687,34.27763041510962],[132.91044112987254,34.27745122673751],[132.91042136717945,34.278039170067856],[132.90999012688368,34.27864946839289],[132.90834419934882,34.277965280861814],[132.9084875435938,34.27734235772107],[132.90723119191247,34.27773311698548],[132.90666790544904,34.27765623236016],[132.90622701603257,34.276171375917926],[132.9060888357049,34.274277170001874],[132.9064755557587,34.27243937583955],[132.9061349051386,34.272243943828215],[132.90605635320549,34.27132513980388]]],[[[132.91606359521379,34.29506342066305],[132.91621226492092,34.29480473214576],[132.91634231426366,34.29501931530854],[132.91606359521379,34.29506342066305]]],[[[132.91652594140112,34.294531368236036],[132.91674087225,34.29427128702385],[132.91678036204362,34.29456051853083],[132.91652594140112,34.294531368236036]]],[[[132.91741917060895,34.27956164989361],[132.9175107815186,34.27948262841619],[132.91768340121345,34.2796014444608],[132.91741917060895,34.27956164989361]]],[[[132.93563855396863,34.28455240455326],[132.9359640020711,34.284155541326655],[132.93704199488187,34.284213742817265],[132.93781312960468,34.28361744716451],[132.9394898405416,34.28311928636882],[132.94129559264758,34.282954693892],[132.94318804390068,34.283592707128854],[132.94440992724964,34.28371388701098],[132.94414565635802,34.28580533513379],[132.94365997072617,34.28625097802262],[132.94292219451293,34.286106883712435],[132.94218191526753,34.28698515211805],[132.9426860255623,34.2875940005987],[132.93994873237983,34.2876950388012],[132.9388231263996,34.28717571526515],[132.93813934245884,34.28722958442779],[132.93701987404816,34.28679570422125],[132.93569584592328,34.285598639807006],[132.93563855396863,34.28455240455326]]],[[[132.9457652900831,34.29843663290078],[132.94620753813822,34.29868624507048],[132.94601039825073,34.29910035896458],[132.9457652900831,34.29843663290078]]]]}},{"type":"Feature","geometry":{"type":"Polygon","coordinates":[[[132.9254797214121,34.249098944589775],[132.92531669434678,34.24924940712799],[132.92510099719522,34.249419068620206],[132.9250476393104,34.24949391524927],[132.9249234193774,34.249677804390814],[132.92482722234365,34.249761647202895],[132.92454018015374,34.24986385118736],[132.92408834646594,34.249797184142224],[132.92349916411638,34.24931975382989],[132.92334655955528,34.249185038260634],[132.92314913198055,34.249169207100266],[132.9229885248354,34.24921146641356],[132.922271404893,34.24944111544712],[132.92191908411317,34.249537663074875],[132.92133567926584,34.249430532942895],[132.92130969029253,34.249398152444904],[132.9209979239284,34.248022552354215],[132.92062285088952,34.24726010214635],[132.9205939463777,34.2471195557574],[132.92045957111637,34.24680259014016],[132.9205378666499,34.2463565536972],[132.92052082732891,34.245995903479695],[132.92025059304575,34.245670756706474],[132.92005471794567,34.24553334831587],[132.9198553635625,34.24513831910798],[132.91969402590203,34.244764750887335],[132.91960722826792,34.244465947963036],[132.91980232015652,34.24418274170866],[132.91979464119652,34.24325435636475],[132.91943322420454,34.24307950703549],[132.9180001448475,34.242916151511444],[132.91739058473664,34.24266590323155],[132.91709585826402,34.24235949482902],[132.91581066758852,34.24259371332143],[132.9154965944696,34.24240997064219],[132.9151151340456,34.242374123344185],[132.9148338537886,34.24233062000455],[132.91432972120265,34.24260696822214],[132.91425895644184,34.24275699709827],[132.91394606995777,34.24289892139733],[132.91271450727007,34.24333999345153],[132.91076274629646,34.24276471707736],[132.90938710310851,34.24169347554297],[132.9087086564573,34.24216118241814],[132.90881538044184,34.240860776199725],[132.90859171881002,34.240056388756315],[132.9076927182613,34.23960797852707],[132.90604873128578,34.23953243385391],[132.9055971528927,34.23906946786165],[132.90563274686343,34.23814490158855],[132.90509448060862,34.23741678926181],[132.9047240261433,34.236276896342474],[132.90623150340838,34.23593575242164],[132.90733308059106,34.23634914094863],[132.90707205031578,34.23574781282282],[132.9075518709292,34.2355440253819],[132.90694162309603,34.234263583394466],[132.90771232436035,34.23399379287025],[132.90726426272835,34.23295057523764],[132.90764136949312,34.23273684217197],[132.90694183377,34.23231820777746],[132.90774114319927,34.230832977193174],[132.9087661302076,34.23027369175943],[132.90961966175968,34.23090577654581],[132.91043832240436,34.2305973839056],[132.91284222548697,34.23027194230802],[132.91292029523467,34.229585304840214],[132.91200621643836,34.229927654646374],[132.90959271281318,34.22940921778724],[132.9078804409294,34.2279422553602],[132.90791092091143,34.22756921873061],[132.90676516326613,34.22673582739845],[132.90849257057155,34.22574438582253],[132.90714442476866,34.22530775442348],[132.90631022227603,34.22552100939712],[132.90584419471065,34.224433448933844],[132.90510089614747,34.224024532608446],[132.90679794064266,34.22234774684417],[132.90833337924303,34.21943983923327],[132.90917349467432,34.21832151564632],[132.91138159157708,34.217413367269884],[132.91324820156188,34.217004090642064],[132.9169704120673,34.2153216165003],[132.92027063195533,34.214911620041704],[132.92098833827953,34.214608159050975],[132.92095005748533,34.21518451875582],[132.92028353657298,34.215657402781034],[132.91910142676602,34.21587200771893],[132.9179131557933,34.216855599389795],[132.91784646810092,34.21741494491973],[132.91840638013247,34.217652247832255],[132.91745955582226,34.21894269889765],[132.91568699227489,34.2196440311671],[132.91568570911073,34.221339712361825],[132.91684017901335,34.22130745104936],[132.9169018121061,34.222388036433806],[132.91639766203147,34.22416158432871],[132.91762560612486,34.22690284314306],[132.91774111914327,34.227689126315624],[132.9171168260738,34.2291308672685],[132.9171530380897,34.2310158554397],[132.91674603282638,34.23175661450364],[132.91689224977642,34.233557961688724],[132.91670855052874,34.23389082158875],[132.91504318884495,34.234619247291576],[132.91343840862285,34.23467169023504],[132.91389263098063,34.235096178399104],[132.91449332353693,34.235022232356535],[132.91477632713173,34.23609870297282],[132.91420509740811,34.23626375358342],[132.91534201328324,34.23647672304306],[132.91556365983925,34.23601276717146],[132.9178341753147,34.23695284409758],[132.91856197240804,34.23663736330562],[132.91973211666993,34.23687529820585],[132.92097230026667,34.23838464996316],[132.92182520847777,34.238802422563005],[132.92248268120113,34.240267726087325],[132.9235772222881,34.241469469328436],[132.92582635584333,34.24329713249231],[132.92649854299654,34.24525578598427],[132.92815551980763,34.246617715522085],[132.92863203119305,34.246732813265986],[132.92650486496663,34.248564803630465],[132.92623995148278,34.24871265504531],[132.92586773620542,34.24876538048528],[132.9257277541367,34.248808784021264],[132.9256491806769,34.24887124882747],[132.9254797214121,34.249098944589775]],[[132.91148228296228,34.234685248980206],[132.9106870044158,34.23430986241107],[132.91014309665582,34.23354894446752],[132.9088981851676,34.233169551445776],[132.90848383602957,34.23349789906095],[132.91148228296228,34.234685248980206]]]},"properties":{"KEY_CODE":"344310050","PREF":"34","CITY":"431","CITY_NAME":"大崎上島町","S_NAME":"木江","SETAI":"445"}},{"type":"Feature","geometry":{"type":"Polygon","coordinates":[[[132.90510089614747,34.224024532608446],[132.9030319531793,34.22387730902732],[132.90212263385985,34.22356403052104],[132.9015144919791,34.22265393656818],[132.90061187911732,34.22218283820243],[132.89937936499723,34.22285919430363],[132.89891630441932,34.221661133550576],[132.8965985472635,34.219917075626064],[132.89646358236084,34.21869886410074],[132.89565100173496,34.21836594038357],[132.8947973654397,34.21849359461429],[132.89349999348997,34.21913001353084],[132.8922393328366,34.218669579958416],[132.8915717686261,34.218873580848374],[132.89044866475848,34.21806789141165],[132.88939842049285,34.21850559471063],[132.88852071984394,34.218506993868985],[132.88548426114633,34.21891824616822],[132.88411773079594,34.219414215588664],[132.88324195570672,34.219380015270204],[132.88261507626746,34.21823771132125],[132.88198996735818,34.21822782295886],[132.88032371765678,34.21750315837912],[132.88021422151135,34.215625054584365],[132.87983651780274,34.21334731788831],[132.8806696152765,34.211652927793075],[132.88118221533526,34.20997587292481],[132.88160684654645,34.20753934186917],[132.883466997457,34.207052519108686],[132.88423667733005,34.20735624995391],[132.88501768645122,34.20706417511003],[132.8860607307893,34.20927221547252],[132.88711098811012,34.21040565643974],[132.8884745574669,34.21085374633902],[132.8893469240994,34.2102058177562],[132.8909714849633,34.21136371352079],[132.89178367417463,34.21167176390955],[132.89321448615937,34.211729899785055],[132.89320208287543,34.21236977567613],[132.89461074476372,34.21244918056644],[132.89747177267185,34.212122888751566],[132.89815160896566,34.21293554023136],[132.9018530967936,34.21329830675389],[132.90353958009328,34.21380567536401],[132.90485857100643,34.21448103301846],[132.9063850079703,34.214306855714916],[132.9083122250848,34.21366947341374],[132.9096089715751,34.21291517857824],[132.91074863682113,34.21293798365538],[132.9128409805852,34.212207724541685],[132.91424993328508,34.21138778099299],[132.9149866412644,34.21186461125855],[132.91600859264545,34.211826816748065],[132.91727184968758,34.21294062611083],[132.91804417982758,34.21302337091108],[132.91906204340967,34.21350746878205],[132.91952548229327,34.214130330401254],[132.92068259912762,34.21403490145234],[132.92098833827953,34.214608159050975],[132.92027063195533,34.214911620041704],[132.9169704120673,34.2153216165003],[132.91324820156188,34.217004090642064],[132.91138159157708,34.217413367269884],[132.90917349467432,34.21832151564632],[132.90833337924303,34.21943983923327],[132.90679794064266,34.22234774684417],[132.90510089614747,34.224024532608446]]]},"properties":{"KEY_CODE":"344310060","PREF":"34","CITY":"431","CITY_NAME":"大崎上島町","S_NAME":"沖浦","SETAI":"247"}},{"type":"Feature","geometry":{"type":"Polygon","coordinates":[[[132.86184323493384,34.22376640170339],[132.8616690878549,34.22397882719138],[132.86134188238503,34.224132813838764],[132.8606860180092,34.2238560576078],[132.86040980627624,34.223807751545095],[132.85999151572102,34.22374207522949],[132.8597210480687,34.22374796945055],[132.85924359834289,34.223777851741616],[132.8591052238804,34.22379849466846],[132.85861482628846,34.22387831446126],[132.85834768617076,34.22388136980981],[132.858093976323,34.22381631022587],[132.85749067788248,34.22361009728232],[132.85720944676115,34.22351800369179],[132.85717441555795,34.22346960104998],[132.8570963052718,34.22296362351832],[132.8571545798221,34.2226760671103],[132.8571018030195,34.22257775686753],[132.8567915416192,34.22243454917049],[132.85644144440013,34.22223563881444],[132.85617303980658,34.22200020758515],[132.8561274890938,34.221971726339845],[132.85577134053196,34.221841449928775],[132.85556989982757,34.22181158907222],[132.85533558840842,34.22175373862414],[132.8551471370206,34.221523349351784],[132.85495902630433,34.22108447330669],[132.85477713495195,34.220508779047165],[132.85467765236808,34.22040086777422],[132.853630129881,34.220291075208955],[132.85329805797937,34.220175024213994],[132.85283228529826,34.219506244571654],[132.85268093488435,34.21916562263453],[132.85266040364831,34.21909600754841],[132.85263590003143,34.21895499287551],[132.85265888946316,34.218256999474995],[132.85252579637952,34.21802911081059],[132.85248101166516,34.217927512213926],[132.8524438898526,34.21770472335735],[132.85247864169904,34.21739010952511],[132.85254069322718,34.217237624725136],[132.85254585650804,34.217053902517925],[132.85247232155638,34.21677356032762],[132.85243222807003,34.21659685218235],[132.85243132717014,34.21640245769682],[132.85252705492272,34.2162104826553],[132.8525973441024,34.21609105620534],[132.8526353303286,34.216007872402464],[132.8526388471264,34.21595023783993],[132.8526188391668,34.215783278006214],[132.8524786547021,34.21566840606649],[132.8522751479518,34.21554430832758],[132.85191039255773,34.215175009314],[132.85160155066066,34.21463269123985],[132.85142993821995,34.21441614418043],[132.8513436392432,34.214291532419324],[132.8512663460732,34.21404346884299],[132.8512858606378,34.21398250466992],[132.85109006960198,34.2134184256043],[132.85100591632573,34.21314504334079],[132.85075511175918,34.21293724653115],[132.8505413386072,34.2127795337641],[132.85162538189923,34.212202279760795],[132.85199126741503,34.21169353592735],[132.85275526345634,34.212098646139026],[132.8524991161003,34.2115564593577],[132.8546830170561,34.20949321109176],[132.85516252990965,34.21001695989476],[132.8550489770051,34.20912687651148],[132.8555270339085,34.20893572035524],[132.85589843118188,34.20817097434701],[132.8566663011573,34.2081279357912],[132.85887831025082,34.20872407803961],[132.85983366548817,34.20931274938099],[132.86120192437232,34.20930151930168],[132.86189465575842,34.20882612379748],[132.86274965626626,34.20763123549537],[132.8633046099816,34.20742341554699],[132.8641757097373,34.20633929102055],[132.86618174115227,34.2078822618655],[132.8670743054144,34.20795734366632],[132.86887536435808,34.207671269296334],[132.87025430290825,34.20659590061749],[132.87106653078268,34.20679777196992],[132.87199113070494,34.20641918079943],[132.87340916817388,34.20652641539267],[132.87393972493777,34.206262899051744],[132.87525621643275,34.20655367888417],[132.87763137014196,34.206415582617986],[132.8772407904683,34.206806355480005],[132.87779078652972,34.20717915292555],[132.87913787603478,34.20607328693576],[132.8795766263379,34.205988759179625],[132.88160684654645,34.20753934186917],[132.88118221533526,34.20997587292481],[132.8806696152765,34.211652927793075],[132.87983651780274,34.21334731788831],[132.88021422151135,34.215625054584365],[132.88032371765678,34.21750315837912],[132.87995441903885,34.21742430111777],[132.87889186524444,34.21798279337365],[132.8778576685783,34.218900883362814],[132.87573126724516,34.21972003272639],[132.87460436349986,34.21864170907124],[132.87336093140658,34.218292464225314],[132.8713209513864,34.21868873030319],[132.8713334606834,34.21914760077695],[132.8702745855524,34.219998157263745],[132.86994350101688,34.22112626404464],[132.86903482903097,34.221614063955904],[132.86881854949505,34.22261205881252],[132.86662655140208,34.22332466712961],[132.8653410976061,34.22313125283434],[132.86473235313736,34.223073156251736],[132.8641481276327,34.22292434022408],[132.8638107648872,34.22289413796789],[132.8635864179412,34.22291484990795],[132.86318244016226,34.22304772374857],[132.8628856804191,34.223011231495505],[132.86275370232462,34.22300521790379],[132.86247006672858,34.223188400996264],[132.8623667881617,34.223269843019466],[132.86194654805763,34.223611427779446],[132.86184323493384,34.22376640170339]]]},"properties":{"KEY_CODE":"344310070","PREF":"34","CITY":"431","CITY_NAME":"大崎上島町","S_NAME":"明石","SETAI":"163"}}]}