{"type":"FeatureCollection","features":[{"type":"Feature","geometry":{"type":"Polygon","coordinates":[[[135.18943444656333,34.32914373465442],[135.18903807593,34.329353400907095],[135.1884770170404,34.33006542844441],[135.1885060579924,34.33047215792471],[135.18768210370493,34.33053234901598],[135.1881517154282,34.329760416219926],[135.18866068035362,34.329381333370826],[135.18771338538642,34.32923730013348],[135.1867352800599,34.32878371696016],[135.18594001001512,34.3287675974967],[135.186021521402,34.32670122315858],[135.18601338575934,34.326540724225644],[135.18600530662235,34.326259644444974],[135.18600301921546,34.32619058218332],[135.1864313346934,34.32624922712986],[135.1864614272625,34.326298166520985],[135.18725446449957,34.326553033477694],[135.18767228283684,34.32661087713989],[135.1907139529511,34.32762716870202],[135.19211196348692,34.327931209776644],[135.19230626840553,34.328165901683114],[135.19230092069745,34.32836166953783],[135.19234760696068,34.32914589633524],[135.19257098931394,34.32919835912572],[135.19232017649975,34.32980539043535],[135.1919348427685,34.3297842593365],[135.1919949595448,34.3292230234496],[135.19202237359673,34.328992605910074],[135.1913155473035,34.32891610898887],[135.19087935487542,34.328922531237026],[135.1901152812276,34.328946509894216],[135.18985806327828,34.32896115267053],[135.18943444656333,34.32914373465442]]]},"properties":{"KEY_CODE":"27366001101","PREF":"27","CITY":"366","CITY_NAME":"岬町","S_NAME":"望海坂一丁目","SETAI":"299"}},{"type":"Feature","geometry":{"type":"Polygon","coordinates":[[[135.19386362224998,34.3249549732146],[135.1930813927601,34.32631115678195],[135.19322403032467,34.32764820040956],[135.19257098931394,34.32919835912572],[135.19234760696068,34.32914589633524],[135.19230092069745,34.32836166953783],[135.19230626840553,34.328165901683114],[135.19211196348692,34.327931209776644],[135.1907139529511,34.32762716870202],[135.18767228283684,34.32661087713989],[135.18725446449957,34.326553033477694],[135.18747240236328,34.326145262761976],[135.18792995099437,34.32608800043329],[135.18851169812248,34.32603113497065],[135.1900973029048,34.325863271569666],[135.19097435846285,34.32550844036642],[135.19100262313884,34.32527788984497],[135.1912580892108,34.32524956902359],[135.19198733753615,34.32516999342387],[135.19229710812078,34.32513582982672],[135.1929436292349,34.325425756932276],[135.19304488406308,34.32494677607275],[135.19386362224998,34.3249549732146]]]},"properties":{"KEY_CODE":"27366001102","PREF":"27","CITY":"366","CITY_NAME":"岬町","S_NAME":"望海坂二丁目","SETAI":"116"}},{"type":"Feature","geometry":{"type":"Polygon","coordinates":[[[135.18792995099437,34.32608800043329],[135.18747240236328,34.326145262761976],[135.18725446449957,34.326553033477694],[135.1864614272625,34.326298166520985],[135.1864313346934,34.32624922712986],[135.18600301921546,34.32619058218332],[135.18582135695414,34.326133261756006],[135.18579390596577,34.32579974070302],[135.18513898893877,34.32584307692649],[135.18496735169333,34.32538575833916],[135.18563011092073,34.32486803469882],[135.1857332977439,34.32476673885404],[135.18576587140987,34.32472662454554],[135.18588881185934,34.32448069904294],[135.18593657916978,34.32434743317581],[135.18598097477835,34.324220473960686],[135.18602426530072,34.32410344555632],[135.1864408014704,34.32299432571591],[135.18731938336217,34.32182495190264],[135.18807165733614,34.32280990260487],[135.1877316251961,34.323141222028674],[135.18809521965449,34.323525880012205],[135.18846874587726,34.323214615552914],[135.18898419313823,34.32294756091359],[135.18928108427062,34.322581693609244],[135.19083977817377,34.322759665194454],[135.19084390449353,34.32301031993138],[135.19228932528736,34.323217277507844],[135.19272845030713,34.324915958830864],[135.19304488406308,34.32494677607275],[135.1929436292349,34.325425756932276],[135.19229710812078,34.32513582982672],[135.19198733753615,34.32516999342387],[135.1912580892108,34.32524956902359],[135.19100262313884,34.32527788984497],[135.19097435846285,34.32550844036642],[135.1900973029048,34.325863271569666],[135.18851169812248,34.32603113497065],[135.18792995099437,34.32608800043329]]]},"properties":{"KEY_CODE":"27366001103","PREF":"27","CITY":"366","CITY_NAME":"岬町","S_NAME":"望海坂三丁目","SETAI":"16"}},{"type":"Feature","properties":{"KEY_CODE":"27366001201","PREF":"27","CITY":"366","CITY_NAME":"岬町","S_NAME":"淡輪","SETAI":"2888"},"geometry":{"type":"Polygon","coordinates":[[[135.15623072018852,34.3313208835369],[135.15668055347248,34.33012846694671],[135.15679578405158,34.32902925186519],[135.15717318151314,34.32792141485623],[135.15678465540697,34.32732006641784],[135.15681723876466,34.32645397291098],[135.15768649910132,34.326352611159194],[135.1579443028141,34.32687544165224],[135.15838200727174,34.32689563421001],[135.15867598323123,34.32549985169169],[135.15878129731095,34.32523124111333],[135.15879784651162,34.32518909526412],[135.1588378857553,34.32505583024005],[135.15887826571543,34.324837202901925],[135.15879837304936,34.324053023731345],[135.1581760111768,34.323864780508686],[135.15848532771045,34.32389268933353],[135.15798605404802,34.322352700505704],[135.1583477139141,34.3222064314336],[135.15978645791037,34.32320883700649],[135.1600440966638,34.32284308654952],[135.15900593973353,34.32194584175764],[135.1598558007889,34.321587675698034],[135.1596614325796,34.32090089499945],[135.15893473668459,34.31981054543663],[135.1587500107851,34.31949500872183],[135.15890213128193,34.3194356212585],[135.15904332735917,34.31917711721621],[135.16115677041708,34.31918441663533],[135.1611443344762,34.32060932022392],[135.16216821582083,34.32059209494649],[135.16216868587242,34.319747894740885],[135.16272481727052,34.31876902299147],[135.16335408620938,34.31905434585902],[135.16458140270888,34.31930627223485],[135.16588815761403,34.319130498941966],[135.1660170200098,34.319225332567626],[135.1659257288284,34.320278943103055],[135.16861716589938,34.319325262719545],[135.1746931140986,34.32172481863208],[135.17687561495498,34.32250959543561],[135.17824382763487,34.31715308518185],[135.19021662963513,34.31655042223547],[135.17824382763482,34.31715308518182],[135.17851699230113,34.31566667904397],[135.17963748022993,34.310622762940596],[135.18013847809846,34.30853454233397],[135.18114156789582,34.30423667285654],[135.1818109500033,34.30063874987434],[135.2069352024982,34.30122119383178],[135.20753762466435,34.301717131396444],[135.2084105786863,34.30275206682295],[135.20887176160113,34.30426523008843],[135.20830164517074,34.30547126505739],[135.20830220587715,34.305999499570916],[135.20869721966295,34.30684891134085],[135.20806192335334,34.30813425294214],[135.20784672796344,34.30831894059734],[135.20780994247343,34.3093353001481],[135.20764694753643,34.30933875399188],[135.20602036118507,34.308726746708146],[135.2053960522756,34.30868663938487],[135.20486942993895,34.30865617790324],[135.20456465956607,34.3087173061098],[135.204477242731,34.30877082964667],[135.2041681439281,34.308714731601206],[135.20376165673716,34.308617431684446],[135.20329745552715,34.30888022247785],[135.2030559522367,34.309144599927365],[135.20296971877252,34.309648606905334],[135.20304921772296,34.31014693132683],[135.2030376316693,34.31022348500486],[135.20293328008387,34.310344511351],[135.2024312515611,34.31116120352526],[135.2024848887268,34.311810368788926],[135.2021325057013,34.312312799360335],[135.20170185986944,34.31247213210608],[135.2010682755123,34.31226079126649],[135.20056938827253,34.312167525001996],[135.20031604351485,34.31195851770355],[135.20019162022385,34.31190361339568],[135.19989303715698,34.311883634116256],[135.19903273016544,34.312384852670455],[135.19870899885146,34.31243908360097],[135.1983202438465,34.31218875884292],[135.19798940863208,34.31213264257863],[135.19691075867237,34.31188216872003],[135.1952006542556,34.31090901922596],[135.19471712162348,34.310914865918576],[135.19379020888383,34.31127376364297],[135.19306854761524,34.31175557133846],[135.19198823299214,34.312248686312806],[135.19138669158244,34.31331432092071],[135.19119020808364,34.315356987047835],[135.19080883283198,34.31643096904802],[135.19077264647646,34.31652243457245],[135.19077264647643,34.31652243457245],[135.19071751682483,34.31812554284679],[135.19023213483297,34.31864889666276],[135.18919008829056,34.318538341983746],[135.18857508777617,34.31921916580116],[135.18861416398747,34.31996051581793],[135.18898556043308,34.32032358576152],[135.1897494909964,34.32054485929062],[135.19105725002532,34.320711114110914],[135.1914069333062,34.32107389135101],[135.19240614801774,34.32140727735583],[135.19354312464674,34.32125247572838],[135.1943010036078,34.32249749130388],[135.19374368351944,34.322595818362075],[135.19351898907334,34.32383480343339],[135.19386362224998,34.3249549732146],[135.19304488406308,34.32494677607275],[135.19272845030713,34.324915958830864],[135.19228932528736,34.323217277507844],[135.19084390449353,34.32301031993138],[135.19083977817377,34.322759665194454],[135.18928108427062,34.322581693609244],[135.18898419313823,34.32294756091359],[135.18846874587726,34.323214615552914],[135.18809521965449,34.323525880012205],[135.1877316251961,34.323141222028674],[135.18807165733614,34.32280990260487],[135.18731938336217,34.32182495190264],[135.1864408014704,34.32299432571591],[135.18602426530072,34.32410344555632],[135.18598097477835,34.324220473960686],[135.18593657916978,34.32434743317581],[135.18588881185934,34.32448069904294],[135.18576587140987,34.32472662454554],[135.1857332977439,34.32476673885404],[135.18563011092073,34.32486803469882],[135.18496735169333,34.32538575833916],[135.18513898893877,34.32584307692649],[135.18579390596577,34.32579974070302],[135.18582135695414,34.326133261756006],[135.18600530662235,34.326259644444974],[135.18601338575934,34.326540724225644],[135.186021521402,34.32670122315858],[135.18594001001512,34.3287675974967],[135.1867352800599,34.32878371696016],[135.18771338538642,34.32923730013348],[135.18866068035362,34.329381333370826],[135.1881517154282,34.329760416219926],[135.18768210370493,34.33053234901598],[135.1885060579924,34.33047215792471],[135.1884770170404,34.33006542844441],[135.18903807593,34.329353400907095],[135.18943444656333,34.32914373465442],[135.1894994058283,34.329222484906225],[135.18955105189798,34.32926395871418],[135.18961910891522,34.32940048424778],[135.18955386630182,34.32969713935225],[135.18946971249898,34.33003578769106],[135.18943991395514,34.33016856788885],[135.18887717944946,34.33048827632253],[135.18831924135964,34.33185619170547],[135.18938648629228,34.33225400934849],[135.19012481174263,34.33287489177924],[135.19058435242073,34.33362564036144],[135.1914472180728,34.33484643862427],[135.19233066614333,34.335496862996884],[135.1939239110273,34.336037004649626],[135.1934621741619,34.33824103256657],[135.1934031871418,34.33792778474886],[135.19210974268546,34.33748568818436],[135.19169034761413,34.338152731095214],[135.19125978309293,34.33738091540451],[135.19033269759797,34.337376627271986],[135.18881670294851,34.336963592566285],[135.1879632364775,34.33694174304446],[135.18696716545637,34.33670398240555],[135.1859014187436,34.3367712853045],[135.18465814817623,34.33649326757312],[135.18320600785816,34.336506138159656],[135.1826732076694,34.336198882675326],[135.18056272453407,34.33641017543092],[135.18022314179802,34.33627366046187],[135.1798625695866,34.33654156732508],[135.1781018146205,34.33666500334623],[135.17794727378984,34.33679651983356],[135.17685679723508,34.3378413135382],[135.17803331963475,34.33879031901998],[135.17768678630824,34.33866093556335],[135.1801646004105,34.34058877338053],[135.18011734544916,34.3406370558247],[135.177239911996,34.3384596005909],[135.17625107702207,34.3376559521304],[135.1756947054326,34.33764319650401],[135.17316216268136,34.33655430758234],[135.1726246085238,34.33651095608772],[135.17276819332196,34.336181035492295],[135.17105065402507,34.33510210377065],[135.17106729611203,34.33451368570954],[135.1708020891706,34.33504604801147],[135.16990760276263,34.3353998997958],[135.17010353363227,34.33570591634069],[135.1717761803589,34.33647902534329],[135.17167568560478,34.336639774621084],[135.16990002601202,34.33584258471758],[135.16946549567356,34.33648775530779],[135.16879392192016,34.336474186547505],[135.16881720203338,34.33554943122652],[135.16701200028987,34.333671851796794],[135.165455744847,34.33246321484819],[135.16447521158685,34.3318344775069],[135.1635013824988,34.33143904902308],[135.16031798522047,34.3309918679903],[135.15916810430426,34.33121838135581],[135.1591202620581,34.33144442165413],[135.1577858787124,34.33153442625299],[135.15743815263025,34.331964770277025],[135.15660301909077,34.33190760938101],[135.15637275310473,34.331678810653266],[135.15623072018852,34.3313208835369]],[[135.17240865739026,34.3262338693232],[135.17299219620253,34.326464035194334],[135.17240865739026,34.3262338693232],[135.17240865739026,34.3262338693232]],[[135.1740258721733,34.329821187260364],[135.17419242730585,34.32988414795321],[135.1746974177586,34.33004954186632],[135.1740258721733,34.329821187260364]],[[135.17695991586754,34.330838236232964],[135.1770648325785,34.33087542377472],[135.17938080777424,34.33166147484696],[135.17695991586754,34.330838236232964]],[[135.18165080337528,34.32746605855623],[135.18181881146944,34.32694879571722],[135.18187564650316,34.32673421515907],[135.18165080337528,34.32746605855623]]]}},{"type":"Feature","properties":{"KEY_CODE":"27366002001","PREF":"27","CITY":"366","CITY_NAME":"岬町","S_NAME":"深日","SETAI":"1810"},"geometry":{"type":"Polygon","coordinates":[[[135.13756011776394,34.314490836876494],[135.13783129882947,34.31356105637246],[135.13772414769036,34.31328054272663],[135.13829437276198,34.31318355200409],[135.13860288248327,34.313013017959875],[135.13876825071898,34.31303671845029],[135.13891349714584,34.313319329984445],[135.1389585006512,34.31329288155359],[135.1390147449031,34.3132713015016],[135.13912562179516,34.313236159916826],[135.13926477005634,34.313175578030666],[135.1392888419888,34.31301220161331],[135.13936879163816,34.31292162263509],[135.1395123230102,34.3129057263262],[135.13965014214594,34.312566784011466],[135.13963153816923,34.31246804723069],[135.1398505794407,34.31211333428952],[135.1399863907114,34.31190481944849],[135.13971908735724,34.311220727918155],[135.14113761364814,34.31128237285482],[135.1429653086408,34.31135770982143],[135.14472958548308,34.31144271964068],[135.14518328831403,34.31143391068531],[135.14537399428687,34.31177275674387],[135.14518328831406,34.311433910685324],[135.14682128128277,34.31145828212018],[135.1468541321492,34.31145822902893],[135.14855647036597,34.31145683084237],[135.15230685059933,34.312956438027186],[135.15267686055316,34.31233749984049],[135.15290920730135,34.31129233261788],[135.1537735408177,34.3079753990154],[135.15423561319977,34.30614154645375],[135.15470433016006,34.30654709911012],[135.15490614796113,34.30693193175775],[135.15530714581598,34.307209248682945],[135.15561438685697,34.307398438857966],[135.15654201654672,34.30757823850952],[135.15728159017434,34.30745655064881],[135.15873076860373,34.307477784975205],[135.15979028702338,34.307625644249434],[135.16157566610426,34.30781945462895],[135.16337809643304,34.30762879055863],[135.16246391337032,34.31069427018183],[135.16196762740137,34.311772445712755],[135.16124512461818,34.31290921238268],[135.1602890189332,34.314138050076764],[135.15850486721465,34.31539584774249],[135.16861716589938,34.319325262719545],[135.1659257288284,34.320278943103055],[135.1660170200098,34.319225332567626],[135.16588815761403,34.319130498941966],[135.16458140270888,34.31930627223485],[135.16335408620938,34.31905434585902],[135.16272481727052,34.31876902299147],[135.16216868587242,34.319747894740885],[135.16216821582083,34.32059209494649],[135.1611443344762,34.32060932022392],[135.16115677041708,34.31918441663533],[135.15904332735917,34.31917711721621],[135.15890213128193,34.3194356212585],[135.1587500107851,34.31949500872183],[135.15893473668459,34.31981054543663],[135.1596614325796,34.32090089499945],[135.1598558007889,34.321587675698034],[135.15900593973353,34.32194584175764],[135.1600440966638,34.32284308654952],[135.15978645791037,34.32320883700649],[135.1583477139141,34.3222064314336],[135.15798605404802,34.322352700505704],[135.15848532771045,34.32389268933353],[135.1581760111768,34.323864780508686],[135.15879837304936,34.324053023731345],[135.15887826571543,34.324837202901925],[135.1588378857553,34.32505583024005],[135.15879784651162,34.32518909526412],[135.15878129731095,34.32523124111333],[135.15867598323123,34.32549985169169],[135.15838200727174,34.32689563421001],[135.1579443028141,34.32687544165224],[135.15768649910132,34.326352611159194],[135.15681723876466,34.32645397291098],[135.15678465540697,34.32732006641784],[135.15717318151314,34.32792141485623],[135.15679578405158,34.32902925186519],[135.15668055347248,34.33012846694671],[135.15623072018852,34.3313208835369],[135.15637275310473,34.331678810653266],[135.15466682200105,34.331328135632454],[135.15363006260762,34.331430994737],[135.1529374069945,34.33114490276899],[135.15253745473103,34.330389360108796],[135.15275586668773,34.330071672441846],[135.15170689353172,34.32911780914288],[135.15116146946306,34.32824137925465],[135.15074701418794,34.32839092341812],[135.15035418592933,34.32790940136926],[135.1502131418856,34.327236780706464],[135.14979465135264,34.327028356475566],[135.1492287118171,34.326130934127775],[135.1473245821991,34.326060977998445],[135.14631166010338,34.32553554598632],[135.14640409216358,34.325421695326966],[135.1449605381501,34.32460566403256],[135.146558147657,34.32523164271189],[135.1481129207852,34.32331768365499],[135.1476547516975,34.323059420580826],[135.1470917972227,34.322750109645334],[135.145456503514,34.32198298299362],[135.14516822535793,34.321544434399435],[135.1447744086428,34.32159437087921],[135.14329886700392,34.32095031996277],[135.14385960921265,34.32000917593844],[135.14367813048509,34.31925244628814],[135.14295633745493,34.3191734487051],[135.14256762690368,34.31968376467497],[135.14205694275583,34.31946382264512],[135.14214026402144,34.31896574080144],[135.14146184349778,34.318461340757715],[135.14132858161648,34.31821727370433],[135.14000789176734,34.317730200252534],[135.13937400547877,34.31873280260489],[135.14132439875746,34.31958251579775],[135.14122050209426,34.31965672876141],[135.1391144525243,34.318711963028825],[135.13775963211253,34.31882976698573],[135.13759155881166,34.316817269320936],[135.13822106422322,34.31688767133158],[135.13810292991934,34.315726950238535],[135.13809256738335,34.31563587795368],[135.13756011776394,34.314490836876494]],[[135.1408260870421,34.31590524317338],[135.14144451137625,34.31615440044616],[135.1408260870421,34.31590524317337],[135.1408260870421,34.31590524317338]],[[135.14658774878916,34.3210297429187],[135.14711158628367,34.320789410091194],[135.14723684595634,34.320730074871406],[135.14658774878916,34.3210297429187]],[[135.15008097020115,34.32043195691346],[135.15017817541784,34.320769297330706],[135.15026846785125,34.32072188849303],[135.15008097020115,34.32043195691346]]]}},{"type":"Feature","geometry":{"type":"Polygon","coordinates":[[[135.13775963211253,34.31882976698573],[135.1355206263669,34.31896798625751],[135.13456963948087,34.319312035195765],[135.13393377311934,34.319116393092756],[135.13311893838718,34.319527178705414],[135.1311162383653,34.32028199233877],[135.1302343885541,34.32075989186361],[135.12982386380142,34.32116266788381],[135.1308254277231,34.32161687005392],[135.13068338675404,34.321791661441864],[135.1331070831856,34.32323323183777],[135.13056009246728,34.326177565883924],[135.12777886445585,34.324529711761485],[135.12708824931374,34.324478876609184],[135.1263490313036,34.32492521945091],[135.12590707903368,34.32489868705606],[135.12494709875998,34.32535513854095],[135.12437213431295,34.32526088151978],[135.1235436040066,34.3246816499751],[135.1224742027015,34.324375513063394],[135.12102630803975,34.3237137932723],[135.12114852331075,34.32301472066514],[135.12164406761684,34.3226945679634],[135.12125468023197,34.322316801098076],[135.12176081891675,34.3216055478176],[135.12291936389494,34.320434532706145],[135.1223243451174,34.31987133159289],[135.12115028130236,34.32138382173229],[135.1214196509443,34.321603948666514],[135.12041245478784,34.32295267608762],[135.11964641384137,34.32252430800451],[135.12030313283745,34.32154720638387],[135.1212417581342,34.31958241420314],[135.1209233688321,34.319480964068845],[135.1203867103981,34.320621067699584],[135.11986846486676,34.32134490671767],[135.1196879110511,34.32209370609618],[135.11934103456656,34.32169454541443],[135.118519444912,34.3214088886709],[135.11606386063178,34.322827592634944],[135.11435055588134,34.322378838083424],[135.11361064563295,34.32206077642095],[135.112496290962,34.321911148823446],[135.1101354302167,34.321868825995786],[135.10834314371417,34.3215005255956],[135.10624051144995,34.32057731977303],[135.1050029710441,34.32046375147277],[135.10300616143897,34.32011823872865],[135.10208071453897,34.31977873210934],[135.10146779771182,34.31927571881714],[135.10130511606485,34.31863176824857],[135.10047587400112,34.3172147940399],[135.09951878523174,34.31638286066047],[135.0994042845341,34.31550486619739],[135.09911168009197,34.315122241423346],[135.09810416904796,34.31454051932957],[135.09735642529972,34.31438794262393],[135.09721400919074,34.31337577865194],[135.09630188110833,34.313093783438234],[135.09580936854752,34.31312690139473],[135.09556470011205,34.312566144954936],[135.09582954626504,34.31208875106236],[135.0953776294103,34.311993277938214],[135.0945488607128,34.31228379010731],[135.09417298577176,34.31153161002314],[135.09365246984768,34.31185778810546],[135.09331567636409,34.31160215578294],[135.0936031408551,34.31137552882312],[135.09684041776245,34.30805023460836],[135.09777232875416,34.30794513465398],[135.09794316793923,34.30862394448054],[135.0991991057812,34.30931272354131],[135.1000163901981,34.309611030769645],[135.10063169940108,34.30934707378515],[135.101701117152,34.309858235273346],[135.10206909923411,34.31068766009878],[135.10348459739572,34.31113570472116],[135.10321071043438,34.30997242586302],[135.10363014070253,34.30966518063639],[135.10458752396872,34.3098729232697],[135.10467936265243,34.309135617377386],[135.11286285693072,34.31129738967563],[135.11325828806253,34.31140617475016],[135.1149818358794,34.311827815743435],[135.1165430067255,34.312323627701595],[135.11766305693877,34.31269708167103],[135.1180491662998,34.31221162177476],[135.11831545706173,34.312259455707554],[135.11889388126855,34.31236277581472],[135.12204956331567,34.31278416680625],[135.12279192833307,34.31262367490969],[135.1263742955673,34.31127577627852],[135.12796256474675,34.31102589787877],[135.12788604210547,34.31135117859597],[135.12694851130232,34.31203363226331],[135.12698053616884,34.312762977968575],[135.12740115799,34.313641022315785],[135.13021406498024,34.31371690558361],[135.13233520226999,34.3131684504732],[135.13853507892955,34.31123565618798],[135.13971908735724,34.311220727918155],[135.1399863907114,34.31190481944849],[135.1398505794407,34.31211333428952],[135.13963153816923,34.31246804723069],[135.13965014214594,34.312566784011466],[135.1395123230102,34.3129057263262],[135.13936879163816,34.31292162263509],[135.1392888419888,34.31301220161331],[135.13926477005634,34.313175578030666],[135.13912562179516,34.313236159916826],[135.1390147449031,34.3132713015016],[135.1389585006512,34.31329288155359],[135.13876825071898,34.31303671845029],[135.13860288248327,34.313013017959875],[135.13829437276198,34.31318355200409],[135.13772414769036,34.31328054272663],[135.13783129882947,34.31356105637246],[135.13756011776394,34.314490836876494],[135.13809256738335,34.31563587795368],[135.13810292991934,34.315726950238535],[135.13822106422322,34.31688767133158],[135.13759155881166,34.316817269320936],[135.13775963211253,34.31882976698573]]]},"properties":{"KEY_CODE":"27366003001","PREF":"27","CITY":"366","CITY_NAME":"岬町","S_NAME":"多奈川谷川","SETAI":"867"}},{"type":"Feature","geometry":{"type":"Polygon","coordinates":[[[135.13971908735724,34.311220727918155],[135.13853507892955,34.31123565618798],[135.13233520226999,34.3131684504732],[135.13021406498024,34.31371690558361],[135.12740115799,34.313641022315785],[135.12698053616884,34.312762977968575],[135.12694851130232,34.31203363226331],[135.12788604210547,34.31135117859597],[135.12796256474675,34.31102589787877],[135.1263742955673,34.31127577627852],[135.12985680311118,34.306403841397554],[135.12895181277833,34.30437021444351],[135.12635667308592,34.30246401333202],[135.12510935989533,34.29767420761769],[135.1263507677845,34.29561509395332],[135.12597672241418,34.29497852638838],[135.124279218527,34.29116480763117],[135.1234683168352,34.28707803933784],[135.12327893962987,34.284492145903954],[135.12244436605593,34.28023218248846],[135.12157972011286,34.274936089135345],[135.1224770623409,34.27469711927335],[135.12279399458842,34.27486518841777],[135.1237405521169,34.27638726975321],[135.12491224349648,34.27656199907914],[135.12530046116694,34.27724741402445],[135.125854345856,34.27741927670423],[135.12639600135324,34.276629767959705],[135.1282690634908,34.27644728646621],[135.12907908479102,34.27586111463655],[135.12912906873044,34.274894553404884],[135.13046645033953,34.27301965336153],[135.13142894246496,34.272411444673764],[135.13210386109205,34.27234480248143],[135.13365373388518,34.27261143470374],[135.13534469348042,34.27319529109417],[135.13582628211327,34.273525640155626],[135.13702562499446,34.2735667689539],[135.13721577935212,34.27396436798706],[135.13810016959226,34.274315995959086],[135.13816200143827,34.27485144612407],[135.13782461171465,34.27532295276851],[135.13800572647727,34.27622577936246],[135.13842068638135,34.276419431192565],[135.13889785496679,34.277570996171406],[135.13874232754642,34.27841370255366],[135.1396333334893,34.27941336816156],[135.13999262470648,34.2801441816707],[135.13925196531434,34.28062878520276],[135.13946058168355,34.28139122427233],[135.13879809471845,34.28168845520388],[135.13800631890655,34.281599636546304],[135.1380424154856,34.28230423565457],[135.13784212797808,34.28299069148719],[135.13849460224586,34.283011618811905],[135.13898008070038,34.28365865908687],[135.13978077052494,34.28438369770295],[135.13976360751428,34.28478660277703],[135.1397108588604,34.284850328601614],[135.13974861027916,34.2849848410164],[135.14027562149568,34.285922639635636],[135.14026625974427,34.28620107123938],[135.1402934393595,34.28673318214481],[135.1402516483193,34.28699617168271],[135.14016557066435,34.28724166473372],[135.14019155983388,34.28735637276014],[135.14032138452032,34.28783327642719],[135.1400205839746,34.28814854291192],[135.14029573687128,34.28882945671239],[135.14046347102993,34.28913349966434],[135.1406665030079,34.29010677125855],[135.14066030020587,34.29042508963725],[135.14049626667568,34.290700604656145],[135.14019428712155,34.29136465272467],[135.1402882307785,34.291740442565846],[135.140422737951,34.291865772217925],[135.14047330554664,34.29190852804514],[135.14085357855083,34.29210052027927],[135.1408597411687,34.29265544267088],[135.1417066054722,34.29327372825831],[135.14246364255686,34.29441667690596],[135.14193346158936,34.29580911458536],[135.14202149154545,34.29638475624521],[135.14162289214272,34.296876274301404],[135.14173066218035,34.297111997826775],[135.14181221142542,34.298234869530184],[135.1415900873417,34.2990488037195],[135.1406467044716,34.30024070711973],[135.1390288489838,34.30119515606613],[135.1388715281371,34.302118010033894],[135.13896904209855,34.30436328346508],[135.13895819333095,34.30648156092153],[135.139538687263,34.30805841300764],[135.14042846628598,34.30805127178454],[135.14086494757706,34.308750776546354],[135.1408405072215,34.31007151290008],[135.14113761364814,34.31128237285482],[135.13971908735724,34.311220727918155]]]},"properties":{"KEY_CODE":"27366003002","PREF":"27","CITY":"366","CITY_NAME":"岬町","S_NAME":"多奈川東畑","SETAI":"36"}},{"type":"Feature","geometry":{"type":"Polygon","coordinates":[[[135.1263742955673,34.31127577627852],[135.12279192833307,34.31262367490969],[135.12204956331567,34.31278416680625],[135.11889388126855,34.31236277581472],[135.11831545706173,34.312259455707554],[135.1180491662998,34.31221162177476],[135.11766305693877,34.31269708167103],[135.1165430067255,34.312323627701595],[135.1149818358794,34.311827815743435],[135.11325828806253,34.31140617475016],[135.11286285693072,34.31129738967563],[135.10467936265243,34.309135617377386],[135.10556758781993,34.30916465497689],[135.10598867379812,34.308980668595254],[135.10622807349512,34.308142172949566],[135.10619811468908,34.30724240575122],[135.10647998810688,34.30595008004885],[135.105427760434,34.304802526760206],[135.10473168292998,34.30449824029181],[135.10443289283268,34.30408388769548],[135.1043805618176,34.30325480789918],[135.10353237042239,34.302401837915546],[135.10334092218568,34.30183921848177],[135.10265865556488,34.30179618168398],[135.10167256921628,34.30097600302775],[135.10117803683713,34.30075050783085],[135.10075866582218,34.29989842476325],[135.10004170834634,34.29933673578412],[135.0990955082557,34.29895183677067],[135.09804525781655,34.29881422941984],[135.0980218933996,34.29829961701674],[135.09767880485995,34.298089032866486],[135.09739442641555,34.29729231872449],[135.09687782976613,34.297204401879256],[135.09673455475735,34.29678468920779],[135.09691802329547,34.295984244604504],[135.09719302584966,34.29575920721345],[135.0979049527213,34.295817554091464],[135.09862962141028,34.294927538728295],[135.09897176996665,34.29481115785351],[135.0993920625553,34.29409017250523],[135.0996936879436,34.29277257514125],[135.10015745984538,34.292398727477554],[135.09938557478722,34.291333721974105],[135.09882985696294,34.29105762193802],[135.09897498142226,34.289828893260584],[135.09868722890445,34.289181735772324],[135.0990243918311,34.28887796031404],[135.09972388691875,34.28878378066524],[135.1003355964851,34.28747930192071],[135.10122650342012,34.2869715129503],[135.1013061771244,34.28589401729689],[135.10171859618725,34.28574165657349],[135.1026054486356,34.28626978656973],[135.10316120967732,34.2863718947181],[135.10419801160415,34.28545141186563],[135.1050069164935,34.28516740152061],[135.1055205515571,34.28467105401692],[135.10666189890517,34.284236044749484],[135.10820631258312,34.28425079594121],[135.108529924148,34.2838113746087],[135.10837516839507,34.28348737427456],[135.1088370354154,34.28287610625114],[135.1085926381596,34.28200811614642],[135.1080002277397,34.28115915134459],[135.10796844946495,34.28052781805503],[135.1070628512051,34.279623747803065],[135.10711880153775,34.278214458667456],[135.10766233618818,34.277645910286445],[135.10820568837946,34.2776730984182],[135.10848980467173,34.2771708428588],[135.1082767774821,34.27624279109145],[135.10850916356108,34.27608346114823],[135.10942432763937,34.2742493314412],[135.11008546754027,34.273635135003666],[135.10986760456223,34.27274705132946],[135.1104268264069,34.27217283468991],[135.1111928072215,34.27179972957037],[135.1116564720464,34.27200974752618],[135.1117972091017,34.27332001986245],[135.11228020693355,34.273677665951496],[135.1133801447769,34.27392763804073],[135.11391758011302,34.274411043971035],[135.115380037769,34.27419437725989],[135.1166799293935,34.27361941898105],[135.1170923979928,34.27311948503455],[135.11801742051813,34.27326109500272],[135.11854235337702,34.27362774782926],[135.12039228594222,34.273736115660405],[135.12101720863754,34.27396119582724],[135.12157972011286,34.274936089135345],[135.12244436605593,34.28023218248846],[135.12327893962987,34.284492145903954],[135.1234683168352,34.28707803933784],[135.124279218527,34.29116480763117],[135.12597672241418,34.29497852638838],[135.1263507677845,34.29561509395332],[135.12510935989533,34.29767420761769],[135.12635667308592,34.30246401333202],[135.12895181277833,34.30437021444351],[135.12985680311118,34.306403841397554],[135.1263742955673,34.31127577627852]]]},"properties":{"KEY_CODE":"27366003003","PREF":"27","CITY":"366","CITY_NAME":"岬町","S_NAME":"多奈川西畑","SETAI":"34"}},{"type":"Feature","geometry":{"type":"Polygon","coordinates":[[[135.09735642529972,34.31438794262393],[135.09608172693024,34.31427413373249],[135.09530985234426,34.31492286411004],[135.09455776338683,34.31524634410065],[135.0935808737733,34.315254421061475],[135.09338671662508,34.31502038711493],[135.09200677367397,34.315023654429474],[135.0922314472012,34.31443843250821],[135.09317125389285,34.31444271279426],[135.09460921293262,34.31389083558667],[135.09397697392504,34.312459033964366],[135.09349742153262,34.311989385774446],[135.09283277885152,34.312062880445325],[135.09331567636409,34.31160215578294],[135.09365246984768,34.31185778810546],[135.09417298577176,34.31153161002314],[135.0945488607128,34.31228379010731],[135.0953776294103,34.311993277938214],[135.09582954626504,34.31208875106236],[135.09556470011205,34.312566144954936],[135.09580936854752,34.31312690139473],[135.09630188110833,34.313093783438234],[135.09721400919074,34.31337577865194],[135.09735642529972,34.31438794262393]]]},"properties":{"KEY_CODE":"27366003004","PREF":"27","CITY":"366","CITY_NAME":"岬町","S_NAME":"多奈川小島","SETAI":"66"}},{"type":"Feature","geometry":{"type":"Polygon","coordinates":[[[135.18013847809846,34.30853454233397],[135.17963748022993,34.310622762940596],[135.17851699230113,34.31566667904397],[135.17824382763487,34.31715308518185],[135.17687561495498,34.32250959543561],[135.1746931140986,34.32172481863208],[135.16861716589938,34.319325262719545],[135.15850486721465,34.31539584774249],[135.1602890189332,34.314138050076764],[135.16124512461818,34.31290921238268],[135.16196762740137,34.311772445712755],[135.16246391337032,34.31069427018183],[135.16337809643304,34.30762879055863],[135.16157566610426,34.30781945462895],[135.15979028702338,34.307625644249434],[135.15873076860373,34.307477784975205],[135.15728159017434,34.30745655064881],[135.15654201654672,34.30757823850952],[135.15561438685697,34.307398438857966],[135.15530714581598,34.307209248682945],[135.15490614796113,34.30693193175775],[135.15470433016006,34.30654709911012],[135.15423561319977,34.30614154645375],[135.1537735408177,34.3079753990154],[135.15290920730135,34.31129233261788],[135.15267686055316,34.31233749984049],[135.15230685059933,34.312956438027186],[135.14855647036597,34.31145683084237],[135.1468541321492,34.31145822902893],[135.14682128128277,34.31145828212018],[135.14518328831403,34.31143391068531],[135.14472958548308,34.31144271964068],[135.1429653086408,34.31135770982143],[135.14113761364814,34.31128237285482],[135.1408405072215,34.31007151290008],[135.14086494757706,34.308750776546354],[135.14042846628598,34.30805127178454],[135.139538687263,34.30805841300764],[135.13895819333095,34.30648156092153],[135.13896904209855,34.30436328346508],[135.1388715281371,34.302118010033894],[135.1390288489838,34.30119515606613],[135.1406467044716,34.30024070711973],[135.1415900873417,34.2990488037195],[135.14181221142542,34.298234869530184],[135.14173066218035,34.297111997826775],[135.14162289214272,34.296876274301404],[135.14202149154545,34.29638475624521],[135.14193346158936,34.29580911458536],[135.14246364255686,34.29441667690596],[135.1417066054722,34.29327372825831],[135.1408597411687,34.29265544267088],[135.14085357855083,34.29210052027927],[135.14047330554664,34.29190852804514],[135.140422737951,34.291865772217925],[135.1402882307785,34.291740442565846],[135.14019428712155,34.29136465272467],[135.14049626667568,34.290700604656145],[135.14066030020587,34.29042508963725],[135.1406665030079,34.29010677125855],[135.14046347102993,34.28913349966434],[135.14029573687128,34.28882945671239],[135.1400205839746,34.28814854291192],[135.14032138452032,34.28783327642719],[135.14019155983388,34.28735637276014],[135.14016557066435,34.28724166473372],[135.1402516483193,34.28699617168271],[135.1402934393595,34.28673318214481],[135.14026625974427,34.28620107123938],[135.14027562149568,34.285922639635636],[135.13974861027916,34.2849848410164],[135.1397108588604,34.284850328601614],[135.13976360751428,34.28478660277703],[135.13978077052494,34.28438369770295],[135.13898008070038,34.28365865908687],[135.13849460224586,34.283011618811905],[135.13784212797808,34.28299069148719],[135.1380424154856,34.28230423565457],[135.13800631890655,34.281599636546304],[135.13879809471845,34.28168845520388],[135.13946058168355,34.28139122427233],[135.13985316708346,34.28191913895824],[135.14126560836047,34.281960735939435],[135.14225297422612,34.28096916896818],[135.14320292022916,34.28036091891868],[135.14366535612373,34.28042768243313],[135.14424036063804,34.28120253202008],[135.14512484581775,34.28164807209476],[135.14579870503144,34.282341053892104],[135.14595541675965,34.28275446905722],[135.14652175691123,34.28313016484707],[135.14684993563537,34.28365577616787],[135.1481842974789,34.28374605841982],[135.149027504672,34.28301911831462],[135.15112743621978,34.28225256617504],[135.1518273215663,34.28234432907607],[135.15232731985915,34.28209436596798],[135.15329321592182,34.28239884121629],[135.15369659371228,34.28202677470214],[135.15385784271518,34.28121704430681],[135.1547943103308,34.28126450041111],[135.1549013732916,34.28093489936661],[135.15460522894662,34.28035768738845],[135.15315596574288,34.279338774957125],[135.15362615634342,34.27825690619928],[135.15375792151696,34.27693295238624],[135.15404895342812,34.27663547635288],[135.15329451650368,34.27552079085707],[135.1526705281916,34.27537068016818],[135.1525582185657,34.274740646177136],[135.15361811565833,34.274213938208575],[135.1545128559646,34.274617219970786],[135.15581042633895,34.27574705012251],[135.15647138623657,34.276522148428],[135.15780909602773,34.277187791500644],[135.15841536722147,34.27705686298458],[135.1592415970808,34.277187482689975],[135.16015688941204,34.27797149260485],[135.16121728780803,34.277547141170984],[135.16151333186676,34.27796642070269],[135.1627938522454,34.27820860083821],[135.16320711975354,34.27869291790111],[135.16492302769456,34.27865884984564],[135.1656306588791,34.27878087746587],[135.16642514811062,34.27982886485756],[135.1667615976681,34.27993074955095],[135.16895914044412,34.28007021191383],[135.1696495771608,34.28023435993315],[135.16998070517943,34.27990119470276],[135.1716302268416,34.280723913000806],[135.17328117122466,34.28017764813684],[135.17470875012802,34.279886096446546],[135.17632011014834,34.27985609066271],[135.1784652020499,34.27895780369853],[135.17950428302555,34.279123810025546],[135.1800477308483,34.279862224188314],[135.18076968679188,34.27996312792361],[135.1814711639229,34.27955788745276],[135.18225466653638,34.27942718167342],[135.1831371090775,34.27882056919437],[135.1837345890268,34.27867452621113],[135.18448321593485,34.27893941702684],[135.18473475394313,34.27950809140371],[135.18479628198605,34.28074096933095],[135.18500443886302,34.28126822174849],[135.1855538736049,34.28139838237344],[135.18660137166958,34.28232579298939],[135.18798280853878,34.28327823111741],[135.18936980986135,34.282801290990776],[135.1897016844258,34.28294182369434],[135.19048483630252,34.28401211791696],[135.1908798263411,34.28505237068967],[135.19159843708155,34.286362833614724],[135.19380840212645,34.2870361122207],[135.1947344283133,34.286843021675075],[135.19556079186853,34.28611749192065],[135.19633657876474,34.2860968106314],[135.19761525756888,34.28694928263848],[135.19853069626473,34.28809222423313],[135.19913870341145,34.287939420965195],[135.19955486745002,34.287354726121215],[135.20041061097135,34.287591063640896],[135.20155577501043,34.288243434980714],[135.20279210419372,34.28749250152981],[135.20326834502657,34.28810119538133],[135.2047987837339,34.28807861260485],[135.20526127677905,34.28843688818559],[135.20519873088557,34.288870214414196],[135.20441123315564,34.29052001324433],[135.20473622102335,34.2913783231373],[135.20468618743118,34.2926448241536],[135.20494797931562,34.293681625190295],[135.20472152171536,34.29418178327574],[135.204841041763,34.295458106300984],[135.20518400865808,34.2963029848],[135.20441226336465,34.2978245082569],[135.20531848781906,34.30016859800565],[135.20603257295434,34.30052990002567],[135.20693520249816,34.30122119383179],[135.1818109500033,34.30063874987434],[135.18114156789582,34.30423667285654],[135.18013847809846,34.30853454233397]]]},"properties":{"KEY_CODE":"273660040","PREF":"27","CITY":"366","CITY_NAME":"岬町","S_NAME":"孝子","SETAI":"141"}}]}