{"type":"FeatureCollection","features":[{"type":"Feature","properties":{"KEY_CODE":"21362001000","PREF":"21","CITY":"362","CITY_NAME":"関ケ原町","S_NAME":"大字山中","SETAI":"43"},"geometry":{"type":"Polygon","coordinates":[[[136.42928910605104,35.3559164873302],[136.43308452254936,35.35570270795383],[136.43343351230456,35.35548425411041],[136.43414396854686,35.35503551748482],[136.43425042862586,35.35517390475963],[136.43438050684645,35.355314545850995],[136.43508577778212,35.35590957208294],[136.43619519925852,35.35538148611383],[136.43722632999425,35.3564013489844],[136.43816413356558,35.35509095632279],[136.43823579803595,35.35500744498108],[136.43839874597776,35.35471356969862],[136.43848789827558,35.35456833389744],[136.4396134149284,35.35360130850167],[136.43941570543694,35.35182407186649],[136.44156109909102,35.34884448107558],[136.44393335956394,35.35032479497938],[136.44505436156135,35.34898134947705],[136.4467184636663,35.34760859323467],[136.45113656950468,35.34571980353841],[136.4542849486109,35.347326012263046],[136.45582015683487,35.348138781001914],[136.45778854164377,35.347124668528515],[136.4605775584902,35.345335192425495],[136.46128395170126,35.345513886575404],[136.4614606331916,35.34573913721067],[136.46165649680717,35.345834290696814],[136.4616377052595,35.345919671917585],[136.461489090082,35.345955566329195],[136.46130629531237,35.34600802100035],[136.46116695290368,35.346069672214476],[136.46101180754738,35.346263270688986],[136.4607805654758,35.34653452204307],[136.46068642991392,35.34671460241936],[136.46100448718508,35.34691159512479],[136.46136375571737,35.3469114363386],[136.46152163082448,35.346907919950034],[136.46159482679846,35.34694130302056],[136.46174160296684,35.3472703910447],[136.4618112539081,35.347400160954955],[136.46190935131708,35.34754009522263],[136.4618740137549,35.3476948158478],[136.4617385791412,35.34808761100376],[136.46177046270327,35.348176949887204],[136.46193551795133,35.34828720496447],[136.46199647359683,35.34831988274111],[136.46207734629735,35.348409577840144],[136.46219511310733,35.348635469792285],[136.4623296350896,35.34912898955223],[136.4623015281152,35.34938635591866],[136.46223306402135,35.34959447418813],[136.46219152162553,35.3496766959511],[136.46211519848234,35.34984462778536],[136.4621057095501,35.35011548248464],[136.46197103845665,35.350306455260785],[136.46181149414272,35.350189612114875],[136.46169480889913,35.349834362574306],[136.46187170497058,35.34968039590002],[136.4618405971366,35.34950183858508],[136.46177611047003,35.349405619759075],[136.46171082905974,35.349400802850795],[136.46147531977988,35.34956886343387],[136.46141559266582,35.34955288178649],[136.46129641071477,35.349489793324935],[136.46117902492017,35.34953143191818],[136.46112432781376,35.349698081859216],[136.46110247576038,35.35003604597964],[136.4610867153281,35.35012848679268],[136.46089162080972,35.35034361238059],[136.4608688687534,35.35061220639622],[136.46102652973022,35.35085136060494],[136.46121053526636,35.351224045204184],[136.46116156373307,35.35122150612448],[136.4609793166437,35.35105657327968],[136.46079243791024,35.35110787619664],[136.4608563421582,35.351270992124924],[136.46104048390674,35.351534103154236],[136.46117032751656,35.35162183106601],[136.46125369814473,35.35173604728836],[136.4612901302069,35.35180161048312],[136.4613889108775,35.351992112064174],[136.46153238250469,35.352084354502104],[136.4615756725293,35.3522708006825],[136.46157684725654,35.35244700046155],[136.46142220589724,35.35270468500096],[136.4612830842321,35.35273957776381],[136.46098580364887,35.35280917965717],[136.46076274735103,35.352794498618024],[136.45967871354594,35.352578594236505],[136.4594907562396,35.35259981790114],[136.459249691748,35.3527767840907],[136.45872385253017,35.353307707018104],[136.45763138884993,35.353271233487554],[136.45615820474552,35.353668346475274],[136.45608513665584,35.353928825067754],[136.45599644482752,35.35411336831316],[136.45554398582516,35.35418873404132],[136.4552763243678,35.35444694071748],[136.45503663219657,35.35462277805952],[136.45494111391736,35.35480615434575],[136.45494707536287,35.354900694423954],[136.4549652827385,35.355044530029474],[136.45498382599018,35.3551550586653],[136.45473077870344,35.35621114475822],[136.45491101035248,35.356767753688466],[136.45390863696775,35.35706881323556],[136.4532838506312,35.35764286078611],[136.45247437941327,35.358908753635745],[136.44972977108765,35.35937771685555],[136.44756772298564,35.35972910135364],[136.44720994331811,35.35965127098554],[136.44738653070243,35.359746333048896],[136.44686120641634,35.36053136228707],[136.44597236947638,35.36082705990525],[136.44515664419336,35.361983231681464],[136.4449249674096,35.36204579397709],[136.4445698381786,35.36188178369703],[136.44417049738624,35.362102213059224],[136.44392529557393,35.362206452666044],[136.44360678982605,35.36226905770821],[136.44337850311175,35.362279033533575],[136.44307505683392,35.36228679983077],[136.4427091061822,35.36236285191317],[136.44258105465008,35.36249349144854],[136.44239560446417,35.36268357540284],[136.44224475575717,35.36283499277717],[136.44204839271183,35.36294247793728],[136.44175524801113,35.363182690546196],[136.44143980858502,35.36364726895068],[136.44120829498524,35.36359933565482],[136.4396977617873,35.36331966344575],[136.43712777316108,35.36286818199179],[136.4360272191066,35.36266775619367],[136.4348739936952,35.36206461581341],[136.43265993731302,35.360826701410474],[136.43036547939755,35.35945656754373],[136.43009799710586,35.358561083879486],[136.42928910605104,35.3559164873302]]]}},{"type":"Feature","geometry":{"type":"Polygon","coordinates":[[[136.4618315095368,35.35466941065872],[136.4613304874464,35.35528428708521],[136.45942253608837,35.356193397731026],[136.4587511211024,35.35744626097606],[136.45799807142043,35.35811781542659],[136.45561593339968,35.35966090232462],[136.45648018509158,35.36000801119294],[136.4561415131483,35.36050530424466],[136.45553231099413,35.36012920005896],[136.45510632118123,35.35988346337832],[136.45481890903795,35.359706073292074],[136.45441062322445,35.35946621142929],[136.45418029410516,35.35935232352592],[136.45390482160386,35.35923014065565],[136.45356022256814,35.359104661813234],[136.45347711954457,35.359082412454654],[136.45316491184641,35.35900289679182],[136.45283305595765,35.35894354603357],[136.45247437941327,35.358908753635745],[136.4532838506312,35.35764286078611],[136.45390863696775,35.35706881323556],[136.45491101035248,35.356767753688466],[136.45473077870344,35.35621114475822],[136.45498382599018,35.3551550586653],[136.4549652827385,35.355044530029474],[136.45494707536287,35.354900694423954],[136.45494111391736,35.35480615434575],[136.45503663219657,35.35462277805952],[136.4552763243678,35.35444694071748],[136.45554398582516,35.35418873404132],[136.45599644482752,35.35411336831316],[136.45608513665584,35.353928825067754],[136.45615820474552,35.353668346475274],[136.45763138884993,35.353271233487554],[136.45872385253017,35.353307707018104],[136.459249691748,35.3527767840907],[136.4594907562396,35.35259981790114],[136.45967871354594,35.352578594236505],[136.46076274735103,35.352794498618024],[136.46098580364887,35.35280917965717],[136.4612830842321,35.35273957776381],[136.46142220589724,35.35270468500096],[136.46176580583446,35.35262647835571],[136.4620367008125,35.35261573309426],[136.4619455439863,35.35314483880946],[136.46184408291737,35.35343543646376],[136.46177182186267,35.35384260913583],[136.46178413171924,35.353899791265654],[136.46189642594524,35.35415790262025],[136.4618874505378,35.35434995713945],[136.4618315095368,35.35466941065872]]]},"properties":{"KEY_CODE":"213620020","PREF":"21","CITY":"362","CITY_NAME":"関ケ原町","S_NAME":"大字藤下","SETAI":"22"}},{"type":"Feature","properties":{"KEY_CODE":"21362003001","PREF":"21","CITY":"362","CITY_NAME":"関ケ原町","S_NAME":"大字松尾","SETAI":"161"},"geometry":{"type":"Polygon","coordinates":[[[136.45479387958346,35.36134834357086],[136.45553231099413,35.36012920005896],[136.4561415131483,35.36050530424466],[136.45648018509158,35.36000801119294],[136.45561593339968,35.35966090232462],[136.45799807142043,35.35811781542659],[136.4587511211024,35.35744626097606],[136.45942253608837,35.356193397731026],[136.4613304874464,35.35528428708521],[136.4618315095368,35.35466941065872],[136.4618315095368,35.35466941065872],[136.4618874505378,35.35434995713945],[136.46189642594524,35.35415790262025],[136.46178413171924,35.353899791265654],[136.46177182186267,35.35384260913583],[136.46184408291737,35.35343543646376],[136.4619455439863,35.35314483880946],[136.4620367008125,35.35261573309426],[136.46176580583446,35.35262647835571],[136.46157684725654,35.35244700046155],[136.4615756725293,35.3522708006825],[136.46153238250469,35.352084354502104],[136.4613889108775,35.351992112064174],[136.4612901302069,35.35180161048312],[136.46125369814473,35.35173604728836],[136.46117032751656,35.35162183106601],[136.46104048390674,35.351534103154236],[136.4608563421582,35.351270992124924],[136.46079243791024,35.35110787619664],[136.4609793166437,35.35105657327968],[136.46116156373307,35.35122150612448],[136.46121053526636,35.351224045204184],[136.46102652973022,35.35085136060494],[136.4608688687534,35.35061220639622],[136.46089162080972,35.35034361238059],[136.4610867153281,35.35012848679268],[136.46110247576038,35.35003604597964],[136.46112432781376,35.349698081859216],[136.46117902492017,35.34953143191818],[136.46129641071477,35.349489793324935],[136.46141559266582,35.34955288178649],[136.46147531977988,35.34956886343387],[136.46171082905974,35.349400802850795],[136.46177611047003,35.349405619759075],[136.4618405971366,35.34950183858508],[136.46187170497058,35.34968039590002],[136.46169480889913,35.349834362574306],[136.46181149414272,35.350189612114875],[136.46197103845665,35.350306455260785],[136.4621057095501,35.35011548248464],[136.46211519848234,35.34984462778536],[136.46219152162553,35.3496766959511],[136.46223306402135,35.34959447418813],[136.4623015281152,35.34938635591866],[136.4623296350896,35.34912898955223],[136.46219511310733,35.348635469792285],[136.46207734629735,35.348409577840144],[136.46199647359683,35.34831988274111],[136.46193551795133,35.34828720496447],[136.46177046270327,35.348176949887204],[136.4617385791412,35.34808761100376],[136.4618740137549,35.3476948158478],[136.46190935131708,35.34754009522263],[136.4618112539081,35.347400160954955],[136.46174160296684,35.3472703910447],[136.46159482679846,35.34694130302056],[136.46152163082448,35.346907919950034],[136.46136375571737,35.3469114363386],[136.46100448718508,35.34691159512479],[136.46068642991392,35.34671460241936],[136.4607805654758,35.34653452204307],[136.46101180754738,35.346263270688986],[136.46116695290368,35.346069672214476],[136.46130629531237,35.34600802100035],[136.461489090082,35.345955566329195],[136.4616377052595,35.345919671917585],[136.46226075074821,35.3460768184585],[136.46298112864517,35.34597220962321],[136.46327905889018,35.34581957856146],[136.46347060469847,35.34527816699059],[136.46439844618777,35.34518890889555],[136.46519026162517,35.34540427155057],[136.46591192032557,35.344801984259746],[136.46698826218983,35.34466828426515],[136.46824411226112,35.34415279958015],[136.46976036110598,35.34307085505052],[136.47077778076257,35.34279446366556],[136.4716635248076,35.34302096074208],[136.47219418621424,35.34278006913801],[136.47296396409078,35.34425276597376],[136.47393562288062,35.344418751043165],[136.474383815611,35.34641064711729],[136.47548084417377,35.34821787022348],[136.47598288703693,35.349378038209174],[136.47610768294138,35.35014033304639],[136.47640836631552,35.35008983626218],[136.47657772248508,35.35016521150643],[136.47663484015106,35.350232261661894],[136.47674614200858,35.35038958195652],[136.47689752382618,35.350623034032544],[136.47682726762713,35.35075482372346],[136.47676338120374,35.350788260269006],[136.47644732614032,35.35090915433054],[136.4766223952732,35.351421153006335],[136.4760257962154,35.35144099148418],[136.47569582569136,35.35145565757437],[136.4754760314097,35.35144686871852],[136.47506962352494,35.35150989926463],[136.47489194426487,35.351501348765595],[136.47459379698003,35.351332253870744],[136.47451498195613,35.35112011708103],[136.47451886624853,35.350881411733454],[136.47436954946247,35.35098414784287],[136.47408790376304,35.35113267492368],[136.47389294624625,35.351220149703074],[136.47317381252762,35.35153278901962],[136.47291010284218,35.351513250664695],[136.47256711145025,35.35155783313888],[136.47211620640698,35.351677640107525],[136.47181885017972,35.35173748136308],[136.4715493025829,35.35175691770485],[136.47114737526806,35.35183270513931],[136.47074202496682,35.35188142863537],[136.47050305466263,35.35196857311639],[136.47026370816653,35.35202923653425],[136.47000591491653,35.35192592343406],[136.46982899810374,35.35204356368801],[136.4697870628008,35.352232473659626],[136.46986098515302,35.35251747192466],[136.4698015777155,35.352673887438215],[136.46973445323002,35.35281915994356],[136.46976860566616,35.35294194640635],[136.46976174859373,35.352971652732755],[136.4697296114274,35.35299850932832],[136.46966774533624,35.35302789866892],[136.4694943350807,35.35310622165078],[136.46944886371784,35.35314832508309],[136.46943762942385,35.353175302087024],[136.46940268715855,35.35327245016105],[136.469390460753,35.35328680213576],[136.46925208525812,35.35338515645896],[136.46915785640556,35.353467539879404],[136.46912429268406,35.353532245996384],[136.4691214952695,35.353601636457356],[136.46913652504702,35.35390098236606],[136.46910169772875,35.35398461000004],[136.469037925091,35.35410773172994],[136.46900842493457,35.354230388543655],[136.46855483072815,35.35424750343271],[136.46506949960158,35.354494158544796],[136.46530618053396,35.35705383543983],[136.46492425326508,35.35747667791455],[136.464544694706,35.3580971313538],[136.46261220322194,35.35955704668913],[136.4619303754394,35.359232310030734],[136.461376567984,35.36062023429069],[136.46078417736504,35.36071057763048],[136.46074759290786,35.3618813803233],[136.4605137424114,35.36185966334633],[136.45993868510223,35.362041436963686],[136.45969917938265,35.36206186737621],[136.4591525494992,35.362028884358075],[136.4584285923889,35.36216569967169],[136.45807281646637,35.362244740491434],[136.45612724773758,35.361726520780266],[136.4558841834134,35.36164742016072],[136.45552795663502,35.361532795665845],[136.45512908417786,35.36143383390901],[136.45479387958346,35.36134834357086]]]}},{"type":"Feature","properties":{"KEY_CODE":"21362004000","PREF":"21","CITY":"362","CITY_NAME":"関ケ原町","S_NAME":"大字関ケ原","SETAI":"1643"},"geometry":{"type":"Polygon","coordinates":[[[136.44515664419336,35.361983231681464],[136.44597236947638,35.36082705990525],[136.44686120641634,35.36053136228707],[136.44738653070243,35.359746333048896],[136.44756772298564,35.35972910135364],[136.44972977108765,35.35937771685555],[136.45247437941327,35.358908753635745],[136.45283305595765,35.35894354603357],[136.45316491184641,35.35900289679182],[136.45347711954457,35.359082412454654],[136.45356022256814,35.359104661813234],[136.45390482160386,35.35923014065565],[136.45418029410516,35.35935232352592],[136.45441062322445,35.35946621142929],[136.45481890903795,35.359706073292074],[136.45510632118123,35.35988346337832],[136.45553231099413,35.36012920005896],[136.45479387958346,35.36134834357086],[136.45512908417786,35.36143383390901],[136.45552795663502,35.361532795665845],[136.4558841834134,35.36164742016072],[136.45612724773758,35.361726520780266],[136.45807281646637,35.362244740491434],[136.4584285923889,35.36216569967169],[136.4591525494992,35.362028884358075],[136.45969917938265,35.36206186737621],[136.45993868510223,35.362041436963686],[136.4605137424114,35.36185966334633],[136.46074759290786,35.3618813803233],[136.46074759290786,35.3618813803233],[136.46078417736504,35.36071057763048],[136.461376567984,35.36062023429069],[136.4619303754394,35.359232310030734],[136.46261220322194,35.35955704668913],[136.464544694706,35.3580971313538],[136.46492425326508,35.35747667791455],[136.46530618053396,35.35705383543983],[136.46515516025414,35.35520907086637],[136.46506949960158,35.35449415854478],[136.4650647100323,35.35445652624039],[136.46855483072815,35.35424750343271],[136.46900842493457,35.354230388543655],[136.469037925091,35.35410773172994],[136.46910169772875,35.35398461000004],[136.46913652504702,35.35390098236606],[136.4691214952695,35.353601636457356],[136.46912429268406,35.353532245996384],[136.46915785640556,35.353467539879404],[136.46925208525812,35.35338515645896],[136.469390460753,35.35328680213576],[136.46940268715855,35.35327245016105],[136.46943762942385,35.353175302087024],[136.46944886371784,35.35314832508309],[136.4694943350807,35.35310622165078],[136.46966774533624,35.35302789866892],[136.4697296114274,35.35299850932832],[136.46976174859373,35.352971652732755],[136.46976860566616,35.35294194640635],[136.46973445323002,35.35281915994356],[136.4698015777155,35.352673887438215],[136.46986098515302,35.35251747192466],[136.4697870628008,35.352232473659626],[136.46982899810374,35.35204356368801],[136.47000591491653,35.35192592343406],[136.47026370816653,35.35202923653425],[136.47050305466263,35.35196857311639],[136.47074202496682,35.35188142863537],[136.47114737526806,35.35183270513931],[136.4715493025829,35.35175691770485],[136.47181885017972,35.35173748136308],[136.47211620640698,35.351677640107525],[136.47256711145025,35.35155783313888],[136.47291010284218,35.351513250664695],[136.47317381252762,35.35153278901962],[136.47389294624625,35.351220149703074],[136.47408790376304,35.35113267492368],[136.47436954946247,35.35098414784287],[136.47451886624853,35.350881411733454],[136.47451498195613,35.35112011708103],[136.47459379698003,35.351332253870744],[136.47489194426487,35.351501348765595],[136.47506962352494,35.35150989926463],[136.4754760314097,35.35144686871852],[136.47569582569136,35.35145565757437],[136.4760257962154,35.35144099148418],[136.4766223952732,35.351421153006335],[136.476484168488,35.351836977024476],[136.47649458308518,35.35190604914122],[136.47730501334254,35.353523168281505],[136.47740752201818,35.353598256549375],[136.478698098738,35.35420184967442],[136.47861663914597,35.354761023395056],[136.47917171514698,35.35528733384399],[136.48048328801593,35.356020112652246],[136.48092363712888,35.35803010346761],[136.48135459143177,35.358295638235575],[136.48261067090638,35.35885386193433],[136.48307165875815,35.35953990633659],[136.48376816468442,35.35981080644028],[136.48511424193396,35.359401984461435],[136.48518333065837,35.358678299323664],[136.48625693073052,35.35844805623605],[136.4870575251609,35.35862176153536],[136.4881295693271,35.35841240814755],[136.48811656985228,35.35852768587279],[136.48804370977862,35.35889868152125],[136.4880289201759,35.3592227482889],[136.48794022118435,35.360043014545965],[136.487892955423,35.36057562938478],[136.48788195330906,35.36091950617241],[136.48780653540288,35.36127731835958],[136.48773315164203,35.361386765476865],[136.48751421473625,35.361585537450985],[136.48743842333403,35.36166419660342],[136.48724374892802,35.36184993316776],[136.48706821932157,35.36198739795116],[136.48684942176607,35.362327854865555],[136.48676485110997,35.36281743839297],[136.48652651846612,35.3637693172899],[136.4861739061718,35.365276806662365],[136.4851689999436,35.365132857560766],[136.48475359168845,35.36655442418238],[136.48250185432136,35.36610460613571],[136.4789546949307,35.36609384875483],[136.48006790813082,35.36798088899255],[136.4786550998731,35.368908037226134],[136.4779163646698,35.36868313361148],[136.47730333947396,35.368996811798155],[136.48422695658107,35.37057492008219],[136.48474227684034,35.370641908687126],[136.48455999383089,35.37073123124946],[136.4844558891537,35.37081176762594],[136.48427077116676,35.370972054441566],[136.48407904319563,35.37126391924573],[136.48398836103178,35.37140952922332],[136.48384364439994,35.37177454327659],[136.48379954734563,35.3719113315189],[136.48377831483046,35.371951773485726],[136.48372762531307,35.372013879197176],[136.48357309537232,35.37214532561285],[136.48351448300562,35.37218344307622],[136.48344912007624,35.37223201547706],[136.48338031180697,35.37229655370201],[136.48314672986172,35.372560082407],[136.48307142438566,35.37265085033719],[136.4829314142008,35.37280864460235],[136.48284608188885,35.37289034187193],[136.4827561748514,35.372969054990456],[136.48267301801005,35.373042525293855],[136.48254756509368,35.37317159966595],[136.48244094392942,35.373289934747696],[136.48238060006318,35.37334459157436],[136.48221928066897,35.37343958988181],[136.4820626220149,35.37352214947998],[136.48190395449922,35.373674484184406],[136.48177748821487,35.37379094617462],[136.48171202882452,35.37385050247081],[136.4815956365218,35.37395490967261],[136.48134085589126,35.374151767281795],[136.48128680670305,35.374168572180764],[136.48126035377598,35.3741702530377],[136.48111643399932,35.37414415632242],[136.48086485245986,35.37408956101298],[136.48073842205986,35.374074407792065],[136.48066343288187,35.37408665707549],[136.48064915903964,35.374091928492646],[136.4805494774083,35.37416706329052],[136.48051458,35.37420151169086],[136.48044515334638,35.37426745291282],[136.48039631527644,35.37431858202351],[136.4803450135492,35.37439666847472],[136.480323656478,35.374451544516226],[136.48027745990782,35.374576559557866],[136.48021973706324,35.3747682660062],[136.48021328088288,35.37488090109048],[136.48022649976775,35.375005337660504],[136.48024856561253,35.375130740503764],[136.4802624374125,35.375183140720296],[136.4803251290908,35.37542024899932],[136.4803534371175,35.37548378714146],[136.48038267585244,35.37553895170355],[136.48043580490526,35.37563115087577],[136.48052715637075,35.375763285032775],[136.480448509306,35.375821427619535],[136.4803403814537,35.37590883815409],[136.4803232393195,35.375927964827646],[136.48020652860004,35.376064338670446],[136.48001332563055,35.37613626651452],[136.47997093152114,35.376152151114646],[136.47989920746997,35.37618462997143],[136.47983698309528,35.37622230234356],[136.47972572616573,35.37630856830519],[136.47959405145002,35.37639436481796],[136.47956089957344,35.37641037280223],[136.47946046352678,35.376442265533754],[136.47933608128835,35.37644881053423],[136.4792373203547,35.376414869547034],[136.47907854448255,35.37632023766977],[136.47901604216992,35.3762892487206],[136.4789555387359,35.376286158456224],[136.47892124989832,35.37630941247576],[136.47883254552443,35.37638735503841],[136.478766179931,35.37642662399964],[136.4786701628115,35.37646959602647],[136.47861387785892,35.3764911759806],[136.4784549796322,35.37652759324144],[136.47818454842633,35.37662161230991],[136.47794480234737,35.3767522116091],[136.4777818608917,35.37686444693656],[136.47757687178407,35.37701763767947],[136.47749279650108,35.3770818742636],[136.47719599973664,35.37729826970032],[136.47707631672026,35.37739406142495],[136.47699940334724,35.377510800630574],[136.47675138868522,35.37807182666348],[136.47668993240256,35.37818055509193],[136.47648935701682,35.37847143932665],[136.4764393505818,35.37852798151999],[136.47632003984842,35.37865560386377],[136.47615019305258,35.37887666542195],[136.4760799858179,35.37900337109082],[136.4760315988449,35.37911203327759],[136.4760225601568,35.379138529720315],[136.47599513956766,35.37925371996786],[136.47598936068346,35.379286150836215],[136.475992387416,35.379319476005854],[136.47610458419632,35.379457154016904],[136.47626865875517,35.37957618631364],[136.47639921084115,35.37969904014157],[136.476426694524,35.37975827866861],[136.4764616876468,35.37991530347858],[136.4764914773063,35.38016335039319],[136.4764588584494,35.38050568430099],[136.47641280757227,35.380703651838466],[136.47641118199857,35.380712726656284],[136.47639466603954,35.38080452908464],[136.47639078148495,35.3808721095693],[136.47639604642848,35.38090009675859],[136.4764220552396,35.380950735699614],[136.47646409620978,35.38099189036006],[136.47647063410687,35.38099650445909],[136.47652196298122,35.38102728957641],[136.47660499493668,35.38105093229294],[136.47666327153286,35.38105844822342],[136.47677098131206,35.381077091273085],[136.4768025878319,35.38111156676368],[136.476813509151,35.38125310141524],[136.47687797161564,35.38143825060731],[136.47691916811675,35.38150791967241],[136.4772108259838,35.38195351075825],[136.47724527687248,35.38200257871473],[136.47724570132135,35.382003144495606],[136.47743352949834,35.382241883818025],[136.4778449684521,35.38265252558209],[136.47789183404956,35.38270779022544],[136.47791006899615,35.382762892540576],[136.47791087266077,35.382774657195625],[136.4779120600687,35.38279170495841],[136.47790972871744,35.382823239617636],[136.47790127907993,35.38289171017588],[136.47789514592966,35.38293047579774],[136.47787368104034,35.383033095963874],[136.47785010045843,35.383086127571694],[136.47775582455898,35.38317121952142],[136.47740999636395,35.383326984246835],[136.47732370347293,35.383383249394164],[136.477316821301,35.38341391298301],[136.47740002602893,35.38359466231282],[136.47740632549986,35.38363251413377],[136.47739791827803,35.38371633520117],[136.4773356788545,35.38391695689746],[136.47729728301695,35.384028493815435],[136.47722047624467,35.38421804671305],[136.47720850793087,35.38424523010867],[136.47708627429012,35.384508604538084],[136.47704384992576,35.384583218472955],[136.47692491817187,35.38471591297352],[136.47683077718668,35.384784808227344],[136.47668877048307,35.38492096130911],[136.4766952161885,35.38495170106103],[136.47672316785932,35.38501671781388],[136.47680285811558,35.38523167073791],[136.47680575808496,35.3852647140499],[136.47680745425376,35.38532817223199],[136.47681597241373,35.38539842860069],[136.47683837871176,35.385448272892084],[136.47685587079462,35.38549970927254],[136.4768583989074,35.385551129936154],[136.47685668430816,35.385621398747695],[136.47687442511037,35.38573959309574],[136.47692870494933,35.385828209542254],[136.47699270374923,35.38593673984261],[136.47696945164918,35.38595104340673],[136.47691876419088,35.385960682109065],[136.47685275017557,35.38595762859089],[136.47670919567656,35.38601265054851],[136.47613762596,35.386310421507744],[136.475849222083,35.38630968569658],[136.47577088814708,35.38633451692839],[136.47547673147824,35.386458952306185],[136.4751879564682,35.386542082303606],[136.47507686967003,35.386530600541576],[136.4749952406228,35.38655358168985],[136.47479918027756,35.38670026926795],[136.47474500210035,35.38672608370708],[136.4745821749902,35.38672155840669],[136.47441610902362,35.38670349253511],[136.4743248412482,35.386692123855845],[136.47423787810456,35.38669528636529],[136.47420033217156,35.386706760495386],[136.4741660686926,35.38672642219493],[136.4741350120953,35.38675328515125],[136.47408273056195,35.38681875724291],[136.47396018568665,35.386991145906364],[136.47394340456592,35.387027949628504],[136.47393119376386,35.38707837123027],[136.47392944015803,35.38711265518667],[136.47393003800397,35.387168502297435],[136.4739218731038,35.38722345292497],[136.47390215000073,35.38725735306432],[136.47383751676355,35.38730409220354],[136.4737756837284,35.38732986331419],[136.4737512816658,35.38733775098157],[136.47371605514613,35.3873493791238],[136.47365652226514,35.38736255764656],[136.47358825331338,35.38736667215734],[136.47347821134125,35.387373644430454],[136.4734052471396,35.387398928288526],[136.47338458395993,35.38741204846236],[136.47329333254726,35.387489338512964],[136.47320857178758,35.38756680555878],[136.47319348258648,35.387581647835766],[136.47313337549218,35.38765700426587],[136.4730655520512,35.38775492001969],[136.47276024561336,35.38827765207856],[136.47271730017945,35.38838747202913],[136.47270922256547,35.38840686092641],[136.4726950275829,35.38843283465115],[136.4724184420255,35.38875883657128],[136.47221948770454,35.388981275090124],[136.4721425410276,35.38912512201989],[136.47206603925034,35.3892922809752],[136.47190430455166,35.389656758087725],[136.47188087297891,35.38970669160588],[136.47184589696528,35.38975916408313],[136.47176740852086,35.38984666656496],[136.4716074188518,35.390017005096546],[136.47150869470266,35.39010748796243],[136.47131025341682,35.39027401318306],[136.4711152398562,35.39042161423939],[136.4708926865429,35.390571731759835],[136.4707519168772,35.390686336177346],[136.4704377715303,35.39099239623125],[136.47028248700008,35.39112980296022],[136.46940129151707,35.391678907387934],[136.46925115667347,35.391761978172276],[136.4691647818459,35.391820983016494],[136.46897328514603,35.39194874147947],[136.46888170702272,35.39197257598269],[136.46873605789048,35.39201405344094],[136.46869109179573,35.39203780640922],[136.46859436597376,35.39210519997852],[136.4685574953604,35.39213266108555],[136.46849468112458,35.39217673158974],[136.4684904934671,35.3921786796036],[136.46837668870415,35.392202173512935],[136.46801622994002,35.39225691035221],[136.46801092259895,35.392259132977365],[136.46794442731323,35.39228621068287],[136.46792131427233,35.3922887524829],[136.46783241034402,35.392256688561666],[136.4676094997074,35.392192298689636],[136.46746326223658,35.3921770839689],[136.467367364586,35.39218821664234],[136.4672996015968,35.39221768086567],[136.46729553750555,35.39222033319488],[136.4671522410978,35.39237266339627],[136.4671101568206,35.39240121983537],[136.46705487183053,35.39242977051409],[136.46673544288112,35.39258297715267],[136.466418844202,35.39266225900003],[136.4660868075501,35.392741450079775],[136.46599418560868,35.392761614255804],[136.46583675656717,35.39276252873043],[136.4656300059908,35.39273879075373],[136.46551891769667,35.39272638433215],[136.46532314759236,35.39271080746013],[136.46522075496793,35.3927120417748],[136.4651423834644,35.392735035200175],[136.4651090188736,35.39277448616057],[136.4650989036238,35.39280055324203],[136.46508364992903,35.392839053451986],[136.46506873179763,35.392977974327536],[136.46505743647353,35.39301121616673],[136.46497090103307,35.39308824368886],[136.46474369142044,35.39326719167335],[136.46464406354326,35.393331536961874],[136.46460642988416,35.39335237218467],[136.4644906374892,35.39341141201521],[136.4644757376289,35.393448647156546],[136.46447094655676,35.39349544838876],[136.4644667162256,35.39353211200531],[136.4644649979276,35.39354681955041],[136.46444132701438,35.393608860859395],[136.4643278348519,35.39374974073366],[136.46429289971692,35.393841434152286],[136.4642991374384,35.39393547933785],[136.4642240533935,35.39416460688353],[136.46417406668678,35.394216636894804],[136.46414287461238,35.394263282833435],[136.46412175561272,35.39430865071456],[136.4641017544883,35.394363882667065],[136.46409092630822,35.39441262031489],[136.46409067992056,35.394441067577546],[136.46409373675854,35.394485309071776],[136.46410706506947,35.3945848883136],[136.4641120065392,35.394649843432084],[136.46410495479103,35.39469937718536],[136.4640791604239,35.39475330829199],[136.46402171779707,35.39481226609675],[136.4639214566111,35.394894845995005],[136.4638451500193,35.39495742761101],[136.4637769027452,35.39498287362693],[136.46353336348974,35.39503088699554],[136.4632716180745,35.395045834980905],[136.46307101801733,35.395065999688576],[136.46287073398068,35.39515405247538],[136.46281867759626,35.395161987266206],[136.46246283431955,35.39519835510914],[136.46180458084197,35.3953423160975],[136.46160018232615,35.39541865224309],[136.4615662935765,35.395414087479985],[136.46155060159984,35.39536420728607],[136.4615491254439,35.395266453699975],[136.4614840304607,35.39513635460534],[136.4612142576007,35.39482231357908],[136.46079441292684,35.394603595701376],[136.4606113255321,35.39444464315613],[136.46035935880457,35.39439851846393],[136.46026241583678,35.39426274594542],[136.46018576834203,35.394205961199496],[136.4599799839318,35.39395758475235],[136.45981747662074,35.393554329504234],[136.45970891691692,35.39350834243984],[136.4592763483812,35.39378938142985],[136.4591143283535,35.39390786171148],[136.45886624605117,35.39398950202017],[136.45854426126422,35.39399585260162],[136.45826634598285,35.39365304564511],[136.45744576088657,35.39372237858493],[136.45738345318375,35.3937522221269],[136.45726365733708,35.39374257520442],[136.4571235713494,35.39365386976385],[136.45587669886822,35.393669210860374],[136.4556913278248,35.39358157553971],[136.45491028620162,35.39355929825998],[136.45462124455545,35.39370230443989],[136.45431777955147,35.39379318603688],[136.45395697623124,35.39392083806463],[136.45308719016685,35.39405435561501],[136.45285117667902,35.39400493502341],[136.45268791540462,35.393979886548316],[136.45245947705777,35.39402247693581],[136.45228174151134,35.39402008757646],[136.45192490317373,35.39379003003403],[136.45139411015325,35.39361182602802],[136.45117987362983,35.39356520636603],[136.45095879100148,35.393344259416516],[136.45064792319394,35.39303616474546],[136.45035888593316,35.392822347686526],[136.4502307764169,35.39270757971196],[136.44992983287528,35.39260558713907],[136.44964717355128,35.392448916353416],[136.44961976883988,35.39237755938668],[136.44940289916485,35.39197748794143],[136.44928698584485,35.391728431649526],[136.44898797955432,35.39131540676763],[136.44890211733946,35.391067091404025],[136.44881911824285,35.390689644323466],[136.44877071519826,35.38999798102307],[136.44863713081466,35.38955502454278],[136.44833685089432,35.38900537630691],[136.4481769029788,35.388685002583614],[136.4480236149113,35.386135490589965],[136.44827452887273,35.385673429916196],[136.4481155130943,35.383846640443366],[136.4477489053843,35.382479989035666],[136.44868520299218,35.37845396434689],[136.4487462271805,35.377216305232636],[136.44867340205025,35.376574290739015],[136.44849623575,35.374430828408805],[136.44948409809703,35.3740695248057],[136.44958228906006,35.37353844716772],[136.44887697299936,35.372584743270934],[136.4490767916909,35.37124093445554],[136.44915829239392,35.37005902042548],[136.44985372476378,35.36906762008027],[136.44983581668393,35.36805839784123],[136.45016473888217,35.36673025575655],[136.45092246116133,35.36559774134365],[136.45055568235452,35.36541628191502],[136.45013832024102,35.36508776794994],[136.44998433594984,35.36491890469492],[136.44893786745695,35.364161533046655],[136.44515664419336,35.361983231681464]],[[136.47740752201818,35.353598256549375],[136.47373543604277,35.353957433647004],[136.47630659937073,35.353724729849304],[136.47740752201818,35.353598256549375]],[[136.45358169750122,35.37099067741903],[136.4538673764822,35.3709190546404],[136.4536136132935,35.37093467090353],[136.45358169750122,35.37099067741903]],[[136.45600844679953,35.37253613385989],[136.45655585295572,35.37271405574424],[136.45675970296,35.372492869298696],[136.45600844679953,35.37253613385989]],[[136.45774825231007,35.367397569731416],[136.4578445753905,35.36731982714854],[136.45790878533072,35.36712450718974],[136.45774825231007,35.367397569731416]],[[136.46797645147583,35.357571743016805],[136.46798420486508,35.35853760450647],[136.46888600838983,35.358469997022404],[136.46798420486508,35.358537604506466],[136.46797645147583,35.357571743016805]],[[136.46939381011418,35.37165682252119],[136.46946762799277,35.372305951606805],[136.47468210993443,35.3708286668875],[136.46946762799277,35.37230595160678],[136.46939381011418,35.37165682252119]],[[136.46968557966568,35.362205411329256],[136.47000737126262,35.36149750202019],[136.46993161261514,35.361485164407],[136.46968557966568,35.362205411329256]],[[136.46995321668518,35.363757814117115],[136.47037706179415,35.363809761390854],[136.47040294330128,35.36366400011748],[136.46995321668518,35.363757814117115]],[[136.47005974336537,35.361325132244275],[136.47038494311184,35.36125559912894],[136.47085449419674,35.35998693129322],[136.47038494311184,35.36125559912891],[136.47005974336537,35.361325132244275]],[[136.47053221710837,35.361959522785796],[136.47066400919965,35.36245427836643],[136.47095431363334,35.36151295387079],[136.47053221710837,35.361959522785796]],[[136.47088761656886,35.36387544580471],[136.47092227011868,35.36387951835317],[136.47113541889883,35.36357484012911],[136.47088761656886,35.36387544580471]],[[136.47128243144212,35.36391940621594],[136.4722682649455,35.36402943470345],[136.47230170553493,35.363934066667696],[136.47128243144212,35.36391940621594]],[[136.47144511115977,35.36128958643442],[136.47159243759157,35.36131655950233],[136.4716113390194,35.36123265650688],[136.47144511115977,35.36128958643442]],[[136.47409660637825,35.35890197682289],[136.47419859108487,35.35893812241412],[136.47567842098175,35.35791365026738],[136.47409660637825,35.35890197682289]],[[136.47612428551955,35.36610517985617],[136.47630944907954,35.36610180077209],[136.47612939319035,35.36597993154418],[136.47612428551955,35.36610517985617]]]}},{"type":"Feature","properties":{"KEY_CODE":"21362005000","PREF":"21","CITY":"362","CITY_NAME":"関ケ原町","S_NAME":"大字野上","SETAI":"98"},"geometry":{"type":"Polygon","coordinates":[[[136.48475359168845,35.36655442418238],[136.4851689999436,35.365132857560766],[136.4861739061718,35.365276806662365],[136.48652651846612,35.3637693172899],[136.48676485110997,35.36281743839297],[136.48684942176607,35.362327854865555],[136.48706821932157,35.36198739795116],[136.48724374892802,35.36184993316776],[136.48743842333403,35.36166419660342],[136.48751421473625,35.361585537450985],[136.48773315164203,35.361386765476865],[136.48780653540288,35.36127731835958],[136.48788195330906,35.36091950617241],[136.487892955423,35.36057562938478],[136.48794022118435,35.360043014545965],[136.4880289201759,35.3592227482889],[136.48804370977862,35.35889868152125],[136.48811656985228,35.35852768587279],[136.4882342927229,35.358409542596405],[136.48837717297081,35.358407805014046],[136.4884527642262,35.35839872030582],[136.48869551719883,35.3584036678495],[136.48930172011913,35.35837655816788],[136.48958951376656,35.358361120538135],[136.49015517898317,35.35833476644032],[136.4906523147452,35.35826943723757],[136.4910345027708,35.35821149457422],[136.4914249631316,35.35821817322852],[136.49271775360498,35.35861689833437],[136.49303137508414,35.359046942832414],[136.49325664757023,35.35918530245202],[136.49371393278042,35.35904354360025],[136.4941498718106,35.35896715683122],[136.49447599537953,35.35907734122376],[136.49461259535866,35.35922682762253],[136.49506231790141,35.359468608132175],[136.4958522570964,35.35983768824403],[136.49635335212312,35.36008418385658],[136.496959107202,35.360242524014296],[136.4975626672925,35.360489513878875],[136.4979392325213,35.36062877168545],[136.49863710918274,35.35996142882142],[136.49919390985318,35.359691188236106],[136.499966984933,35.359185586594144],[136.5001078966373,35.358806435033],[136.50012485403516,35.35847413744621],[136.5005790366471,35.35830994430654],[136.50082965127243,35.358027237968564],[136.50070489647723,35.35763317696205],[136.50102892118508,35.35712989036101],[136.50149853727243,35.35668648368704],[136.50167530187414,35.35653527147582],[136.5017116564171,35.35651504836706],[136.5018643916673,35.35667363029277],[136.50194198304348,35.35673989930007],[136.50218451875742,35.35681784678351],[136.50224589736652,35.35684339394295],[136.50268750344293,35.35706397844372],[136.50279669834978,35.35716549111713],[136.50292885333198,35.357286987194534],[136.5030064325636,35.3573496645576],[136.5031592755935,35.357495569693455],[136.50335837114642,35.35763553041726],[136.5036963302266,35.35788610800649],[136.50376192327752,35.3579378744601],[136.50405456746896,35.35821172448599],[136.50408728710676,35.35824704430551],[136.50410001673376,35.35830387393554],[136.50405893239503,35.3584821686703],[136.50404530369227,35.35853526336],[136.5040135533384,35.35864952506238],[136.5039726377487,35.358812469773575],[136.5039820779397,35.35900364652909],[136.50403524998055,35.3590922461314],[136.5040993372513,35.3591917503186],[136.504174343281,35.35930666610108],[136.50425925081944,35.35941980494858],[136.50434636477038,35.3595311248243],[136.50449710162985,35.359798776110146],[136.5045105742914,35.35990159586395],[136.5045123095178,35.35995752037964],[136.50449561362083,35.360117850468654],[136.50445594859764,35.36025918205243],[136.5044374505872,35.36036633314694],[136.50444059083276,35.360387054349395],[136.50447308313747,35.36045032983643],[136.50454383375686,35.36054451816757],[136.5046155205102,35.36065575369066],[136.50477230533676,35.36086210077975],[136.50481991206715,35.36095883869872],[136.50483379003558,35.361012083574835],[136.50484940349799,35.361121251865484],[136.5047648220693,35.36151022370951],[136.50475157332806,35.36178507918024],[136.50472668962385,35.36200036505504],[136.50467201884518,35.36222633220532],[136.50477641154703,35.36251168894781],[136.5047985767237,35.36262899226765],[136.50477123722652,35.362745180307634],[136.50470881227312,35.36310990756613],[136.50470197813178,35.36327296776872],[136.50474137732326,35.36343275925178],[136.504752620812,35.363540073983884],[136.50473699008856,35.36370132505694],[136.50470751343363,35.36407890807557],[136.5046748577794,35.36416703905674],[136.50454168630407,35.364305114352256],[136.50430941639425,35.36458778749101],[136.50427290261962,35.36474807931863],[136.5043212307167,35.36489341273526],[136.50434700911185,35.36496841273173],[136.50435923946657,35.36508657675408],[136.50435717590636,35.365338958077686],[136.50438290091017,35.36555719619772],[136.50439824194927,35.365568124985764],[136.50444207832226,35.36558998342922],[136.50445633102942,35.3657288636575],[136.50447284071686,35.36586507907047],[136.50448685206817,35.36590212771076],[136.5045291706979,35.36610968128901],[136.50445107871516,35.366239958089785],[136.50431767470306,35.36640598876355],[136.50425741158713,35.36650572868861],[136.5042681570012,35.366537336461434],[136.5043236650925,35.366614258868125],[136.50465682404356,35.36691530214303],[136.504786481003,35.36707107931781],[136.50483219462234,35.36713167998893],[136.50487550897975,35.36721754960398],[136.50488075297804,35.36724912729438],[136.50488022250636,35.36731405350472],[136.50481449311565,35.36741467989253],[136.50464630521108,35.367529112919904],[136.50458183245755,35.36758136665771],[136.5044922403627,35.36766165087564],[136.50443221118914,35.36773794215503],[136.50437861152815,35.36783229655891],[136.5043528231593,35.36788990173371],[136.5042995811686,35.36807707425802],[136.5042855089419,35.36814220815512],[136.50426104974596,35.368347284244976],[136.50424831483917,35.368427425877236],[136.50417948904158,35.36850190784712],[136.50408278645057,35.368615815690916],[136.50454350708117,35.36906727243882],[136.50467706171577,35.36936715441627],[136.50543243343245,35.369900498300495],[136.50567945170405,35.37050937076326],[136.50669588786087,35.371271236157824],[136.50668908808944,35.371314437385664],[136.5066668662667,35.371419737923524],[136.5067258674881,35.37146963590422],[136.50678525701989,35.37147721210114],[136.50723960420544,35.37149045976853],[136.50757957528688,35.37150223771354],[136.5076816115964,35.37167314274835],[136.50784368701866,35.37190930163747],[136.50788659718373,35.37204566026915],[136.50790360026303,35.372100892754936],[136.50794933217017,35.37217578759731],[136.50797547431844,35.37221198550559],[136.5081084202871,35.37237228318676],[136.50821391509334,35.372525178739146],[136.50821967386605,35.37255711044005],[136.50820124357804,35.37259813649682],[136.50818241441823,35.37260880924348],[136.50799161823664,35.37279614953512],[136.50800856808118,35.37287919823109],[136.5080201932632,35.37293517611534],[136.50811255783972,35.3730799013828],[136.50818035036275,35.37313794555122],[136.5082602670823,35.37318520953785],[136.50846277079148,35.37331884292972],[136.50851072435137,35.373379525070305],[136.5085193396882,35.37343555754922],[136.5085190687196,35.373437246195],[136.5084801707219,35.373616398087485],[136.50851566682826,35.37371842044517],[136.5085348536955,35.373796059333536],[136.5084990042981,35.37387522916801],[136.5084775867157,35.373934548627716],[136.5084789595145,35.37403554058742],[136.5085321526498,35.374128645108804],[136.50860205160936,35.374192122443105],[136.50866017116576,35.37421863488143],[136.5088216064168,35.37425915930542],[136.5088852803518,35.37427929288352],[136.5089082024192,35.37430469920578],[136.50892630806044,35.37437782410189],[136.50898919980506,35.374494432034396],[136.5089988008179,35.374529623958296],[136.50899895328934,35.37464863723452],[136.50899108428288,35.37466479148329],[136.50895461911196,35.37468734026572],[136.5077232085625,35.375624226851116],[136.5053082305631,35.375412761122874],[136.50384310261748,35.3755636248875],[136.5021579664563,35.37467976182252],[136.50074182111757,35.374787407696395],[136.49925071964051,35.37451146203492],[136.4975539061498,35.37367092332435],[136.4955884009757,35.373163505938244],[136.49527891230625,35.37186829834561],[136.4937743774094,35.37029779973709],[136.49298359330768,35.3699833410313],[136.49122973152245,35.36850254405423],[136.49001061566278,35.3682208177432],[136.48928375592263,35.36763261513006],[136.4886325484577,35.36760552279104],[136.4884780531595,35.367359946367756],[136.48475359168845,35.36655442418238]]]}},{"type":"Feature","geometry":{"type":"Polygon","coordinates":[[[136.4886325484577,35.36760552279104],[136.48929800475335,35.36803113658028],[136.48795478891216,35.369695691659366],[136.4875086045984,35.369884241157266],[136.4867074768064,35.36949489769747],[136.48618973896203,35.37044935413741],[136.48474227684034,35.370641908687126],[136.48422695658107,35.37057492008219],[136.47730333947396,35.368996811798155],[136.4779163646698,35.36868313361148],[136.4786550998731,35.368908037226134],[136.48006790813082,35.36798088899255],[136.4789546949307,35.36609384875483],[136.48250185432136,35.36610460613571],[136.48475359168845,35.36655442418238],[136.4884780531595,35.367359946367756],[136.4886325484577,35.36760552279104]]]},"properties":{"KEY_CODE":"213620060","PREF":"21","CITY":"362","CITY_NAME":"関ケ原町","S_NAME":"大字大高","SETAI":"70"}},{"type":"Feature","properties":{"KEY_CODE":"21362007000","PREF":"21","CITY":"362","CITY_NAME":"関ケ原町","S_NAME":"大字玉","SETAI":"110"},"geometry":{"type":"Polygon","coordinates":[[[136.4139040083923,35.37120810894642],[136.42089738693778,35.36545436655792],[136.42223872470774,35.36442709769137],[136.42566619773177,35.363770389320365],[136.42687903488203,35.363751794505184],[136.428861151135,35.363634764890435],[136.4309040193416,35.363804684361796],[136.43163092407033,35.363894926351065],[136.4360272191066,35.36266775619363],[136.43712777316108,35.36286818199179],[136.4396977617873,35.36331966344575],[136.44120829498524,35.36359933565482],[136.44143980858502,35.36364726895068],[136.44175524801113,35.363182690546196],[136.44204839271183,35.36294247793728],[136.44224475575717,35.36283499277717],[136.44239560446417,35.36268357540284],[136.44258105465008,35.36249349144854],[136.4427091061822,35.36236285191317],[136.44307505683392,35.36228679983077],[136.44337850311175,35.362279033533575],[136.44360678982605,35.36226905770821],[136.44392529557393,35.362206452666044],[136.44417049738624,35.362102213059224],[136.4445698381786,35.36188178369703],[136.4449249674096,35.36204579397709],[136.44515664419336,35.361983231681464],[136.44893786745695,35.364161533046655],[136.44998433594984,35.36491890469492],[136.45013832024102,35.36508776794994],[136.45055568235452,35.36541628191502],[136.45092246116133,35.36559774134363],[136.45016473888217,35.36673025575655],[136.44983581668393,35.36805839784123],[136.44985372476378,35.36906762008027],[136.44915829239392,35.37005902042548],[136.4490767916909,35.37124093445554],[136.44887697299936,35.372584743270934],[136.44958228906006,35.37353844716772],[136.44948409809703,35.3740695248057],[136.44849623575,35.374430828408805],[136.44867340205025,35.376574290739015],[136.4487462271805,35.377216305232636],[136.44868520299218,35.37845396434689],[136.4477489053843,35.382479989035666],[136.4481155130943,35.383846640443366],[136.44827452887273,35.385673429916196],[136.4480236149113,35.386135490589965],[136.4481769029788,35.388685002583614],[136.4479601995888,35.388714696302685],[136.44745793609906,35.389149781734325],[136.44735083789493,35.38925603911914],[136.44698912114438,35.38962823201662],[136.44668724938194,35.38972889280776],[136.44662080786253,35.38974955145936],[136.44614469451102,35.38967305396566],[136.4455674104089,35.38956714998009],[136.44490713050837,35.389516097514516],[136.44482368447314,35.38947130534001],[136.44464612059417,35.38943602108561],[136.44456905631256,35.389432673377875],[136.4433111912442,35.387454796472895],[136.44252958756488,35.385534574828846],[136.44133393588606,35.38394749398054],[136.43979258969185,35.383128616670696],[136.4380034072453,35.38054832211725],[136.43673714437537,35.3794886232569],[136.4361123431208,35.379378042692],[136.43336767977897,35.37776806936839],[136.43208776346606,35.37666944180105],[136.4295917251972,35.37523408936942],[136.42871136153724,35.374543718746],[136.42636629765857,35.3734729730132],[136.42472285686856,35.37377809643737],[136.42242130221064,35.373484685716015],[136.42169795759085,35.372914823392364],[136.4205382284531,35.37278257310826],[136.41927767211612,35.37339480376466],[136.4173170361546,35.37347957868109],[136.4166222280728,35.37389135870712],[136.41546330480642,35.3736159711446],[136.41485209290974,35.37317041423696],[136.4139040083923,35.37120810894642]],[[136.44489010183383,35.377280301901024],[136.44489705499822,35.377455825273735],[136.44538030293228,35.378712274626245],[136.44489010183383,35.377280301901024]]]}},{"type":"Feature","properties":{"KEY_CODE":"21362008000","PREF":"21","CITY":"362","CITY_NAME":"関ケ原町","S_NAME":"大字今須","SETAI":"360"},"geometry":{"type":"Polygon","coordinates":[[[136.4029514663395,35.30254790626902],[136.403034321368,35.30022362004233],[136.40466195152314,35.299302027602614],[136.40725986097186,35.298457744508525],[136.40855472729788,35.29833794459604],[136.410010624609,35.296875639947366],[136.4098690208862,35.29616209340777],[136.41149081037676,35.2955043203794],[136.4121479850074,35.29466236314675],[136.41203342885035,35.29399306581458],[136.413568718653,35.29325408492998],[136.4151810650103,35.291804293712666],[136.41665595060212,35.29107932810441],[136.41697028389245,35.290587677557504],[136.41719812071457,35.2890806355334],[136.4179893859697,35.288969950036666],[136.41907144084837,35.287899356759276],[136.4196248716538,35.287648955351436],[136.42160096080315,35.28787981596766],[136.42185273534614,35.288962702325406],[136.42325261530232,35.29056032317705],[136.4249588081698,35.29165382067833],[136.42538979228462,35.29240005264933],[136.4252838022974,35.29349278442372],[136.42715651764348,35.29635738281515],[136.42714837018872,35.29705542214022],[136.42826247576073,35.29783910822527],[136.4286392723036,35.29987975408134],[136.4280075605535,35.300892087674654],[136.42662947484294,35.303919622471035],[136.42590454231976,35.30457793030395],[136.42567205903532,35.306920137540615],[136.42702933249927,35.307552576579226],[136.42880418688776,35.3071859378681],[136.43043408529024,35.3087010434145],[136.4313661395369,35.30857585939276],[136.43162429668484,35.30747279255541],[136.43200763871775,35.30724258505945],[136.43443335578206,35.30687044060368],[136.43537867717524,35.30646116037373],[136.43675419378894,35.30660995401427],[136.43889089132966,35.30654451224436],[136.44039074413925,35.30717322702643],[136.44126569762432,35.30791944270396],[136.44226318380092,35.30796935733804],[136.44490917998516,35.30902069330447],[136.4456103252644,35.309940547562505],[136.4461162773285,35.30987088410025],[136.44684021169476,35.310435804125056],[136.44798486400583,35.31011461240816],[136.44871577892903,35.310678531818674],[136.4502328732996,35.311069103601405],[136.45065267691007,35.31172567267591],[136.45172434452735,35.3118555614601],[136.45202732113168,35.31269313719284],[136.45287716313823,35.31284352912919],[136.45341738202964,35.31342447597467],[136.45341955202224,35.31418758866733],[136.4546687086462,35.31430399130881],[136.45542565137967,35.31392325222926],[136.45675186489774,35.31462755219501],[136.45763930674488,35.31460256643279],[136.45748477004267,35.31563608990362],[136.45865442991993,35.317168031093225],[136.45785464994827,35.3194544472291],[136.45694976347627,35.320760814291305],[136.457606070439,35.322338408702954],[136.45770687077678,35.32415935380927],[136.45622693138202,35.324583676121044],[136.45637429716223,35.32525891055672],[136.4554037676743,35.325780870245396],[136.45508692346687,35.326801398666966],[136.4557017988345,35.3292177104707],[136.45640173359422,35.33022592768995],[136.4570891691122,35.33076758310776],[136.4584265848056,35.33120093673975],[136.45898902388882,35.33252587129897],[136.46090127655685,35.33565900297086],[136.46177833813263,35.33628624492342],[136.46244825656478,35.338200712037946],[136.46258636308403,35.3397711572181],[136.46320681114486,35.34090110170866],[136.46394011772693,35.34145381387939],[136.46369771409698,35.3422400757052],[136.46413884614384,35.34285481712871],[136.4637538123644,35.34314849419477],[136.46377786955102,35.34393067079116],[136.46421364922247,35.344603829788056],[136.46591192032557,35.344801984259746],[136.46519026162517,35.34540427155057],[136.46439844618777,35.34518890889555],[136.46347060469847,35.34527816699059],[136.46327905889018,35.34581957856146],[136.46298112864517,35.34597220962321],[136.46226075074821,35.3460768184585],[136.46165649680717,35.345834290696814],[136.4614606331916,35.34573913721067],[136.46128395170126,35.345513886575404],[136.4605775584902,35.345335192425495],[136.45778854164377,35.347124668528515],[136.45582015683487,35.348138781001914],[136.4542849486109,35.347326012263046],[136.45113656950468,35.34571980353841],[136.4467184636663,35.34760859323467],[136.44505436156135,35.34898134947705],[136.44393335956394,35.35032479497938],[136.44156109909102,35.34884448107558],[136.43941570543694,35.35182407186649],[136.4396134149284,35.35360130850167],[136.43848789827558,35.35456833389744],[136.43839874597776,35.35471356969862],[136.43823579803595,35.35500744498108],[136.43816413356558,35.35509095632279],[136.43722632999425,35.3564013489844],[136.43619519925852,35.35538148611383],[136.43508577778212,35.35590957208296],[136.43438050684645,35.355314545850995],[136.43425042862586,35.35517390475963],[136.43414396854686,35.35503551748482],[136.43343351230456,35.35548425411041],[136.43308452254936,35.35570270795383],[136.42928910605104,35.3559164873302],[136.43009799710586,35.358561083879486],[136.43036547939755,35.35945656754373],[136.43265993731302,35.360826701410474],[136.4348739936952,35.36206461581341],[136.4360272191066,35.36266775619363],[136.43163092407033,35.363894926351065],[136.4309040193416,35.363804684361796],[136.428861151135,35.363634764890435],[136.42687903488203,35.363751794505184],[136.42566619773177,35.363770389320365],[136.42223872470774,35.36442709769137],[136.42089738693778,35.36545436655792],[136.4139040083923,35.37120810894642],[136.41240634946075,35.37018844581229],[136.4118186413124,35.370067380095236],[136.41200769660068,35.368976929422935],[136.41291170812724,35.36807818977379],[136.41200598203983,35.36636078260253],[136.41206565697203,35.365546055351544],[136.41306756417117,35.3650710659452],[136.41369904834295,35.364426793710315],[136.41325568644604,35.36292966350313],[136.41354048927644,35.362615043274765],[136.41315969779342,35.3615278628167],[136.41336217516837,35.35949617347754],[136.4117673038252,35.35852748184072],[136.4105527077056,35.35845005301505],[136.4094637333271,35.35671115164696],[136.4096477291186,35.35514907652237],[136.4107427308481,35.35415320024766],[136.4104566644992,35.3538400252051],[136.41066458895847,35.352380137827005],[136.41360249095194,35.35217767563966],[136.41375092599884,35.35368211382541],[136.4149647843308,35.354360806663486],[136.4167624009326,35.3548344430405],[136.41685456892714,35.354320096029745],[136.41762935617243,35.353800875100724],[136.41883428812764,35.354248641568304],[136.4197318921678,35.35388839635351],[136.4215572978924,35.353883479910024],[136.42141033306496,35.35300983747718],[136.42093233619502,35.35241936464546],[136.42097966102787,35.35123267259904],[136.4213306073669,35.35011657733918],[136.42198156940316,35.349078799825215],[136.42188776245553,35.34743046419448],[136.42091783057708,35.34664231992388],[136.42025894898103,35.346183266962775],[136.4190354063304,35.34455423947532],[136.41948278576604,35.34364296566643],[136.41890305514298,35.343290657114075],[136.4185195347285,35.34247144896078],[136.4191490481111,35.34154777870825],[136.4189338280877,35.34074524278537],[136.4179816195746,35.340377602937714],[136.41711183172774,35.33882537169189],[136.41640935704575,35.33843397824244],[136.4160822021101,35.33736975054213],[136.41537095582783,35.33682272882512],[136.4156301830178,35.33506642857678],[136.41534479294657,35.333910917461296],[136.41459844486505,35.3332506500238],[136.41434714059045,35.33248197016152],[136.41359917045168,35.332482888993844],[136.4124462867779,35.3315460643739],[136.41212257345995,35.33052615140582],[136.41241464759963,35.329941977391506],[136.41204858710782,35.32920877624537],[136.41127143737623,35.328940199253225],[136.4113100745464,35.32746937270137],[136.41270595076364,35.32614348129007],[136.41314513972316,35.32521198315588],[136.4132636324249,35.324161376900086],[136.41220528502407,35.323058027186754],[136.41190813467747,35.32161293078428],[136.41198736556146,35.31932806204119],[136.4118562110661,35.31729872285187],[136.4120919944353,35.316590190791835],[136.41181494013057,35.31478550550477],[136.41106451427194,35.31365737593689],[136.41056662615117,35.313361733914014],[136.40841756483195,35.311261917005],[136.4066118379028,35.31023995681699],[136.40639068862413,35.30950922741726],[136.4073212319864,35.308185506626074],[136.40682163051034,35.30701832925702],[136.40640155332952,35.30491005385774],[136.40535163629843,35.30403399358311],[136.40400875659694,35.30387825003127],[136.40308715914557,35.3034550062532],[136.4029514663395,35.30254790626902]],[[136.41190813467747,35.32161293078428],[136.4163637575735,35.320983199469985],[136.41854616472884,35.32016922123062],[136.4163637575735,35.320983199469964],[136.41190813467747,35.32161293078428]],[[136.4198403050152,35.32972887276161],[136.421138001576,35.32992848308827],[136.421138001576,35.32992848308827],[136.4198403050152,35.32972887276161]],[[136.4201547894907,35.326571283048764],[136.42072331148375,35.326859009996035],[136.42084656188229,35.326705613486716],[136.4201547894907,35.326571283048764]],[[136.43566918468468,35.340201847507686],[136.4385838956771,35.342077035773926],[136.4403008784553,35.34333534957722],[136.43858389567714,35.342077035773926],[136.43566918468468,35.340201847507686]],[[136.43671854408947,35.34549444023872],[136.43671854408947,35.345494440238724],[136.43827507974746,35.34522797924697],[136.43671854408947,35.34549444023872]],[[136.44372766747233,35.34399294187992],[136.4443253618014,35.34412278350193],[136.44436225787075,35.34402800276839],[136.44372766747233,35.34399294187992]],[[136.44604613736703,35.33576591051061],[136.44686974541222,35.34063415162871],[136.44604613736703,35.33576591051061],[136.44604613736703,35.33576591051061]],[[136.45011064380896,35.33966492095325],[136.45139084833613,35.34001012272951],[136.45327022996065,35.34012491207021],[136.45139084833613,35.34001012272948],[136.45011064380896,35.33966492095325]]]}}]}