{"type":"FeatureCollection","features":[{"type":"Feature","properties":{"KEY_CODE":"21507001001","PREF":"21","CITY":"507","CITY_NAME":"東白川村","S_NAME":"神土","SETAI":"369"},"geometry":{"type":"Polygon","coordinates":[[[137.28490953918578,35.65087665223479],[137.28521917730367,35.65002387920341],[137.28601737693597,35.64958186128664],[137.28686222952695,35.64942481388438],[137.28702787790434,35.64930493287145],[137.2879826846853,35.64807535140798],[137.2888854838863,35.647861649441076],[137.28913573150749,35.64751499867959],[137.29068332646168,35.64720241595207],[137.29249037695791,35.64627939383094],[137.29286004736994,35.64523585031958],[137.29302128836295,35.645040794246945],[137.29389785109274,35.644339197041006],[137.29428271676883,35.643760125435364],[137.294581044268,35.643350430017385],[137.2963468848521,35.64371919480002],[137.29463672112266,35.64324615170254],[137.2936754254431,35.64249916918915],[137.29359790068997,35.64227490168236],[137.29297777597765,35.64052387939269],[137.29301136082975,35.64042149182477],[137.2933302227274,35.639301226268024],[137.293136551324,35.6388212160552],[137.29272580908358,35.63829812834583],[137.29277562139904,35.63779617145264],[137.29295827737266,35.63742596702939],[137.2937387324348,35.63697636607416],[137.29401811113675,35.63678713672697],[137.29501978643125,35.6359751642629],[137.29694040086113,35.63537671512296],[137.2971669774537,35.63533710439097],[137.29768159467898,35.6348380155332],[137.29835103324663,35.63404637641256],[137.29854706424507,35.63316702308359],[137.29992736503604,35.63336118229349],[137.30034468374987,35.633342442831214],[137.30165488321308,35.63306904709258],[137.30184435889657,35.63305372793924],[137.30333931424826,35.6329218571551],[137.3034593207984,35.632819859020046],[137.3038238351588,35.6324647777894],[137.30514709449562,35.63194067034724],[137.30527159411707,35.631770711193816],[137.30553842791133,35.63107617607768],[137.30571287164608,35.63081436590096],[137.30741709049576,35.630273202333946],[137.3085823886966,35.62943689561808],[137.30949907013613,35.62834926616469],[137.31052839732305,35.62759808713197],[137.31155294700824,35.625606341771],[137.3121287179415,35.62514664126559],[137.31462832118578,35.624366767698184],[137.31555675853818,35.62364767734199],[137.3174258710152,35.622995047310056],[137.32003023510455,35.62241206123489],[137.32034689472167,35.622164476932504],[137.3204303953056,35.620616736887754],[137.3207717706987,35.62011906121709],[137.32220465990454,35.61943457417357],[137.3247350207571,35.61798072715673],[137.32570764985098,35.61703829205906],[137.32575949834956,35.61709455746086],[137.3267192052325,35.617323821755164],[137.32797884477037,35.61769878977199],[137.32884201185016,35.61814466730735],[137.3293629341186,35.61883919337161],[137.32974318508232,35.61925406786447],[137.33073964548487,35.6195166954679],[137.3321231187431,35.621362930602345],[137.3323487248097,35.62158989639494],[137.3316019329248,35.62261722542656],[137.3323487248097,35.62158989639496],[137.33297627685312,35.62215906779292],[137.33442467782072,35.62203383872142],[137.3356895529062,35.62163829241304],[137.3366917378121,35.62168921098827],[137.33947315493026,35.62095129171543],[137.34162777559328,35.61948551968013],[137.34227095706902,35.61887737154855],[137.3436644673774,35.618345547516164],[137.34469060413304,35.617412932151574],[137.34697875650932,35.616620708120564],[137.34805089835086,35.616726073262235],[137.34918228677944,35.61715984343691],[137.35065858560415,35.61705022094511],[137.3519506872362,35.61734767306087],[137.35421771355496,35.61679044338318],[137.35492369108144,35.616877899639036],[137.35515688182934,35.61749708347048],[137.3559028594051,35.61786653422127],[137.3587926837467,35.61796409088356],[137.36003314288297,35.6174012608368],[137.36178557275713,35.61746977135969],[137.3634276273551,35.617236336643096],[137.3644215385164,35.616721416992746],[137.36585449304235,35.61644071734844],[137.36643375887712,35.6157523814549],[137.3675151020049,35.615639912672286],[137.36904879289062,35.61485312773381],[137.37418848124673,35.61400775375687],[137.3746819805079,35.61272379197853],[137.3754420585751,35.61248957262054],[137.37657869912283,35.612631244442234],[137.37784351312843,35.61179632332458],[137.37942877077637,35.611690680807264],[137.38090639991702,35.61133479472125],[137.38168247131284,35.610869506338545],[137.38222656978473,35.61142038446297],[137.38234945937398,35.61272182923661],[137.3827406409079,35.614094630490136],[137.38239116654802,35.61577662731065],[137.38238584077564,35.616915769605264],[137.382497644314,35.61797949323644],[137.3829833595135,35.618664495899814],[137.38283490838683,35.620318775343826],[137.38313597135675,35.62164894848376],[137.38302009732388,35.62218280481041],[137.38307704922516,35.622328087272884],[137.38344406107169,35.62324424212518],[137.3833718079946,35.62364291917412],[137.3830298017149,35.624214784697024],[137.3828037580107,35.62429388330925],[137.3816578330597,35.62429419498298],[137.38089654926102,35.624764229399325],[137.37722077119017,35.62588244155672],[137.37671932458986,35.626393018946224],[137.3762716287018,35.62664009150798],[137.37546948883306,35.62672872760568],[137.373951650624,35.627123015254114],[137.37382192185274,35.62718823458857],[137.37358108841076,35.62803362845544],[137.37293203946015,35.629001111279756],[137.37232278974793,35.62956004806505],[137.37217007050236,35.63006113336831],[137.37155227540435,35.631787990159474],[137.371696214177,35.63236585984734],[137.37183321269194,35.632675230235634],[137.37254855001694,35.633840527592184],[137.37239679698783,35.63430087218723],[137.37196527906053,35.635148258929775],[137.37174493537265,35.63815349345553],[137.37092848948828,35.638812664900236],[137.36961549139048,35.639399173503215],[137.3692366648461,35.63975967032161],[137.36794948264506,35.64131259403525],[137.36786765713472,35.64210636634415],[137.36768984071978,35.64256986311494],[137.3674658534335,35.642881967196985],[137.36608064840442,35.643616639729764],[137.36569056408896,35.644224023630436],[137.3659416158743,35.64517368359993],[137.36553041013343,35.64569631505781],[137.3653438670366,35.64616334012395],[137.364578839693,35.64659035304081],[137.3641390091661,35.64702218815905],[137.36414013895126,35.64747824096807],[137.36415698400577,35.647905044395976],[137.36427756124593,35.64832594289658],[137.36426282591844,35.64866375517661],[137.36426245269922,35.64943545274873],[137.36478594173778,35.650000688943685],[137.36521064529995,35.650399336046],[137.36532717066416,35.65059265328989],[137.36521227633386,35.65105392745807],[137.36411943120686,35.65392783609459],[137.36359439271854,35.65461868062538],[137.36219502943302,35.65577216987997],[137.36197271506208,35.6562874645223],[137.3618995046956,35.65640257600462],[137.36014074289753,35.655958345185034],[137.35948539871285,35.65557002774481],[137.35689948217868,35.65529790842413],[137.3561130823879,35.65468221129773],[137.35512803959168,35.65456933593074],[137.3535998039443,35.655130790760566],[137.3520473284921,35.65498191060425],[137.35119881500452,35.654667533069144],[137.3499318608092,35.65461423687812],[137.34895181278554,35.65504800080649],[137.34895181278554,35.65504800080648],[137.34718934930515,35.65634162278667],[137.34682879119336,35.65655000451123],[137.34498042924488,35.6566987261392],[137.34439342146328,35.656562803877065],[137.3435535851567,35.65651273754494],[137.34218194299626,35.65667638427617],[137.34087761122618,35.65739438876855],[137.34050666999104,35.658423201296216],[137.3397902287348,35.65879649251151],[137.3392337397055,35.65935239104509],[137.33867314842243,35.660992194520794],[137.33844913902084,35.6632470881671],[137.33801103694796,35.664159284131195],[137.33740752203292,35.66726757661178],[137.3370023594022,35.667566141390125],[137.332805110583,35.667855213587266],[137.3304962487547,35.668820433356444],[137.32937808774395,35.669967977231074],[137.32799208508172,35.67023652282755],[137.3264983817313,35.67077377409778],[137.32629324867432,35.67111870812509],[137.32613059028236,35.673327125874906],[137.3265513031668,35.67463067354507],[137.3260345926038,35.6757466209877],[137.32523463056,35.6760960131779],[137.32295307916698,35.67787020302064],[137.3214183798642,35.67929194250535],[137.32053933146668,35.680441468487395],[137.32047255870262,35.68034899023724],[137.31927687197415,35.679770772894045],[137.31689990930838,35.67921804152504],[137.31637472804567,35.67884018762899],[137.31599039325954,35.676900793092486],[137.31537597033633,35.67598203299594],[137.3144398809134,35.67488841417471],[137.31417315961045,35.6745683026001],[137.31324173101444,35.67400374252095],[137.3125356770009,35.673963506909146],[137.3112562611758,35.67336235464625],[137.30997101639502,35.672025774968965],[137.3083168845117,35.6704830927386],[137.30698765684085,35.67008871573782],[137.3062635362667,35.66967254927386],[137.30615638894312,35.66958817965854],[137.30595037212095,35.669407847533066],[137.30532560049906,35.668746198959276],[137.3052265575343,35.668649988915625],[137.30515928075354,35.66848350197118],[137.30510119054733,35.668098366939745],[137.30494757203581,35.667799215802965],[137.3048019667143,35.66753779606561],[137.3041757788707,35.6669607435049],[137.3039694618529,35.666623908475145],[137.30388003859852,35.6665615555427],[137.3031366029391,35.666432259234185],[137.3023223315165,35.66685358130204],[137.30214090747126,35.66708281548154],[137.30060840216564,35.66718738253457],[137.30002488660642,35.66731821053478],[137.29913702391397,35.667617215772616],[137.29826642285107,35.667745754516446],[137.29783397449097,35.667609598775755],[137.2976744863075,35.667601961174846],[137.2972693003584,35.66755294621],[137.2970809431669,35.66745686261103],[137.29649775884388,35.66681591991052],[137.29565002628172,35.666287194252924],[137.29496762692597,35.665425105107126],[137.29516194426134,35.66427834562561],[137.29520412031087,35.663730427227016],[137.2949327468986,35.66357193771145],[137.294505102981,35.66342664615994],[137.2939095891333,35.66302258014934],[137.29301367098745,35.66224397686026],[137.29286682513003,35.66216086912606],[137.29227625234998,35.66184913920126],[137.29195831871928,35.661478599329875],[137.2915362619178,35.66082572747706],[137.29114745783323,35.66001015685632],[137.29047891713745,35.65876931912011],[137.2901436224466,35.658506773151075],[137.2899039136627,35.658184272098424],[137.28958970532267,35.657120043983575],[137.28914240003226,35.65661037971104],[137.28891571117154,35.656449220776985],[137.28676656470572,35.65570312267621],[137.28681210950973,35.654183024464324],[137.28673988984133,35.653882454466384],[137.28614394579262,35.65311132611071],[137.28608634363613,35.6529838194878],[137.28560782494884,35.65184034263077],[137.28490953918578,35.65087665223479]],[[137.31378076956122,35.638402321599344],[137.31397934749478,35.639344445437374],[137.3138209596756,35.63827608261421],[137.31378076956122,35.638402321599344]],[[137.319399529597,35.63130204220863],[137.3197175356154,35.62913716658078],[137.3211191367104,35.62774768266404],[137.3197175356154,35.629137166580755],[137.319399529597,35.63130204220863]],[[137.3211191367104,35.62774768266404],[137.32203535893652,35.62716731782305],[137.3246595419097,35.62639676538492],[137.32203535893652,35.62716731782303],[137.3211191367104,35.62774768266404]],[[137.33633027474212,35.64773588117341],[137.33633027474212,35.647735881173446],[137.33741496393455,35.64662473682667],[137.33633027474212,35.64773588117341]],[[137.33923471422503,35.65029237089161],[137.34018382636077,35.65057686489061],[137.34056266868845,35.65143579971956],[137.3401838263608,35.65057686489061],[137.33923471422503,35.65029237089161]],[[137.3403097517966,35.652557707503675],[137.3404475679054,35.65329590851421],[137.34077721615674,35.652787262212264],[137.3404475679054,35.6532959085142],[137.3403097517966,35.652557707503675]]]}},{"type":"Feature","properties":{"KEY_CODE":"21507002001","PREF":"21","CITY":"507","CITY_NAME":"東白川村","S_NAME":"越原","SETAI":"272"},"geometry":{"type":"Polygon","coordinates":[[[137.3200826363475,35.684871519803224],[137.32065146746373,35.683895341408956],[137.32136396101512,35.68348701431382],[137.3215364582016,35.68289866597286],[137.32117656528723,35.68220381149324],[137.32083912021204,35.681887191034484],[137.32053933146668,35.680441468487395],[137.3214183798642,35.67929194250535],[137.32295307916698,35.67787020302064],[137.32523463056,35.6760960131779],[137.3260345926038,35.6757466209877],[137.3265513031668,35.67463067354507],[137.32613059028236,35.673327125874906],[137.32629324867432,35.67111870812509],[137.3264983817313,35.67077377409778],[137.32799208508172,35.67023652282755],[137.32937808774395,35.669967977231074],[137.3304962487547,35.668820433356444],[137.332805110583,35.667855213587266],[137.3370023594022,35.667566141390125],[137.33740752203292,35.66726757661178],[137.33801103694796,35.664159284131195],[137.33844913902084,35.6632470881671],[137.33867314842243,35.660992194520794],[137.3392337397055,35.65935239104509],[137.3397902287348,35.65879649251151],[137.34050666999104,35.658423201296216],[137.34087761122618,35.65739438876855],[137.34218194299626,35.65667638427617],[137.3435535851567,35.65651273754494],[137.34439342146328,35.656562803877065],[137.34498042924488,35.6566987261392],[137.34682879119336,35.65655000451127],[137.34718934930515,35.65634162278667],[137.34895181278554,35.65504800080649],[137.3499318608092,35.65461423687812],[137.35119881500452,35.654667533069144],[137.3520473284921,35.65498191060425],[137.3535998039443,35.655130790760566],[137.35512803959168,35.65456933593074],[137.3561130823879,35.65468221129773],[137.35689948217868,35.65529790842413],[137.35948539871285,35.65557002774481],[137.36014074289753,35.655958345185034],[137.3618995046956,35.65640257600462],[137.3621363638563,35.65658972458245],[137.36197271506208,35.6562874645223],[137.36219502943302,35.65577216987997],[137.36359439271854,35.65461868062538],[137.36411943120686,35.65392783609459],[137.36521227633386,35.65105392745807],[137.36532717066416,35.65059265328989],[137.36521064529995,35.650399336046],[137.36478594173778,35.650000688943685],[137.36426245269922,35.64943545274876],[137.36426282591844,35.64866375517661],[137.36427756124593,35.64832594289658],[137.36415698400577,35.647905044395976],[137.36414013895126,35.64747824096804],[137.36413900916617,35.64702218815905],[137.36419111518092,35.6469081000734],[137.364578839693,35.64659035304081],[137.3653438670366,35.64616334012395],[137.36553041013343,35.64569631505781],[137.3659416158743,35.64517368359993],[137.36569056408896,35.644224023630436],[137.36608064840442,35.643616639729764],[137.3674658534335,35.642881967196985],[137.36768984071978,35.64256986311494],[137.36786765713472,35.64210636634415],[137.36794948264506,35.64131259403525],[137.3692366648461,35.63975967032161],[137.3696154913905,35.639399173503215],[137.37092848948828,35.638812664900236],[137.37174493537265,35.63815349345553],[137.37196527906053,35.635148258929775],[137.37239679698783,35.63430087218723],[137.37254855001694,35.633840527592184],[137.37183321269194,35.632675230235634],[137.371696214177,35.63236585984734],[137.37155227540435,35.631787990159474],[137.37217007050236,35.63006113336831],[137.37232278974793,35.62956004806505],[137.37293203946015,35.629001111279756],[137.37358108841076,35.62803362845544],[137.37382192185274,35.62718823458857],[137.373951650624,35.627123015254114],[137.37546948883306,35.62672872760568],[137.3762716287018,35.62664009150798],[137.37671932458986,35.626393018946224],[137.37722077119017,35.62588244155672],[137.38089654926102,35.624764229399325],[137.3816578330597,35.62429419498298],[137.3828037580107,35.62429388330925],[137.3830298017149,35.624214784697024],[137.3833718079946,35.62364291917412],[137.38344406107169,35.62324424212518],[137.38307704922516,35.622328087272884],[137.38302009732388,35.62218280481041],[137.38313597135675,35.62164894848376],[137.38283490838683,35.620318775343826],[137.3829833595135,35.618664495899814],[137.382497644314,35.61797949323644],[137.38238584077564,35.616915769605264],[137.38239116654802,35.61577662731065],[137.3827406409079,35.614094630490136],[137.38234945937398,35.61272182923661],[137.38222656978473,35.61142038446297],[137.38168247131284,35.6108695063385],[137.3823329126397,35.610542244817324],[137.38257518631693,35.610475832452586],[137.38516176561282,35.60974120468582],[137.3870884650919,35.609330227588046],[137.38724068747536,35.60936100520682],[137.38834733041574,35.6098384341876],[137.38875703569673,35.61014436047336],[137.3897750194195,35.610363780456275],[137.3904171381451,35.60962692237003],[137.39152446035988,35.60949286751933],[137.39173812160223,35.609399306287166],[137.3922814032112,35.60902753495835],[137.3929729436311,35.608391586650335],[137.3937710609009,35.608608814235204],[137.39516008877646,35.60815935152346],[137.39573158079844,35.60885503707657],[137.39662808792352,35.60910491066354],[137.3977225500616,35.60982606180498],[137.39962886370128,35.61162635362635],[137.40080126461095,35.611951781067795],[137.40321698294753,35.61394804749418],[137.40417124808593,35.61443341480376],[137.4042740366668,35.614983733713025],[137.40514311092656,35.6156411973324],[137.40498694686255,35.61640871649811],[137.4056999982642,35.61870372177203],[137.4050305904868,35.619332646260034],[137.40540900306303,35.6202906131465],[137.40534103332914,35.621339103387776],[137.40492122621762,35.622204348077226],[137.40556950969903,35.62221993071023],[137.40563721537737,35.6223277878773],[137.40585552908686,35.62272266137466],[137.4061093021935,35.622884159966404],[137.40622489561287,35.623148818024745],[137.40654095464689,35.62332107242636],[137.40695042401134,35.62332972841316],[137.40709583541604,35.6234998924482],[137.40730904488788,35.62357171865329],[137.40789576022237,35.624051132795074],[137.40806702807674,35.624170926581726],[137.40832280147401,35.6241286545154],[137.40885595337468,35.62453947526255],[137.40903532191734,35.62462119060709],[137.4090995271153,35.62468961605958],[137.40931370722146,35.62495104398017],[137.4105196313542,35.62509981824811],[137.41079532359134,35.625147466339435],[137.4111826300887,35.62525393775076],[137.41149884211384,35.62542139367159],[137.41210927304655,35.62590310497089],[137.41249341298774,35.626232458929074],[137.41268095672487,35.6265016844673],[137.412823266255,35.62675174033019],[137.4127577515871,35.6271819322524],[137.4125257489991,35.62763400942011],[137.4124841738038,35.62837431922481],[137.41229939486703,35.6286261656764],[137.41220390218695,35.62907109881287],[137.41215583343103,35.6291958050952],[137.4118899884258,35.62968340641339],[137.41123462970717,35.630360167145376],[137.41089307409692,35.63154821291966],[137.41112753599478,35.63280552003623],[137.41065977904105,35.63320665934068],[137.41101985688894,35.63390816707894],[137.4106502040729,35.63447544190993],[137.4108050505917,35.635450523104815],[137.41044496484454,35.63591186554561],[137.41060755663892,35.637164408533614],[137.41135597180815,35.63789032970467],[137.41133342425204,35.63854798196344],[137.40963025096423,35.63851143796827],[137.4085853992159,35.6387701510356],[137.40818606083664,35.639327369761396],[137.4069479668759,35.639610721258954],[137.4058716303,35.64124828062433],[137.4040719113287,35.643253761317375],[137.40455410294786,35.64498140842225],[137.40255939376686,35.645559270433004],[137.4011963038361,35.64612445350823],[137.400855596888,35.64650194367023],[137.4010208905116,35.64736135281768],[137.4040116697853,35.64940101064248],[137.4051825313434,35.650545906933345],[137.40597419629296,35.651786890362075],[137.4060666822098,35.65293662664359],[137.4070346531575,35.65320812859452],[137.40769001438073,35.65389438907216],[137.4077728519472,35.65478437027322],[137.4090004567442,35.65551493932137],[137.40918414162175,35.65663723314424],[137.40861371377704,35.6571833470774],[137.40853078326333,35.65846421676296],[137.40682307715895,35.65967742249421],[137.405631517241,35.661136313829054],[137.4038910835391,35.66116635424999],[137.40323274824374,35.66148427843538],[137.40125057051446,35.66172891918716],[137.39959379439446,35.66117253363894],[137.3983478763854,35.66154484895843],[137.39687932882634,35.66223733173506],[137.39603948046906,35.66412565336556],[137.395178703976,35.664835496814796],[137.3945702771191,35.66507748853196],[137.39321372914523,35.66546233562809],[137.39055018982546,35.66598999937704],[137.38965478611811,35.666013225420656],[137.38884010118937,35.66615716213772],[137.38707589083913,35.666038190212866],[137.38653486391797,35.666220195752416],[137.38600961603908,35.667083910623504],[137.38511430576494,35.6678943938097],[137.38503172714388,35.66792985939457],[137.3838372095037,35.66798182091103],[137.38272971575535,35.668190992603925],[137.382151698689,35.66841687619113],[137.3815680416334,35.66874392410222],[137.381430237126,35.66873455928554],[137.38108396880517,35.668783345531246],[137.38039920139857,35.669576306257056],[137.37896926555632,35.66992414595438],[137.3783421677262,35.670209503750534],[137.37748295266147,35.67054026612648],[137.3771134114154,35.67072721178664],[137.37588275842145,35.67127540074554],[137.3749607821471,35.67170583037467],[137.37462248073396,35.6717963447265],[137.3736895637279,35.67180441142655],[137.37297618117157,35.672224814134644],[137.37134068158204,35.673799906725606],[137.3701792727354,35.674522976240524],[137.37076585234726,35.675500695816],[137.3700121033127,35.67611480005622],[137.36895960736032,35.676333403176834],[137.36799485774432,35.6770047491741],[137.3669764887836,35.6782735779577],[137.3650918606103,35.67947961063264],[137.36396771746269,35.6817812818015],[137.3639892509808,35.683318173095216],[137.3633032511926,35.68409789539462],[137.36257857993454,35.68570351801976],[137.36133464743966,35.68645771178291],[137.35978780276204,35.688318241395564],[137.35898939728872,35.688656169952054],[137.35763024663703,35.69040552771117],[137.35539622183194,35.69224368686255],[137.3548714287177,35.69343350461829],[137.35394178238215,35.69463460711328],[137.35292212844172,35.69534575286872],[137.35233621252564,35.69613285941857],[137.35171482064825,35.69510051105532],[137.35056949698387,35.694552594643476],[137.34924270963103,35.69459301664739],[137.3483447578503,35.69434779309258],[137.3479265755821,35.69444076575718],[137.34735919198536,35.69452136264145],[137.3464508742229,35.69475206721032],[137.34525703826725,35.69538729500928],[137.34455219150524,35.69537003797361],[137.3441478382519,35.69553002768904],[137.34402802994532,35.695633693274836],[137.3437493409005,35.69595479415985],[137.34273422642832,35.69594815053601],[137.3418244334823,35.69530461780265],[137.34096000761562,35.695042159141096],[137.3408031318591,35.69463239685031],[137.33944957954188,35.69370444269899],[137.33801341483021,35.69299243058224],[137.33626218170548,35.693303997787304],[137.33557475247306,35.69340909304248],[137.33443823402433,35.692809665873604],[137.33356657722982,35.69243973571257],[137.3323011882532,35.69234244994226],[137.330986874157,35.691619617450385],[137.33038804948984,35.691175039986916],[137.32956841529273,35.690797924698536],[137.32903914635213,35.69046633907127],[137.32889070355048,35.68988687802891],[137.32753293025297,35.68905798812384],[137.32610073886443,35.68807864701473],[137.3246268684346,35.68740037489666],[137.32326359755703,35.68642022391899],[137.3221637040426,35.68612013355116],[137.32086692705158,35.68610812884236],[137.32031602843736,35.68564904153408],[137.3200826363475,35.684871519803224]],[[137.3448658494702,35.682205777931586],[137.34552228347172,35.682484455564136],[137.34552228347172,35.682484455564136],[137.3448658494702,35.682205777931586]],[[137.3649575316339,35.66467488668146],[137.36579263832596,35.66655662381135],[137.36652958839764,35.66716107676542],[137.36579263832598,35.66655662381135],[137.3649575316339,35.66467488668146]]]}},{"type":"Feature","properties":{"KEY_CODE":"21507003001","PREF":"21","CITY":"507","CITY_NAME":"東白川村","S_NAME":"五加","SETAI":"139"},"geometry":{"type":"Polygon","coordinates":[[[137.25697298914147,35.63162542515394],[137.257303000156,35.631045658589606],[137.25914728660032,35.630279369964],[137.2599688253006,35.629679439837254],[137.26159064240852,35.62726399563175],[137.2610583888708,35.626022230188156],[137.2615581655238,35.625226373931035],[137.26041125359663,35.62429617975525],[137.26030686331336,35.6235051840553],[137.25944089502687,35.623079208241364],[137.25898278829092,35.62217014119257],[137.2591475077318,35.62129063818072],[137.26020406877132,35.619567735660866],[137.25913040664938,35.618390825066655],[137.25992400574697,35.61750583862252],[137.26079590192788,35.6161430322766],[137.2611949999362,35.615146195232086],[137.26281848160664,35.613845606436385],[137.2631208811524,35.613200860352684],[137.26338424925478,35.61137954629504],[137.26315899855302,35.60955251642023],[137.2648994731856,35.60879610063669],[137.2664626822854,35.608561577018655],[137.2679073185389,35.60769895449476],[137.26892462323474,35.60772673740517],[137.27015900521698,35.60716175068303],[137.27118942321573,35.60624239684825],[137.2715119677813,35.6059784357555],[137.27238242767163,35.60574562324967],[137.27264337043192,35.60488695101755],[137.27251413481508,35.60442447709407],[137.27260133100128,35.60414283010651],[137.27291806669982,35.60363750887187],[137.27297802443832,35.60345869753372],[137.27359869982106,35.60312074593935],[137.2744699360679,35.60191098776659],[137.2749726669781,35.601383176355974],[137.27533058522351,35.60099178737694],[137.27514567949598,35.599845554034026],[137.27567518919034,35.5993814474819],[137.2762476768167,35.59898184034],[137.2766571282553,35.59889387707822],[137.27783243735462,35.59842337976973],[137.27807499290418,35.59841168387832],[137.278777845646,35.59822444149976],[137.27900633898562,35.59820698159414],[137.2793810871063,35.59844927237661],[137.2795253061035,35.59850656789576],[137.28120655099121,35.59784608214328],[137.28195502453602,35.59760705728999],[137.28220452588928,35.59753503415047],[137.2834091268895,35.59789427534703],[137.28390776806998,35.59869918316804],[137.28536215140997,35.59913850535456],[137.285942995065,35.599157565482734],[137.2883803410394,35.60028240449307],[137.29049944409425,35.60077700150297],[137.29226003274053,35.60136517862565],[137.29245012368142,35.60150855948461],[137.2927390446,35.60189587085893],[137.29304509099788,35.60199891757548],[137.29371843933933,35.60203692555948],[137.29482287134869,35.60231138515946],[137.2954366306789,35.60246144916549],[137.2960924200417,35.60236549102423],[137.29644239276382,35.602382148583985],[137.29677634992942,35.60256050299419],[137.29693153608432,35.60285605525866],[137.2970090169816,35.602930614280815],[137.29738185007213,35.60301636206126],[137.29854731854076,35.60299352702153],[137.29898182633008,35.60316676802854],[137.29934063270412,35.60327548223739],[137.29999219489983,35.603215391457866],[137.30035680858788,35.603314519217804],[137.30092364756405,35.603779033968756],[137.3018005180593,35.60460212045827],[137.30235923233684,35.60525166336162],[137.3026977393909,35.60532345594985],[137.30315937394008,35.60616865972401],[137.30321128731816,35.60628123528428],[137.3033041677798,35.606392037882934],[137.303377561105,35.60645881628747],[137.303492884505,35.60647618263202],[137.3035866989519,35.60649026396451],[137.30387981759526,35.60648640480497],[137.3066782705334,35.606313290230474],[137.30737924657095,35.6065782576482],[137.30796677468842,35.60729829743557],[137.30899313579513,35.608683194160555],[137.30932361450527,35.60906471341265],[137.30955214402647,35.6090961270678],[137.30970727706273,35.60906777232218],[137.31025874888195,35.60889461415167],[137.31161461974915,35.608968663426715],[137.31287571399983,35.60907094553733],[137.31325087706819,35.60913033782175],[137.3144848156478,35.60969905507511],[137.31465794503137,35.61002276452842],[137.31480236922457,35.610127508027176],[137.31584164122737,35.61026235789418],[137.31700365844904,35.610722870525336],[137.31820314581725,35.6109475619614],[137.31840622286907,35.611190210789474],[137.31883370625062,35.61155576864027],[137.31959942057864,35.61182758538456],[137.31987575392836,35.61205253325721],[137.3215521474171,35.61287583604339],[137.3217508382618,35.61306919127418],[137.32277167419852,35.6137278934173],[137.32376369098822,35.61396950073543],[137.32418190020655,35.61399007622046],[137.32495564313297,35.613948563179626],[137.32514047975405,35.61408081081576],[137.3254351669972,35.61444779075564],[137.32557433132615,35.61612849046002],[137.3256812074282,35.61675320385293],[137.32570764985098,35.61703829205906],[137.3247350207571,35.61798072715673],[137.32220465990454,35.61943457417357],[137.3207717706987,35.62011906121709],[137.3204303953056,35.620616736887754],[137.32034689472167,35.622164476932504],[137.32003023510455,35.62241206123489],[137.3174258710152,35.622995047310056],[137.31555675853818,35.62364767734199],[137.31462832118578,35.624366767698184],[137.3121287179415,35.62514664126559],[137.31155294700824,35.625606341771],[137.31052839732305,35.62759808713197],[137.30949907013613,35.62834926616469],[137.3085823886966,35.62943689561808],[137.30741709049576,35.630273202333946],[137.30571287164608,35.63081436590096],[137.30553842791133,35.63107617607768],[137.30527159411707,35.631770711193816],[137.30514709449562,35.63194067034724],[137.3038238351588,35.6324647777894],[137.3034593207984,35.632819859020046],[137.30333931424826,35.6329218571551],[137.30184435889657,35.63305372793924],[137.30165488321308,35.63306904709258],[137.30034468374987,35.633342442831214],[137.29992736503604,35.63336118229349],[137.29854706424507,35.63316702308359],[137.29835103324663,35.63404637641256],[137.29768159467898,35.6348380155332],[137.2971669774537,35.63533710439097],[137.29694040086113,35.63537671512296],[137.29501978643125,35.6359751642629],[137.29401811113675,35.63678713672697],[137.2937387324348,35.63697636607416],[137.29295827737266,35.63742596702939],[137.29277562139904,35.63779617145264],[137.29272580908358,35.63829812834583],[137.293136551324,35.6388212160552],[137.2933302227274,35.63930122626802],[137.29301136082975,35.64042149182477],[137.29297777597765,35.64052387939269],[137.29359790068997,35.64227490168236],[137.2936754254431,35.64249916918915],[137.29463672112266,35.64324615170254],[137.294581044268,35.643350430017385],[137.29428271676883,35.643760125435364],[137.29389785109274,35.644339197041006],[137.29302128836295,35.645040794246945],[137.29286004736994,35.64523585031958],[137.29249037695791,35.64627939383094],[137.29068332646168,35.64720241595207],[137.28913573150749,35.64751499867959],[137.2888854838863,35.647861649441076],[137.2879826846853,35.64807535140798],[137.2879882677395,35.647557376424665],[137.2863443384747,35.64651526119009],[137.28577370388766,35.64559309615749],[137.28396743701128,35.644707292590596],[137.28287022252283,35.64348107121692],[137.28082498974842,35.64309611725521],[137.28013621564997,35.64266376210187],[137.2798720254442,35.64190006836762],[137.27976749498174,35.64128195664701],[137.27887101098722,35.6409652372982],[137.27764484353898,35.640884367405526],[137.27747891186667,35.64080124919871],[137.2769656445087,35.63975140883074],[137.2763260294253,35.63954506241542],[137.27577739822001,35.639402393685316],[137.27537674148712,35.639050055435746],[137.2742546878325,35.63812830561823],[137.27413719719596,35.6373175558912],[137.2747470566644,35.63691618520719],[137.2741371971959,35.6373175558912],[137.27345682886192,35.63643575519379],[137.2731539246031,35.63643341488903],[137.27263429413105,35.63649375769044],[137.271640774156,35.636274666361636],[137.27150359992865,35.63622010523531],[137.27141851528515,35.636148422585364],[137.27180412172342,35.634277925156475],[137.27141851528512,35.63614842258535],[137.27114072749777,35.635490322152975],[137.27100789573973,35.63511169174143],[137.27042086510946,35.63484150597838],[137.26974086812993,35.63539257921255],[137.2696707851621,35.635442107514756],[137.26872085136588,35.63561208873138],[137.2685424867478,35.635758004788435],[137.26824840802107,35.63641029173782],[137.26809865829958,35.636491116772],[137.26791040642385,35.63639233628707],[137.2674984591265,35.63590333874166],[137.26659820610234,35.63503729607353],[137.2660746934302,35.634566621369835],[137.26589862457226,35.63401232057487],[137.2657483312766,35.63366365756829],[137.26394224691103,35.633754926833625],[137.26276714116932,35.633600968226034],[137.26155436873344,35.63393119769948],[137.25978256563164,35.633361207389314],[137.25887859074552,35.63331633145374],[137.25697298914147,35.63162542515394]],[[137.27436290343186,35.61135607214655],[137.27488035380344,35.61384962079545],[137.27536861771566,35.61709216916113],[137.2748803538035,35.61384962079545],[137.27436290343186,35.61135607214655]],[[137.28396606182662,35.62051961021489],[137.2841267428012,35.62028623234303],[137.28469183208463,35.62062447126778],[137.2841267428012,35.62028623234301],[137.28396606182662,35.62051961021489]],[[137.29112119139543,35.62256170695895],[137.29181773408354,35.622663299226765],[137.2937931661534,35.62238971821949],[137.29181773408354,35.62266329922675],[137.29112119139543,35.62256170695895]],[[137.29643794965295,35.62254130739848],[137.29840893615338,35.62322674917256],[137.29935141242987,35.624133609937225],[137.2984089361534,35.62322674917256],[137.29643794965295,35.62254130739848]]]}}]}