{"type":"FeatureCollection","features":[{"type":"Feature","properties":{"KEY_CODE":"40605001001","PREF":"40","CITY":"605","CITY_NAME":"川崎町","S_NAME":"大字池尻","SETAI":"1490"},"geometry":{"type":"Polygon","coordinates":[[[130.79352736754976,33.61804489807091],[130.79368885208856,33.61734637268327],[130.7944780399062,33.6161290222927],[130.79538386873952,33.61569159568239],[130.79625344522015,33.61540632680528],[130.7979136971716,33.61458796760008],[130.80118070073564,33.612609520163794],[130.80166314970649,33.61225455566036],[130.80252153904206,33.6111629344807],[130.80358730846515,33.60974506124418],[130.80454974128978,33.609060963680264],[130.80541330465692,33.6093132446081],[130.80603901333708,33.60964453696788],[130.80665012305636,33.61042748600361],[130.80742554878418,33.61091362866731],[130.80894324193162,33.610570249719466],[130.81001742975087,33.60949870211491],[130.81198460479135,33.60912068979968],[130.81432430399283,33.609565559679325],[130.81588959504123,33.61111688215156],[130.81660947855434,33.61075270631122],[130.8169915394262,33.6112577910853],[130.81867815713727,33.612637093085205],[130.81962346045057,33.61413095672609],[130.81948591763566,33.614583988334864],[130.82047424183443,33.61539228614417],[130.81935762346197,33.615214336477024],[130.81884342937838,33.61604220378762],[130.81812147313244,33.61627614052269],[130.81734675208062,33.61698604637168],[130.81674375914375,33.61708658904442],[130.81610124257776,33.61653631565906],[130.81499611355179,33.61687173225993],[130.8132132417471,33.61699999481113],[130.81296443546705,33.61773694667469],[130.8114406454316,33.61940538850811],[130.81082412357088,33.619667265156195],[130.80983617469937,33.61940891077914],[130.80938653689168,33.61958038098304],[130.80838017871824,33.62050458706118],[130.80816743636828,33.62088169165882],[130.8073407499394,33.62113498764464],[130.8074610628765,33.62156544169541],[130.80685050471743,33.62157498499374],[130.80602263318485,33.62152473175517],[130.80559749528769,33.62183020845279],[130.80534196276818,33.6220291607887],[130.80443093571145,33.621765394574886],[130.8034944967015,33.6218969064454],[130.8025851185358,33.621568249880525],[130.80163158032252,33.621619203701556],[130.80146785467008,33.62299046748942],[130.80103133330908,33.62258556224674],[130.80022962985174,33.62293387882336],[130.79999063527703,33.623047370742256],[130.80003178911926,33.62319584528773],[130.79941959320297,33.62353337524556],[130.79875239675803,33.62390571134892],[130.79787584235274,33.62358235579207],[130.79767165646703,33.62350777439955],[130.79754204318985,33.62416028849905],[130.79746432673545,33.62419474923322],[130.79738240304084,33.62423723132001],[130.79730385281044,33.62428754025616],[130.7970252478944,33.62411421490638],[130.79608691746407,33.623563849226784],[130.79553334691116,33.623269540257425],[130.79493161947585,33.62324966414942],[130.79490404182175,33.622787512341496],[130.7947835177717,33.62240917702156],[130.7947616304456,33.62228220018655],[130.7947462275213,33.622244345615464],[130.79467597000715,33.62207157449489],[130.79407832108691,33.62024110379592],[130.7939328773134,33.61880917782843],[130.79352736754976,33.61804489807091]],[[130.8036592745002,33.61237101707908],[130.80390535727727,33.612095128498225],[130.80390535727727,33.612095128498225],[130.8036592745002,33.61237101707908]]]}},{"type":"Feature","properties":{"KEY_CODE":"40605002001","PREF":"40","CITY":"605","CITY_NAME":"川崎町","S_NAME":"大字田原","SETAI":"1743"},"geometry":{"type":"Polygon","coordinates":[[[130.79629299773623,33.599439635472805],[130.7963007096607,33.59884615866019],[130.79730100053695,33.59779417916052],[130.79835343979326,33.59800511892444],[130.79876223876892,33.59766695344148],[130.79944099973392,33.59782289461432],[130.80352460830258,33.59716426399441],[130.80260064300992,33.59816675115102],[130.8025357046465,33.598827268383204],[130.80339348319652,33.59904095226202],[130.80291780488974,33.59992890960029],[130.80437330904067,33.60019207789535],[130.80465759337818,33.599797337967],[130.80533048954698,33.60001861155816],[130.80659357024024,33.6000363761514],[130.80742478444222,33.60007380919928],[130.80823660231155,33.599728420443256],[130.80896559762078,33.59985198190387],[130.80911931338778,33.59844011340232],[130.80946028680899,33.597756351678825],[130.81011942807223,33.59836599847173],[130.81102680155638,33.598734399850514],[130.81087926819777,33.598325392111164],[130.81220733462564,33.59885476119023],[130.81352843348793,33.59902124790337],[130.81691724587475,33.59931866235936],[130.81839173352412,33.59963543978272],[130.81874303220604,33.600238036350206],[130.81930962228716,33.60038116418018],[130.81945687149263,33.60016103207983],[130.81957533694182,33.600049130382565],[130.82041252943526,33.599613179563285],[130.82075371549342,33.60046026457729],[130.82150451159694,33.60108879342584],[130.82152194936765,33.600976109122065],[130.82189586452105,33.600321312798684],[130.82369220665623,33.6003097332379],[130.82479559719738,33.60011800580417],[130.82526211485086,33.600923765917564],[130.825704698838,33.60054251783048],[130.827155550419,33.601323028992475],[130.82887979732357,33.60171082896401],[130.82896927235905,33.60176364545345],[130.82990117039984,33.60245471878234],[130.83279725771467,33.60336627579524],[130.83355287351395,33.60385652751196],[130.8339958095888,33.604557050346],[130.832904040296,33.60449682593179],[130.83283372818318,33.60532105873444],[130.8322339698355,33.60540062118409],[130.8316126114402,33.60647664159746],[130.83153845293583,33.6079828334896],[130.8316556711828,33.60850265504537],[130.83038559578682,33.609522341162176],[130.82863774687266,33.61018427206621],[130.8259526992151,33.610441785137745],[130.8257644891104,33.609902417319674],[130.82469582238727,33.60963976853214],[130.82404427191594,33.60978980032198],[130.8231693397608,33.610632811144185],[130.82316040844816,33.61151446565691],[130.82269434419442,33.61246555606302],[130.8220085706558,33.6131650544353],[130.82166265050347,33.61410722673373],[130.82053823324063,33.61391067865871],[130.82085083972777,33.6148090858377],[130.82047424183443,33.61539228614417],[130.81948591763566,33.614583988334864],[130.81962346045057,33.61413095672609],[130.81867815713727,33.612637093085205],[130.8169915394262,33.6112577910853],[130.81660947855434,33.61075270631122],[130.81588959504123,33.61111688215156],[130.81432430399283,33.609565559679325],[130.81198460479135,33.60912068979968],[130.81001742975087,33.60949870211491],[130.80894324193162,33.610570249719466],[130.80742554878418,33.61091362866731],[130.80665012305636,33.61042748600361],[130.80603901333708,33.60964453696788],[130.80541330465692,33.6093132446081],[130.80454974128978,33.609060963680264],[130.80358730846515,33.60974506124418],[130.80252153904206,33.6111629344807],[130.80166314970649,33.61225455566036],[130.80153066113564,33.61167980905445],[130.79936424497475,33.61016318957031],[130.79933087418104,33.608478343391845],[130.7995729659148,33.607861639325634],[130.7991808900256,33.60778797058355],[130.79959804710944,33.60618288885276],[130.7987654025514,33.60559326271684],[130.79871296017447,33.60423439692394],[130.79783110282278,33.603839037261075],[130.79775704738063,33.60133471787383],[130.79629299773623,33.599439635472805]],[[130.81740778126724,33.60639634036486],[130.817757406634,33.607197374518194],[130.81775740663406,33.60719737451818],[130.81740778126724,33.60639634036486]],[[130.81830427312892,33.60818769818032],[130.81889411675428,33.60888018053486],[130.81999256103373,33.607846410322246],[130.81889411675428,33.60888018053482],[130.81830427312892,33.60818769818032]],[[130.81916757673295,33.600929005467925],[130.81978207531833,33.60185546082194],[130.81916757673295,33.60092900546791],[130.81916757673295,33.600929005467925]]]}},{"type":"Feature","properties":{"KEY_CODE":"40605003001","PREF":"40","CITY":"605","CITY_NAME":"川崎町","S_NAME":"大字川崎","SETAI":"3193"},"geometry":{"type":"Polygon","coordinates":[[[130.7925000547289,33.5784538767163],[130.79287384736935,33.57794350928293],[130.7927503898905,33.57701151338171],[130.7931416197716,33.576711587383926],[130.79351158258052,33.57596892411738],[130.7946997461785,33.5753930596939],[130.7955700849127,33.57513668220424],[130.7963400678164,33.575172823818015],[130.79689359216553,33.574793064716296],[130.79856053184716,33.57402380682435],[130.79990201554477,33.57373174739412],[130.8003965987611,33.57376741672047],[130.8022993872459,33.57442115948087],[130.80285609495277,33.57422942087505],[130.8040875959916,33.57395647380324],[130.8053619917695,33.57421366920034],[130.80650203634636,33.57405925358355],[130.808023528842,33.57428609513663],[130.80951570251264,33.575491115592015],[130.81065484739736,33.57556021102687],[130.81169451891336,33.576334630667915],[130.812495001252,33.576589931882],[130.81267127037995,33.57732594332728],[130.81238598726748,33.57560909120218],[130.81246993448372,33.575501758737786],[130.81289439906186,33.57534826868467],[130.8151446149187,33.575436885581645],[130.81790575702493,33.5754047674814],[130.81838890780392,33.57453546855823],[130.8192180766736,33.57499794477116],[130.8188982896179,33.57447429314454],[130.8205598751697,33.57316290650463],[130.82149134212716,33.57339784247749],[130.82163843230873,33.573104905012],[130.8228642728354,33.57334842460313],[130.82285375091436,33.57371158095456],[130.82429372662807,33.57431274656824],[130.8267888280677,33.5733574453098],[130.82772758252884,33.57352105193717],[130.82804789346304,33.57372940961384],[130.82862677666947,33.57378508357912],[130.82868252863082,33.57381319532198],[130.82880180077225,33.57417072144566],[130.82924302431408,33.572980549966395],[130.8304908206517,33.57160962757878],[130.8311685558811,33.57105352020095],[130.83197236585798,33.570937811288424],[130.83227237213495,33.57091137840233],[130.83264377607495,33.57075302842668],[130.83335427521158,33.569836064884264],[130.83402123279396,33.56906268090237],[130.83413644627495,33.56863774335445],[130.83433092819791,33.56815842283615],[130.8357009774567,33.56877412100697],[130.83604465819695,33.56937207349475],[130.83643950583328,33.56962788053847],[130.83657287458925,33.56954010667993],[130.8368392341975,33.56936959748298],[130.8377560152023,33.56940256406152],[130.83808859791546,33.56971946363555],[130.83845548038514,33.56955000739121],[130.83848900765057,33.5695391657605],[130.8385574704871,33.56951251804018],[130.83871596916939,33.569405496640776],[130.83874944804268,33.56935865280109],[130.83922003999862,33.56922922379848],[130.83940067797707,33.569656591665215],[130.8393652139528,33.56967273080691],[130.83926663287738,33.56971759536613],[130.83913325444234,33.56975137836692],[130.8390922742185,33.56977747583593],[130.838953167128,33.569860247909446],[130.83881170714827,33.57004941679949],[130.83880381394954,33.5703157119832],[130.8389114238371,33.570714630842005],[130.8388947541505,33.570920516416976],[130.83832417803782,33.57190686678704],[130.83786684715466,33.57242420133223],[130.8377780998782,33.572452380382316],[130.83749197414014,33.57254799652897],[130.83744623455297,33.57259348410523],[130.83741151447765,33.57264599959741],[130.83738492548673,33.57268621348108],[130.837253654205,33.572720376054136],[130.8369205006259,33.57274116950429],[130.83685575300586,33.57280239703143],[130.83683845316767,33.57283663802161],[130.83683117082586,33.57289177151342],[130.83684140350036,33.57298451732676],[130.8368490469949,33.57301298215664],[130.83685056289264,33.57301863063822],[130.83686817725496,33.57306660489957],[130.83690901608182,33.573116250696074],[130.83697784518074,33.57317494990856],[130.83714674014954,33.5732932905253],[130.83722356252397,33.57336198707569],[130.83733897779723,33.573494872331516],[130.83693797407025,33.57377767861446],[130.83614869523936,33.57413611083983],[130.83629019690989,33.57419641008971],[130.8364548724032,33.57438319797257],[130.83653021641948,33.574640766024324],[130.83656270605675,33.57514081946339],[130.83658916160218,33.5753087537055],[130.83663711047814,33.57582171630465],[130.83669090333612,33.57621708039454],[130.83669806766466,33.577239296372454],[130.83702796498642,33.57773790498702],[130.83700101912066,33.578005875528085],[130.83738154811988,33.578363096181455],[130.83732438890019,33.57876765145527],[130.83673643340276,33.57955096024538],[130.83650924326594,33.5797456511242],[130.83533474278653,33.58048383700231],[130.83475531797984,33.58091055346385],[130.83440352734283,33.58119858867513],[130.83422441882607,33.581381926865326],[130.83415057171177,33.5814657637261],[130.834038734422,33.58172262750453],[130.83393187602297,33.581843118570454],[130.83380000696033,33.58192162840981],[130.83354272258194,33.581989472227505],[130.8330715678487,33.582369094732364],[130.83299538149947,33.58283582664657],[130.83297942403186,33.58298003610361],[130.83295693453886,33.58325276422092],[130.83285486513267,33.584133842832486],[130.83381117428254,33.58615453976823],[130.83392999263978,33.587292649123896],[130.83311822326658,33.58914483190135],[130.8322179476068,33.58995882654348],[130.831872570532,33.59027986507947],[130.8322145441959,33.59015342403446],[130.83222430557365,33.59035261791371],[130.83355974828933,33.5903753044103],[130.8341372749585,33.590578779747716],[130.8347963399652,33.590833856752056],[130.83497793848687,33.59093335411812],[130.83529292007665,33.59112611932443],[130.83560080769837,33.59115755654824],[130.8369081673411,33.59134775046436],[130.8373084105499,33.59199487947827],[130.8373201044224,33.59222429526231],[130.83756240817732,33.59319933886307],[130.838449153888,33.59351513747691],[130.83991392464358,33.594525856848435],[130.83996876144747,33.595005300915425],[130.83986167340538,33.5950180515561],[130.839978881461,33.59555104164931],[130.84001285694308,33.5956975384979],[130.84025525338012,33.596296483403435],[130.84053819096448,33.5968428575043],[130.8413186486138,33.59808557257595],[130.84124457342716,33.59878026598105],[130.84117825873426,33.600099035069114],[130.84034713618743,33.60093872002787],[130.84004136195665,33.6011888959057],[130.8375465721242,33.6008152682458],[130.83615113834412,33.6011477658757],[130.83537995702238,33.60204420371007],[130.83581368597035,33.60360341955734],[130.83492557254374,33.60429709380368],[130.8339958095888,33.604557050346],[130.83355287351395,33.60385652751196],[130.83279725771467,33.60336627579524],[130.82990117039984,33.60245471878234],[130.82896927235905,33.60176364545345],[130.82883675342975,33.601598834741466],[130.82887979732357,33.60171082896401],[130.827155550419,33.601323028992475],[130.825704698838,33.60054251783048],[130.82526211485086,33.600923765917564],[130.82479559719738,33.60011800580417],[130.82369220665623,33.6003097332379],[130.82189586452105,33.600321312798684],[130.82152194936765,33.600976109122065],[130.82150451159694,33.60108879342584],[130.82075371549342,33.60046026457729],[130.82041252943526,33.599613179563285],[130.81957533694182,33.600049130382565],[130.81965861642536,33.59979530238904],[130.81945687149263,33.60016103207983],[130.81930962228716,33.60038116418018],[130.81874303220604,33.600238036350206],[130.81839173352412,33.59963543978272],[130.81691724587475,33.59931866235936],[130.81352843348793,33.59902124790337],[130.81220733462564,33.59885476119023],[130.81087926819777,33.598325392111164],[130.81102680155638,33.598734399850514],[130.81011942807223,33.59836599847173],[130.80946028680899,33.597756351678825],[130.80911931338778,33.59844011340232],[130.80896559762078,33.59985198190387],[130.80823660231155,33.599728420443256],[130.80742478444222,33.60007380919928],[130.80659357024024,33.6000363761514],[130.80533048954698,33.60001861155816],[130.80465759337818,33.599797337967],[130.80437330904067,33.60019207789535],[130.80291780488974,33.59992890960029],[130.80339348319652,33.59904095226202],[130.8025357046465,33.598827268383204],[130.80260064300992,33.59816675115102],[130.80352460830258,33.59716426399441],[130.79944099973392,33.59782289461432],[130.79876223876892,33.59766695344148],[130.79930463575326,33.59674326474867],[130.7996527264664,33.59434867343028],[130.79932929452053,33.59325007127626],[130.79857805684168,33.59256106648114],[130.79878658880338,33.592165689855676],[130.79862121639857,33.59072022744035],[130.7979175938685,33.59019680207201],[130.79729943836293,33.58864964985236],[130.79735301127488,33.587825014497454],[130.79783585236882,33.58740599406878],[130.797958736024,33.58700128467594],[130.79726055696443,33.58609085990161],[130.79799616354512,33.58443511605637],[130.7978128071992,33.582210554407226],[130.79752125444776,33.58210863914897],[130.79661293609584,33.58056491140883],[130.79526339949237,33.58003668748747],[130.79370425883477,33.57888985824366],[130.7925000547289,33.5784538767163]],[[130.81657920469803,33.596257109523435],[130.8170056363422,33.59648788281526],[130.81720369302988,33.59668119078346],[130.8169693519249,33.5964502111147],[130.81657920469803,33.596257109523435]],[[130.8176273420033,33.59689631719651],[130.8181953784665,33.59740146098627],[130.81930256731576,33.596746413827915],[130.8181953784665,33.59740146098624],[130.8176273420033,33.59689631719651]],[[130.81988756262697,33.586076026801486],[130.8222342886484,33.58508158977838],[130.82223428864842,33.585081589778326],[130.819887562627,33.58607602680144],[130.81988756262697,33.586076026801486]],[[130.82022016606123,33.59286402462549],[130.82032135238765,33.59271902360023],[130.82036350211573,33.59265864383959],[130.8203213523876,33.592719023600246],[130.82022016606123,33.59286402462549]],[[130.82177185676468,33.59116780958847],[130.82208553762328,33.59242888408343],[130.82208553762328,33.59242888408343],[130.82177185676468,33.59116780958847]],[[130.82313485146486,33.5909337814936],[130.8231849925536,33.59093593004235],[130.8232398744525,33.59045449458216],[130.82313485146486,33.5909337814936]],[[130.8243664459532,33.59582026649222],[130.82464758799833,33.59576726951763],[130.8244936794658,33.5955835473668],[130.8243664459532,33.59582026649222]],[[130.82528364577396,33.59549823029847],[130.82706544418568,33.59479918309495],[130.82702085477953,33.59474030257226],[130.82528364577396,33.59549823029847]],[[130.82538894441728,33.59584348179455],[130.82593981021,33.596437182264864],[130.8264839826289,33.59665068723445],[130.82663984806726,33.5964313322465],[130.82593981021,33.59643718226482],[130.82538894441728,33.59584348179455]],[[130.82813790079774,33.58572777607337],[130.82818464305626,33.58599556205446],[130.82813790079777,33.58572777607337],[130.8290656550985,33.584949209687366],[130.82813790079774,33.58572777607337]],[[130.82837089428568,33.599409360504325],[130.82875457741903,33.599490620371185],[130.82924621330187,33.598928104022576],[130.82875457741903,33.59949062037116],[130.82837089428568,33.599409360504325]],[[130.82948868866947,33.58412457986007],[130.83001396775623,33.58291711985449],[130.83052829082337,33.5823323639583],[130.83001396775623,33.582917119854486],[130.82948868866947,33.58412457986007]]]}},{"type":"Feature","properties":{"KEY_CODE":"40605004001","PREF":"40","CITY":"605","CITY_NAME":"川崎町","S_NAME":"大字安真木","SETAI":"495"},"geometry":{"type":"Polygon","coordinates":[[[130.78508694997583,33.56841077120085],[130.78536250273953,33.568264692214235],[130.7854819736211,33.568001864467504],[130.78566438596954,33.56790937107233],[130.78570935526506,33.56787848927465],[130.78591520822002,33.567384824308924],[130.78605523881433,33.567347486130366],[130.78621663167144,33.567212935867474],[130.7863623676834,33.567003233247334],[130.78671893156354,33.566957427232566],[130.786868320249,33.56687037096388],[130.7869477343518,33.566793162208086],[130.78700905170874,33.566547911480846],[130.7874964579779,33.56643491759201],[130.7879241652549,33.56613176217259],[130.78812533792401,33.565703281611626],[130.788360819479,33.565498097598685],[130.78842709199418,33.56539212233502],[130.78849848795255,33.56535026039756],[130.78874686446102,33.5652733042417],[130.78878389093586,33.56524684576577],[130.7887258803004,33.564675375291245],[130.78872508647146,33.56445766804265],[130.7887780164483,33.564413554963735],[130.78901365995554,33.564139863243156],[130.78904031478382,33.56403603974192],[130.78897113950603,33.56371209067586],[130.7889316575058,33.56365897770069],[130.78880136751792,33.56350071211331],[130.78881217567735,33.56339904432148],[130.7888947822202,33.56308976137752],[130.78883856017367,33.56286308281545],[130.78926407288802,33.56268256189408],[130.78931564709146,33.56264175801357],[130.78946486886932,33.5620828293781],[130.78955743981157,33.562016665775374],[130.79016068525698,33.562032069235],[130.79073635376082,33.56198662965055],[130.79099770456133,33.56145546746681],[130.79156748325653,33.561659810871696],[130.7918897516598,33.56104255478749],[130.7919350960153,33.560854755634594],[130.79219481106,33.56045066339323],[130.79232707466784,33.56034923628919],[130.79216096904784,33.55971125094591],[130.79208525116172,33.55935967050183],[130.79183852095744,33.559302896367896],[130.79170948315448,33.559176686983164],[130.79157880652656,33.558078999968046],[130.79168689372585,33.557598430353664],[130.79166377833945,33.557337568817815],[130.79153883929692,33.55714394899193],[130.7914863819161,33.55700459023494],[130.79165339296804,33.55671974636393],[130.79176591468342,33.556586198229944],[130.79190614622772,33.556467065207826],[130.79212342500654,33.55613144551908],[130.79217501524005,33.556090672029256],[130.79222273126874,33.55606958442861],[130.79226486618003,33.5560510228571],[130.79253556988928,33.55597610346584],[130.79281415066484,33.55603641689378],[130.79364488504464,33.55531779334694],[130.79524268081903,33.55460639385934],[130.79543347801985,33.554518934883596],[130.795622841929,33.55352494731491],[130.79568732880577,33.553455244602134],[130.79597942910985,33.553339071668354],[130.79623486236486,33.55310811640859],[130.79651120140744,33.553108573456434],[130.7967918862661,33.5532825803166],[130.7970820449299,33.55297087982139],[130.7972095070105,33.55246247805962],[130.79716328057415,33.552361699349376],[130.79722066049243,33.55227201304407],[130.7973900417166,33.55217458408869],[130.79770907888576,33.55173528542128],[130.79769844378538,33.5511947433311],[130.79777878415658,33.550964520598356],[130.79789105257686,33.550833041842544],[130.7982670459873,33.55048164531799],[130.79856253284697,33.55044024918708],[130.79907958491097,33.55038921190321],[130.79946725751205,33.55013155837725],[130.79956983720265,33.550067900844894],[130.7996009405389,33.550016069227986],[130.79983935376757,33.54941711021122],[130.8001058037394,33.549043550365326],[130.80044178623965,33.54899622808049],[130.80057285963287,33.5489705167086],[130.80077208245322,33.54883421043717],[130.80113758831428,33.54838004284351],[130.80176430490832,33.547765714372304],[130.80195766433806,33.54758853841857],[130.80261426908177,33.54742700599358],[130.80275261032497,33.54734945623057],[130.80278610064065,33.54728170583534],[130.80274146679025,33.5470083785223],[130.8024649380433,33.54658406726468],[130.80241566928353,33.54625888335783],[130.8025124766228,33.54611441356156],[130.80279403284982,33.54590346065904],[130.803059057156,33.545113030735315],[130.80313039626913,33.544643413752546],[130.80319498007907,33.54452583687219],[130.803316619427,33.54437242436197],[130.8159879960574,33.551955037236205],[130.80331661942702,33.544372424361974],[130.80367353280457,33.54356522843033],[130.8030406396187,33.542223847424005],[130.80309230205305,33.5409743272902],[130.80343210627493,33.540804321743174],[130.8033904747759,33.53921059574212],[130.80357903677043,33.53851577530819],[130.80446810152407,33.537694421827446],[130.80587657098332,33.537319705275635],[130.80667702338286,33.53670562543696],[130.80629733156454,33.53500364047407],[130.80584156186748,33.53432075215392],[130.80516014712217,33.53389784061894],[130.80493911433413,33.53316048083805],[130.80529244290085,33.531704983325014],[130.8063709667494,33.531328706478696],[130.80599204621328,33.530896271834536],[130.80556729380058,33.52912637482788],[130.8050867717115,33.52834873212347],[130.8045590887856,33.526296443081854],[130.80482111538322,33.52572539119886],[130.80417411793843,33.52485769049729],[130.804197580447,33.52287907927868],[130.8037581832395,33.52236774747013],[130.80411576069545,33.52152534564454],[130.80368905950587,33.52094365549444],[130.80383873755463,33.52000437603657],[130.80441543152702,33.51949845782047],[130.80429231472283,33.518453675727415],[130.80371824127513,33.51778524913638],[130.80415204748888,33.516487844551136],[130.80378035883115,33.515616781955536],[130.804342191892,33.514991710198935],[130.80457735258483,33.514248757710064],[130.80448235951644,33.51309458013856],[130.8040795622937,33.51125255594922],[130.8059195231475,33.5118203809131],[130.80838341429865,33.51162853446048],[130.80866391027467,33.51150184729085],[130.81013279663355,33.50982794656733],[130.81010179162618,33.50946782830485],[130.81105189913345,33.51037239988975],[130.81078704474288,33.51253279220882],[130.811056371714,33.51302994134825],[130.81101618062684,33.51427624468166],[130.81168212553678,33.515284899044815],[130.81351181982447,33.51615317954879],[130.81478798420414,33.51729148598361],[130.81722862867326,33.51784188600947],[130.81837344782878,33.51762148441669],[130.8195365531769,33.517896480770624],[130.82121442048035,33.517885049009216],[130.8227539304588,33.51902437224379],[130.8229159898815,33.519412133841406],[130.82509503697244,33.519732159253735],[130.82532558980517,33.52012893176824],[130.82691861668994,33.52085198981327],[130.82733155429554,33.52281124053791],[130.82726254427044,33.52347302443448],[130.82802848833555,33.52522805066867],[130.82794086299816,33.525969695746724],[130.82844976203063,33.52620475050831],[130.82861524392067,33.52735882591368],[130.82953351918178,33.529155248327775],[130.8302784051991,33.52927220041792],[130.8309845541465,33.52996195504092],[130.83119683880443,33.53133490749871],[130.83159957877464,33.53206580186434],[130.83111930214835,33.53362652319448],[130.83195421230377,33.53433282077247],[130.83181609050092,33.53497607875532],[130.83215315312418,33.536171108692905],[130.83200456249597,33.537365477015555],[130.831576435225,33.53954079029889],[130.831749423865,33.540555255454166],[130.8324895432838,33.54220614499285],[130.8323846281418,33.54303915341994],[130.831220425464,33.544116467587905],[130.83152660138592,33.54548858176341],[130.83135179871076,33.54612241399764],[130.83021215298808,33.54724398784056],[130.83009253378157,33.547971127727706],[130.83071846620518,33.54939696823523],[130.83052437726613,33.551372068460715],[130.83145101614673,33.552909269063925],[130.8324570175922,33.554057460469586],[130.83225711081118,33.554639197918206],[130.8314908019266,33.55505064223],[130.83202598288483,33.555703081221],[130.8318281090846,33.55690496952932],[130.83228843366098,33.55772746165025],[130.83192508763872,33.558561129501925],[130.8326409263468,33.55996459593366],[130.8319722882353,33.56092859664908],[130.83204029505993,33.56301625107417],[130.8317814412837,33.56383385420175],[130.83187230345175,33.56473565419531],[130.83162207489767,33.56521764192682],[130.83178267683334,33.566516485348345],[130.83242674968832,33.56642694168523],[130.83316079062124,33.567756632958066],[130.83433092819791,33.568158422836156],[130.83413644627495,33.56863774335445],[130.83402123279396,33.56906268090237],[130.83335427521158,33.569836064884264],[130.83264377607495,33.57075302842668],[130.83227237213495,33.57091137840233],[130.83197236585798,33.570937811288424],[130.8311685558811,33.57105352020095],[130.8304908206517,33.57160962757878],[130.82924302431408,33.572980549966395],[130.82880180077225,33.57417072144566],[130.82868252863082,33.57381319532198],[130.82862677666947,33.57378508357912],[130.82804789346304,33.57372940961384],[130.82772758252884,33.57352105193717],[130.8267888280677,33.5733574453098],[130.82429372662807,33.57431274656824],[130.82285375091436,33.57371158095456],[130.8228642728354,33.57334842460313],[130.82163843230873,33.573104905012],[130.82149134212716,33.57339784247749],[130.8205598751697,33.57316290650463],[130.8188982896179,33.57447429314454],[130.8192180766736,33.57499794477116],[130.81838890780392,33.57453546855823],[130.81790575702493,33.5754047674814],[130.8151446149187,33.575436885581645],[130.81289439906186,33.57534826868467],[130.81246993448372,33.575501758737786],[130.81238598726748,33.57560909120218],[130.812495001252,33.576589931882],[130.81169451891336,33.576334630667915],[130.81065484739736,33.57556021102687],[130.80951570251264,33.575491115592015],[130.808023528842,33.57428609513663],[130.80650203634636,33.57405925358355],[130.8053619917695,33.57421366920034],[130.8040875959916,33.57395647380324],[130.80285609495277,33.57422942087505],[130.8022993872459,33.57442115948087],[130.8003965987611,33.57376741672047],[130.79990201554477,33.57373174739412],[130.79856053184716,33.57402380682435],[130.79689359216553,33.574793064716296],[130.7963400678164,33.575172823818015],[130.7955700849127,33.57513668220424],[130.7946997461785,33.5753930596939],[130.79351158258052,33.57596892411738],[130.7931416197716,33.576711587383926],[130.79293001398645,33.57604053975775],[130.79328371151075,33.57548318534152],[130.7931155924606,33.57446091153722],[130.79269382289277,33.573769575062535],[130.79190472895394,33.57356712822983],[130.7914125849126,33.573353417721826],[130.7907713597278,33.57308929352581],[130.7903180024964,33.57308852300301],[130.7901204241036,33.573125769710806],[130.78959106369183,33.57300088631648],[130.78974409564026,33.57282831273028],[130.7896077195027,33.572501891608425],[130.78944873691128,33.57219758559237],[130.78932320673047,33.571720925138095],[130.78924983771927,33.57145638855668],[130.78914736898116,33.57122072084316],[130.78901805334775,33.57091660647583],[130.78886439082356,33.57060660084838],[130.78850544213554,33.57037482319237],[130.7882030991039,33.57031812507515],[130.78768830536907,33.57021474347327],[130.78750160943267,33.57010604306213],[130.7865417721031,33.5695487555154],[130.78636962802784,33.569333812874234],[130.78553833292176,33.569010085494675],[130.78508694997583,33.56841077120085]],[[130.8022351192665,33.56255992353329],[130.8022351192665,33.56255992353332],[130.80731750042452,33.563229759483015],[130.8022351192665,33.56255992353329]],[[130.80992254216676,33.56392649853311],[130.81003354967783,33.564585669607006],[130.81082912970498,33.564581251915655],[130.81003354967783,33.56458566960698],[130.80992254216676,33.56392649853311]],[[130.8162683753985,33.56069791039007],[130.81658530395663,33.56030146219337],[130.8165853039566,33.56030146219336],[130.8162683753985,33.56069791039007]]]}}]}