{"type":"FeatureCollection","features":[{"type":"Feature","properties":{"KEY_CODE":"23563001001","PREF":"23","CITY":"563","CITY_NAME":"豊根村","S_NAME":"下黒川","SETAI":"90"},"geometry":{"type":"Polygon","coordinates":[[[137.69821487261788,35.19835771868213],[137.6982521382689,35.19618460086698],[137.69929617273553,35.192191393377115],[137.7003785379161,35.1893862073276],[137.70228949172616,35.185987457947355],[137.7035268018738,35.18415937827841],[137.70420471684244,35.18272420710207],[137.70426744235732,35.18131980040764],[137.70395709470552,35.178567504263384],[137.70120469546663,35.17144445894332],[137.70113505140003,35.17099377274898],[137.70274774471798,35.16850793365486],[137.70259694048886,35.16561564216299],[137.7030436227612,35.16424631169776],[137.70372529374657,35.16336863046482],[137.70396700810255,35.1629461431073],[137.7042032866619,35.162375858746294],[137.70427317377448,35.160842967902646],[137.70398302803642,35.15960589420679],[137.70423061819406,35.158830121443266],[137.70452532112682,35.15782673681671],[137.705262613861,35.153689364868676],[137.70569154272877,35.15014839316472],[137.70654237903273,35.1461437725155],[137.70660235792076,35.145288034318284],[137.70547458837353,35.14435254437547],[137.70581534018518,35.143810270599495],[137.70631640887848,35.14295435393971],[137.70698066721766,35.141824337116915],[137.70716818407905,35.140824940161735],[137.70782859489898,35.13979659473632],[137.71066713103798,35.13702992495035],[137.71293848422667,35.13629139288064],[137.7138553424202,35.13427610985969],[137.7160856706607,35.13118876633945],[137.7184819883988,35.13124980407658],[137.71933190428953,35.13134981670247],[137.71949441244618,35.13135816186536],[137.72106932159963,35.13090820743196],[137.72121935199826,35.12967498406099],[137.72169437329373,35.12840012965271],[137.72189440594715,35.12821680976064],[137.7237317340976,35.12919175877504],[137.7230645938314,35.12962188718194],[137.7239730944047,35.131158445272426],[137.72520936319583,35.13216662531677],[137.72603142019472,35.133864628996825],[137.727419206498,35.13555663296095],[137.72873679377093,35.13726604833783],[137.73015436824284,35.1396963411886],[137.7308275176014,35.14090192686619],[137.7313550060209,35.14164020950475],[137.7316723148992,35.14288646164215],[137.7316292684716,35.144306160219514],[137.73187116636623,35.14507259956161],[137.7305621319447,35.1453894069555],[137.728580043971,35.146119965517],[137.7272942766434,35.14687502343923],[137.72606373089155,35.148789565111116],[137.72398093412096,35.15065012494229],[137.72355987617354,35.14969494632505],[137.72398093412087,35.15065012494229],[137.725059809182,35.152418524561],[137.72475102657023,35.15406196833588],[137.72313095500803,35.155054657444545],[137.7245227370003,35.1557707503831],[137.72274871860506,35.1573185982783],[137.722053655441,35.16039780147571],[137.72093489886674,35.16296283316118],[137.72015093807488,35.163898959777896],[137.71879683664136,35.16453359269806],[137.7179586701569,35.16659510599301],[137.71757874657933,35.16884221098128],[137.71652814618204,35.169954459580985],[137.71592213429915,35.171671381746656],[137.7154315256154,35.17496257876773],[137.7147954915063,35.175567569418355],[137.71307102614557,35.176336963326634],[137.7123331827786,35.177170846446295],[137.71153728093847,35.1795448859519],[137.71599705921184,35.17633461276996],[137.7190176034792,35.17916716858046],[137.72131107809156,35.180690566218196],[137.7230049152746,35.18227504309339],[137.72483088965876,35.184534745017835],[137.72523571529658,35.1856243865682],[137.72561353020095,35.18564659179043],[137.72460992838123,35.18673137262189],[137.723126514122,35.18739741761238],[137.72405242785257,35.188958897030936],[137.72480136320954,35.18967286073305],[137.72644067431918,35.19191928622056],[137.72796789163442,35.19549932532585],[137.72391925946073,35.19568320157008],[137.72249108371884,35.19624046672605],[137.72167000709024,35.19723558586158],[137.7211282547582,35.199826499197314],[137.72148441710735,35.20119256875054],[137.71775452770362,35.20221928118908],[137.71545636266848,35.20320270418941],[137.71423506519068,35.20460340002031],[137.71310611455752,35.20745474138365],[137.71085024265204,35.20979190671568],[137.70794952458934,35.21140677290739],[137.70405120518416,35.21264038243357],[137.7029832294507,35.21199096678623],[137.7028324454973,35.21054549011926],[137.704027577828,35.2053553131669],[137.7036013275136,35.20405415690724],[137.70274680135526,35.203035816312784],[137.69926329400553,35.20027619434665],[137.69821487261788,35.19835771868213]],[[137.71440383599378,35.145455036560236],[137.7176014798229,35.14549028961989],[137.71760147982292,35.14549028961987],[137.71440383599378,35.145455036560236],[137.71440383599378,35.145455036560236]],[[137.71800737353658,35.1440321197728],[137.71802571600344,35.142945647187815],[137.71907413558512,35.143234770740975],[137.71802571600344,35.142945647187766],[137.71800737353658,35.1440321197728]]]}},{"type":"Feature","properties":{"KEY_CODE":"23563002001","PREF":"23","CITY":"563","CITY_NAME":"豊根村","S_NAME":"上黒川","SETAI":"94"},"geometry":{"type":"Polygon","coordinates":[[[137.65537436440331,35.13942970081344],[137.6559492860504,35.138313167150805],[137.65616178978087,35.137604876059356],[137.65699920201797,35.13516350755665],[137.65793666391104,35.13333874103168],[137.65907407299153,35.13188893975083],[137.65967408204648,35.129797496704725],[137.65942413210624,35.12889763477486],[137.65973659717335,35.12895594933051],[137.66089900504966,35.12898103376689],[137.66224889342544,35.12845617242194],[137.6634112595786,35.12867285879937],[137.6639862208935,35.129156165415814],[137.66461116349777,35.129189531972784],[137.6658610421248,35.12933125862856],[137.66724837623278,35.129731219709896],[137.6680108530194,35.129106374929755],[137.66849828607013,35.12903972033903],[137.66951069788638,35.129331405433916],[137.67049809409315,35.129089785400296],[137.6710730426504,35.12943150615907],[137.6722229290311,35.1296398484031],[137.67263539017344,35.12972320820115],[137.673913597337,35.13010649489425],[137.6749227200543,35.13020658456986],[137.67547266910057,35.13054824349801],[137.67824743409605,35.13058168521037],[137.67883488497355,35.13135663837919],[137.68085968604254,35.13243990340857],[137.6813721544827,35.132473302226074],[137.6820470842563,35.132623269605325],[137.68289703133263,35.132490014547834],[137.68399693715753,35.13194842295001],[137.685196862469,35.13239009652684],[137.68788411809032,35.13256518325364],[137.6884215954474,35.132715211604946],[137.68897733915463,35.13297988302249],[137.68909651001465,35.13298190725456],[137.68914993891258,35.132871462745165],[137.6896214985035,35.132032008596916],[137.69022146041155,35.13103213427677],[137.69013400115122,35.12939898914132],[137.69089646779534,35.128765750809414],[137.69182136717848,35.128732466085424],[137.69230939858843,35.12842189389756],[137.69294628947267,35.128032575890664],[137.69305884051687,35.12670767246301],[137.69360881702232,35.12591610799247],[137.6937963028985,35.125599508894254],[137.69402132214046,35.12442461669628],[137.6941463231036,35.12411631628903],[137.6952462529057,35.124183026466625],[137.69663363102305,35.1241164287841],[137.69785851995195,35.12431651026514],[137.69955843695715,35.124241525196624],[137.70005073624984,35.124558882947895],[137.70144577184385,35.12578314195292],[137.70214570457287,35.12570815383818],[137.702833186486,35.12574145873148],[137.70344563636377,35.12518324102684],[137.70483307142604,35.12418340545121],[137.70558308204022,35.123308501439325],[137.70689547255688,35.123458520483275],[137.70778292638795,35.12401684112377],[137.70887031285696,35.12525005839392],[137.71155761652585,35.12549176217725],[137.7117965584692,35.125780204702934],[137.71279498191984,35.12729160560938],[137.7130324849914,35.127658293061],[137.7135824312334,35.12856648310353],[137.7144323727682,35.12878322322752],[137.7160856706607,35.13118876633945],[137.7138553424202,35.13427610985969],[137.71293848422667,35.13629139288064],[137.71066713103798,35.13702992495035],[137.70782859489898,35.13979659473632],[137.70716818407905,35.140824940161735],[137.70698066721766,35.141824337116915],[137.70631640887848,35.14295435393971],[137.70581534018518,35.143810270599495],[137.70547458837353,35.14435254437547],[137.70660235792076,35.145288034318284],[137.70654237903273,35.1461437725155],[137.70569154272877,35.15014839316472],[137.705262613861,35.153689364868676],[137.70452532112682,35.15782673681672],[137.70423061819406,35.158830121443266],[137.70398302803642,35.15960589420679],[137.70427317377448,35.160842967902646],[137.7042032866619,35.162375858746294],[137.70396700810255,35.1629461431073],[137.70372529374654,35.16336863046481],[137.70372529374657,35.16336863046482],[137.7030436227612,35.16424631169776],[137.70259694048886,35.16561564216299],[137.70274774471798,35.16850793365486],[137.70113505140003,35.17099377274898],[137.70120469546663,35.17144445894332],[137.70395709470552,35.178567504263384],[137.70426744235732,35.18131980040764],[137.70420471684244,35.18272420710207],[137.7035268018738,35.18415937827841],[137.6962702727569,35.18261538678292],[137.6940544698466,35.18189640662162],[137.69312868767568,35.181252193313796],[137.69042371646,35.17624002368188],[137.68860127938504,35.17399157398111],[137.68633045220656,35.17229257369553],[137.683716691337,35.17115853097486],[137.68157785845239,35.17017367767212],[137.6774630739647,35.168959373079794],[137.6722948302655,35.167662958353276],[137.67225301982003,35.16744832842664],[137.66981230891727,35.167099938730466],[137.66955996739284,35.1661006977016],[137.66976504818035,35.16575137782868],[137.67130830226077,35.16595636104784],[137.67151942470753,35.16554517568592],[137.67155786181263,35.16546508121541],[137.67197558548338,35.1653115098798],[137.67270339497432,35.164621241973755],[137.6728109213133,35.164231822127924],[137.6728085635538,35.163382403559666],[137.67410809671085,35.16132979865587],[137.67543478203865,35.15997896150078],[137.67660969645644,35.15843746576737],[137.67704715492084,35.15797081167862],[137.67695966761158,35.1568458989106],[137.67603478547778,35.15375445400605],[137.67647553916362,35.15294016008774],[137.67734362324407,35.152573250099685],[137.67787529627444,35.15221725870026],[137.67806746358227,35.15132456674903],[137.67693921939534,35.15055919745007],[137.67715973712944,35.1491131853251],[137.67667231114442,35.14798826370845],[137.67664996647568,35.14677483395135],[137.6773263891079,35.1453135980918],[137.67709468908492,35.14480926026156],[137.67668217012408,35.14349698317589],[137.67647573588795,35.143418267237884],[137.6756730938885,35.1423605906427],[137.67650990614317,35.14078891185223],[137.67617246914895,35.1402222686266],[137.67532251997795,35.13993059850517],[137.67433508291663,35.14033051694696],[137.67366013398308,35.14044713949643],[137.6732226895331,35.1408220782509],[137.67247272851785,35.14074709547055],[137.67188643279317,35.14091341184884],[137.6712353586767,35.14123027708745],[137.67066039371062,35.1415718962409],[137.6694605090267,35.14121351806259],[137.6680356431498,35.14121346596082],[137.6667357456695,35.14152170285268],[137.66542337507983,35.14006340580079],[137.66454845428106,35.140271708310564],[137.6628236031133,35.140163304275084],[137.66173623594017,35.14037984439041],[137.66129876168753,35.14049648365911],[137.6588864813496,35.14120467101541],[137.65803858705138,35.14070329517133],[137.65652437885598,35.140000583366515],[137.65568680877243,35.139721343818714],[137.65537436440331,35.13942970081344]],[[137.68521437239252,35.15858329875145],[137.6869262477851,35.15934227737716],[137.68741615409857,35.15948612912087],[137.6869262477851,35.15934227737715],[137.68521437239252,35.15858329875145]],[[137.6871568046615,35.15013534456808],[137.68787533267098,35.14871374844392],[137.68856165041228,35.14661915726912],[137.68787533267096,35.148713748443924],[137.6871568046615,35.15013534456808]],[[137.689021082627,35.145335083877654],[137.689199727887,35.14500204752477],[137.68994147774367,35.14341048617052],[137.689021082627,35.145335083877654]],[[137.68998431793628,35.16124295545034],[137.69073109144938,35.162040731486385],[137.6913184445048,35.16212579517092],[137.69073109144938,35.16204073148637],[137.68998431793628,35.16124295545034]],[[137.69417049951483,35.13243916862912],[137.69448690509105,35.13374328077261],[137.69446136299808,35.133637964032864],[137.69417049951483,35.13243916862912]],[[137.69554873489164,35.142343620787464],[137.69565524894318,35.1428760571213],[137.695912515107,35.142154560825844],[137.69554873489164,35.142343620787464]]]}},{"type":"Feature","properties":{"KEY_CODE":"23563003001","PREF":"23","CITY":"563","CITY_NAME":"豊根村","S_NAME":"坂宇場","SETAI":"129"},"geometry":{"type":"Polygon","coordinates":[[[137.65242472685148,35.222961861473124],[137.65336214850566,35.22147041299019],[137.65379961341603,35.21858748227823],[137.6535871106296,35.217504265908325],[137.6544120568925,35.21717100730875],[137.65498701886895,35.21678769971945],[137.655474447279,35.21611284631181],[137.65611187366488,35.21587956224198],[137.65696179666017,35.21529633236154],[137.65714928580755,35.21471304415122],[137.65698193614148,35.213907819312524],[137.6567993560523,35.2127049860237],[137.6573492750204,35.21209677686841],[137.6576492248444,35.2099970873349],[137.65753675746632,35.20932220892795],[137.6567992929504,35.20774741769252],[137.65689929672703,35.20576438436556],[137.6569867464161,35.20488954427757],[137.65687423914213,35.20382305161558],[137.65593685524985,35.2018233368932],[137.65541189396205,35.20069841794566],[137.65522438918944,35.20026516084692],[137.65494941507183,35.199098670769374],[137.65508688848462,35.198215451058616],[137.6559085047083,35.19663653500753],[137.65967385723206,35.18951680106475],[137.66038624979115,35.18920025381136],[137.66101120408007,35.18904194736272],[137.6623363241,35.18840099972929],[137.66277351042245,35.18800048629511],[137.66326664287965,35.18730952836413],[137.66414834685938,35.185792531784635],[137.66428581991852,35.184151020441504],[137.666098115961,35.18243463982715],[137.66518571143123,35.181309752657185],[137.66502322452325,35.180634837947665],[137.6651448072945,35.17969199762043],[137.66521071395215,35.17941827128007],[137.66516069861865,35.17923495032072],[137.6642857879116,35.17894330121548],[137.66361810077936,35.17834917599115],[137.66359838453027,35.17808502470371],[137.66408580850938,35.17759345133325],[137.66441079001314,35.176551892443136],[137.6653481820616,35.17635200870914],[137.66688547373818,35.17585212183234],[137.66831032175276,35.17483569659485],[137.66844779760387,35.17396074878903],[137.66881023390116,35.173619182786204],[137.66913521443377,35.172161058779054],[137.66906778130968,35.17194309217307],[137.66866036760405,35.17110010112342],[137.66878930130832,35.170952526711524],[137.66925520759506,35.170785820740896],[137.66955749524928,35.170677675425196],[137.67003065702013,35.17035389169057],[137.67018420436423,35.16999304180111],[137.67022518747987,35.16990125070867],[137.6699504945013,35.16768032540927],[137.66981230891727,35.167099938730466],[137.67225301982003,35.16744832842664],[137.6722948302655,35.167662958353276],[137.6774630739647,35.168959373079794],[137.68157785845239,35.17017367767212],[137.683716691337,35.17115853097486],[137.68633045220656,35.17229257369553],[137.68860127938504,35.17399157398111],[137.69042371646,35.17624002368188],[137.69312868767568,35.181252193313796],[137.6940544698466,35.18189640662162],[137.6962702727569,35.18261538678292],[137.7035268018738,35.18415937827841],[137.70228949172616,35.185987457947355],[137.7003785379161,35.1893862073276],[137.69929617273553,35.192191393377115],[137.6982521382689,35.19618460086698],[137.69821487261788,35.19835771868213],[137.69926329400553,35.20027619434665],[137.70274680135526,35.203035816312784],[137.7036013275136,35.20405415690724],[137.704027577828,35.2053553131669],[137.7028324454973,35.21054549011926],[137.7029832294507,35.21199096678623],[137.70405120518416,35.21264038243357],[137.70408972198442,35.2154449516938],[137.70448691084582,35.21751609066521],[137.70658453512314,35.22135284841219],[137.70834311166644,35.22157816921626],[137.7094105655983,35.22240995566234],[137.71069937237203,35.22495555711573],[137.71132458040623,35.22729223034125],[137.7123900997753,35.22888198201158],[137.71106878520038,35.22928899047286],[137.71054378696078,35.22996389979929],[137.70904388987373,35.23068049178012],[137.70776897602997,35.23176366834381],[137.7077439721118,35.23219695823089],[137.7058190915677,35.233321736373],[137.70565659130926,35.233888313658746],[137.7043191675443,35.23395494297599],[137.70010694407318,35.231730013915175],[137.69916951533742,35.23141334569555],[137.6967196380645,35.23274639836681],[137.6949323392982,35.233062972163246],[137.69414489564517,35.23367118281971],[137.69160768608742,35.233204392025996],[137.6903703516199,35.23275442945909],[137.68927052524467,35.231196167838014],[137.68830813192722,35.230746199511046],[137.68715826724244,35.23074611740644],[137.68542094141176,35.23117931070866],[137.6850084755713,35.23178755729076],[137.68264625823522,35.233928875829776],[137.68239627600056,35.23474544361738],[137.68149635272366,35.2352203076856],[137.67982161674092,35.232878773445805],[137.67937166239233,35.231520555238674],[137.67863424808834,35.23093722087165],[137.67755940365709,35.23082882649516],[137.67552210909392,35.23102866475656],[137.67355581076274,35.23046343254924],[137.67187257019262,35.22909527642347],[137.6692853849516,35.22817845736108],[137.66777307786097,35.22725344610263],[137.6653233956167,35.22741157921154],[137.6644201000509,35.227737627962775],[137.6623237580077,35.227711241167576],[137.66128639193107,35.227194592041066],[137.6583742075459,35.22818594077457],[137.65614942393663,35.22809436625612],[137.6539746076225,35.2267279891898],[137.65363711569088,35.22411165511055],[137.65242472685148,35.222961861473124]]]}},{"type":"Feature","properties":{"KEY_CODE":"23563004001","PREF":"23","CITY":"563","CITY_NAME":"豊根村","S_NAME":"三沢","SETAI":"77"},"geometry":{"type":"Polygon","coordinates":[[[137.70405120518416,35.21264038243357],[137.70794952458934,35.21140677290739],[137.71085024265204,35.20979190671568],[137.71310611455752,35.20745474138365],[137.71423506519068,35.20460340002031],[137.71545636266848,35.20320270418941],[137.71775452770362,35.20221928118908],[137.72148441710735,35.20119256875054],[137.7211282547582,35.199826499197314],[137.72167000709024,35.19723558586158],[137.72249108371884,35.19624046672605],[137.72391925946073,35.19568320157008],[137.72796789163442,35.19549932532585],[137.72644067431918,35.19191928622056],[137.72480136320954,35.18967286073305],[137.72405242785257,35.188958897030936],[137.723126514122,35.18739741761238],[137.72460992838123,35.18673137262189],[137.72561353020095,35.18564659179043],[137.72523571529658,35.1856243865682],[137.72483088965876,35.184534745017835],[137.7230049152746,35.18227504309339],[137.72131107809156,35.180690566218196],[137.7190176034792,35.17916716858046],[137.71599705921184,35.17633461276996],[137.71153728093847,35.1795448859519],[137.7123331827786,35.177170846446295],[137.71307102614557,35.176336963326634],[137.7147954915063,35.175567569418355],[137.7154315256154,35.17496257876773],[137.71592213429915,35.171671381746656],[137.71652814618204,35.169954459580985],[137.71757874657933,35.16884221098128],[137.7179586701569,35.16659510599301],[137.71879683664136,35.16453359269806],[137.72015093807488,35.163898959777896],[137.72093489886674,35.16296283316118],[137.722053655441,35.16039780147571],[137.72274871860506,35.1573185982783],[137.7245227370003,35.1557707503831],[137.72771463985282,35.157579596891104],[137.72959635357563,35.158260118358044],[137.7331814531186,35.158831316797944],[137.734955757514,35.16002931403301],[137.73800330837798,35.16139357488973],[137.74223708036936,35.16283319452724],[137.74233831673163,35.163177369774914],[137.74123344238055,35.16411515580847],[137.74082517369692,35.165759162979555],[137.74211783109376,35.16517528375845],[137.7438204798176,35.16494416869685],[137.74284129565402,35.16618553293806],[137.74099754775636,35.16743084477941],[137.74046840729272,35.168801403255436],[137.74046336277772,35.169786376643664],[137.74098003143754,35.170898258911905],[137.7422263735273,35.172873044416804],[137.74354408056308,35.17404675213492],[137.74477586222665,35.17395659108101],[137.7484884858255,35.17252710168789],[137.75301805434927,35.17046140588745],[137.7561014207657,35.17080462806708],[137.7573108263381,35.171178045906146],[137.75720431361714,35.1723216943485],[137.75685429236697,35.17320497268406],[137.75710426858092,35.17381320767665],[137.7579292179908,35.17459652918336],[137.7582792039616,35.175521393853586],[137.75956662343845,35.17730458231515],[137.75995408153608,35.17795453798726],[137.7612539871468,35.17862954249675],[137.76171641175574,35.179171169769475],[137.76149145005024,35.179779405299826],[137.760841454447,35.18090431403748],[137.76064145281202,35.18137925107886],[137.76097890947318,35.18243749566891],[137.76006645585605,35.18377066236261],[137.7600164718571,35.18440388468786],[137.7629037333127,35.18507061894036],[137.763753659343,35.18579562440404],[137.76341668354914,35.18639525689907],[137.7630661983698,35.18777870860883],[137.76325370726704,35.188611966143235],[137.76235374051166,35.189561830193966],[137.76089132212945,35.191203260213456],[137.76045386864038,35.191653227422535],[137.75987887590918,35.19249479090839],[137.76036633115194,35.19352800145717],[137.76047882579618,35.194969533389326],[137.76105376961397,35.195327860477136],[137.76212872307954,35.19611952365637],[137.76207868377458,35.19697775158827],[137.76012879439295,35.198302533444284],[137.7598788104882,35.19909412728847],[137.75955384972116,35.19959403614066],[137.75836639547143,35.2003772284054],[137.75735391291806,35.202276977579444],[137.75657898803988,35.20281856154751],[137.75627898709192,35.20506826226368],[137.7551540561106,35.20649299772437],[137.75529156377203,35.20759289736773],[137.75529157920252,35.20788451769637],[137.75481660887766,35.210275827423295],[137.7539916771084,35.211134036260454],[137.75345420978041,35.21253381190079],[137.75201683091794,35.21363361782411],[137.75119188318303,35.214408495513155],[137.7501794421977,35.21600820510632],[137.75025445060743,35.21661650633394],[137.749929518542,35.21816629603726],[137.74960454492782,35.21936608651512],[137.74849991128087,35.21932629553101],[137.74614224659067,35.21990755652323],[137.7447548109368,35.219007649279966],[137.74349231516004,35.21886592967807],[137.7429391063562,35.21921476444508],[137.74107993484313,35.21990741326165],[137.74064244295352,35.2211489685813],[137.73819252313308,35.222048833410724],[137.73688006660572,35.2217572000779],[137.73536760522083,35.22268201675845],[137.73314267982818,35.222307005171224],[137.73058027466718,35.22212358663228],[137.72945531783745,35.22156527369959],[137.72915530288853,35.22098200035258],[137.72615540084357,35.22159018392925],[137.72510545520024,35.22224011261578],[137.72404301237412,35.22170674113714],[137.72310551662284,35.22168174762161],[137.72186809209,35.2226482973968],[137.72079318042145,35.22493140140234],[137.7209306712513,35.225714671966664],[137.7220056053367,35.226372940571096],[137.72245563675042,35.22801445571407],[137.72243065549688,35.229564348413994],[137.72151817896656,35.23089752453422],[137.72039324031104,35.23044750867285],[137.71984327652194,35.2297059067511],[137.71840585830458,35.22923088972829],[137.71665594387503,35.22998076758319],[137.71530604547934,35.22979744105097],[137.71351864024112,35.22908077542799],[137.7123900997753,35.22888198201158],[137.71132458040623,35.22729223034125],[137.71069937237203,35.22495555711573],[137.7094105655983,35.22240995566234],[137.70834311166644,35.22157816921626],[137.70658453512314,35.22135284841219],[137.70448691084582,35.21751609066521],[137.70408972198442,35.2154449516938],[137.70405120518416,35.21264038243357]]]}},{"type":"Feature","properties":{"KEY_CODE":"23563005001","PREF":"23","CITY":"563","CITY_NAME":"豊根村","S_NAME":"古真立","SETAI":"15"},"geometry":{"type":"Polygon","coordinates":[[[137.7230645938314,35.12962188718194],[137.7240691936282,35.12906682166796],[137.72473170869617,35.12816689518598],[137.7260686248758,35.127513181503815],[137.7279815096574,35.126925450833674],[137.72894400796253,35.126092225002886],[137.7297814495247,35.12564226160298],[137.73111890474993,35.125275671806236],[137.73264383946935,35.12450915487072],[137.73353127263383,35.12440084592229],[137.73481874615118,35.12345096316195],[137.73649364377184,35.12347600726315],[137.7370013805278,35.12327706423164],[137.73731860155888,35.123267686624146],[137.7378185804035,35.1231427238572],[137.7384935421444,35.12270945498735],[137.7394059898492,35.12270114200755],[137.73974351028883,35.12265947756381],[137.74019345335043,35.122734541312816],[137.7412559052147,35.12297622321648],[137.74396820878474,35.12300963357272],[137.74481817616294,35.12295960211758],[137.74531812557987,35.12295968642401],[137.7456931488041,35.12187643483454],[137.74541821914104,35.12123482386588],[137.74561826598628,35.11989330717106],[137.74589326083108,35.11924338167433],[137.74560577264592,35.118335142711494],[137.74696825650088,35.11688534787824],[137.74773074056955,35.1160354053142],[137.7477289970584,35.11506072922869],[137.7485557205533,35.114485624552465],[137.7503921483735,35.114143917079666],[137.75118057680194,35.11322755719284],[137.75174369742294,35.11268665751914],[137.7578176282486,35.11245281526738],[137.75968001324728,35.112227955179904],[137.76242984207593,35.11216137612835],[137.7645921705335,35.11312795740824],[137.76647954315254,35.11360295385614],[137.76654205188058,35.11301135248392],[137.7664295499385,35.112811407420324],[137.76439222865787,35.111636416076756],[137.76339229239588,35.11022825099186],[137.76319236102853,35.10882832807077],[137.76537968528666,35.107653558927154],[137.76551720799927,35.10715356253106],[137.7671295912592,35.10567877232889],[137.7692044552844,35.10466225126476],[137.7700668774734,35.103929064890586],[137.7716417573647,35.10310415000793],[137.7736665792522,35.10145438420255],[137.77437906778718,35.10035450063994],[137.77536644990104,35.1003212525751],[137.77831616791204,35.09960473646179],[137.77955354457833,35.0987798869087],[137.7802910112578,35.09740506392046],[137.78167834390226,35.096696916746886],[137.78456556339063,35.09638871311662],[137.7860528427632,35.09572215188839],[137.78821504785958,35.09594737809647],[137.79052725106328,35.09528924166632],[137.79201456314115,35.095306007014365],[137.7928894130008,35.09572266520511],[137.793664348757,35.097580850172406],[137.79426435741502,35.099772330442384],[137.79472685295886,35.102238745120026],[137.79507683018642,35.1029886536024],[137.79722660483256,35.10418864703143],[137.80036391987235,35.10536361365499],[137.80112638778277,35.10589689369357],[137.80116390346075,35.10753833571177],[137.79851428044716,35.117362076247225],[137.79811433541354,35.120203461495066],[137.79918928147634,35.123786397554966],[137.7989017732062,35.12546956442926],[137.79811433920784,35.12666102653518],[137.79731439522266,35.12710266802545],[137.79445213315995,35.12748580905725],[137.7926522983978,35.12810236308935],[137.7919523771512,35.12897726181219],[137.79228981857779,35.133018537201814],[137.79300223010867,35.135151616519266],[137.79570201876038,35.13639324683398],[137.7973268684331,35.136368330703355],[137.79882674504375,35.13527676042547],[137.79968918283728,35.13198548708708],[137.8009640709419,35.13091069759761],[137.80182649298715,35.1306523735438],[137.80426377556097,35.13065246777179],[137.8055941882715,35.13109977104456],[137.8071634814572,35.1323939903633],[137.80821334347274,35.13398552507426],[137.80997561931352,35.13727689925549],[137.8106255591559,35.1378934559289],[137.81452512166283,35.1402349466332],[137.8149625447656,35.140809869241544],[137.81326269657163,35.14250970026098],[137.812250278645,35.144076120974695],[137.81006300473052,35.1453176503807],[137.80835070715003,35.14668406939343],[137.80656344443523,35.148450499995384],[137.80501363302193,35.149716912158475],[137.80321388237275,35.15074172027746],[137.80273897399857,35.15103336519524],[137.8025264910887,35.15260816324632],[137.80208904646224,35.15420794996695],[137.80140161733576,35.154607890020394],[137.80008927174765,35.155566104108715],[137.7993143642752,35.15628262850167],[137.7979269714145,35.157707431356656],[137.79711456177353,35.158632319887765],[137.7959521700247,35.15717408863188],[137.79371487008373,35.15593254834724],[137.79320243342138,35.15479930850479],[137.79089015971883,35.15305772349182],[137.78957774521544,35.15284102366476],[137.78836532362288,35.15262436083368],[137.7874903795765,35.15284096017919],[137.78642794280586,35.153599235988764],[137.78576550085685,35.153957500139256],[137.78387810752102,35.15384916755002],[137.78277818747839,35.15388244746034],[137.78189069864464,35.15432402667339],[137.78029079513735,35.15451567662395],[137.7797658252166,35.154932300919754],[137.77890336616372,35.1557822019568],[137.77789094965456,35.15536553431862],[137.77681598774308,35.15564885800778],[137.7728912539952,35.15502382008459],[137.77207882897252,35.15395719816404],[137.76765050523645,35.15331979346609],[137.76690411876348,35.1532071545011],[137.76629165334145,35.153790426122036],[137.76499171213652,35.15402369763557],[137.76474473524334,35.15480410639933],[137.7649416881068,35.155373580646796],[137.7649041698559,35.15652346385757],[137.7654666168653,35.15770672201076],[137.76522981527032,35.158693638130245],[137.76495413317866,35.15908156531615],[137.7652166036475,35.15984818934328],[137.76509159788387,35.16052313102654],[137.76502909462087,35.1616979948107],[137.76561655286582,35.1628562534525],[137.76538677131632,35.16338310763444],[137.76530403494522,35.16357281739849],[137.76485406693084,35.164381048389664],[137.76492903191885,35.16497266689078],[137.76491654005804,35.165514293115855],[137.764266539893,35.166747464874106],[137.76346659236043,35.167147406430175],[137.76202919160116,35.167247369855225],[137.7612167422607,35.16696402755487],[137.7607417382074,35.16770560639201],[137.76015427920075,35.16788060388795],[137.7597917726651,35.168213869625674],[137.75732932998247,35.16961368747915],[137.7573108263381,35.171178045906146],[137.7561014207657,35.17080462806708],[137.75301805434927,35.17046140588745],[137.7484884858255,35.17252710168789],[137.74477586222665,35.17395659108101],[137.74354408056308,35.17404675213492],[137.7422263735273,35.172873044416804],[137.74098003143754,35.170898258911905],[137.74046336277772,35.169786376643664],[137.74046840729272,35.168801403255436],[137.74099754775636,35.16743084477941],[137.74284129565402,35.16618553293806],[137.7438204798176,35.16494416869685],[137.74211783109376,35.16517528375845],[137.74082517369692,35.165759162979555],[137.74123344238055,35.16411515580847],[137.74233831673163,35.163177369774914],[137.74223708036936,35.16283319452724],[137.73800330837798,35.16139357488973],[137.734955757514,35.16002931403301],[137.7331814531186,35.158831316797944],[137.72959635357563,35.158260118358044],[137.72771463985282,35.157579596891104],[137.7245227370003,35.1557707503831],[137.72313095500803,35.155054657444545],[137.72475102657023,35.15406196833588],[137.725059809182,35.152418524561],[137.72398093412087,35.15065012494229],[137.72606373089155,35.148789565111116],[137.7272942766434,35.14687502343923],[137.728580043971,35.146119965517],[137.7305621319447,35.1453894069555],[137.73187116636623,35.145072599561615],[137.7316292684716,35.144306160219514],[137.7316723148992,35.14288646164215],[137.7313550060209,35.14164020950475],[137.7308275176014,35.14090192686619],[137.73015436824284,35.1396963411886],[137.72873679377093,35.13726604833783],[137.727419206498,35.13555663296095],[137.72603142019472,35.133864628996825],[137.72520936319583,35.13216662531677],[137.7239730944047,35.131158445272426],[137.7230645938314,35.12962188718194]]]}},{"type":"Feature","geometry":{"type":"Polygon","coordinates":[[[137.812250278645,35.144076120974695],[137.81215028356377,35.14560929226729],[137.81250021735633,35.148234033889395],[137.81335014649477,35.150708778489204],[137.81469997688723,35.15250026783916],[137.81589984892034,35.15280857032053],[137.8170872162495,35.150925465452694],[137.8182245658388,35.14955903686672],[137.81988688880816,35.14857583182154],[137.82206160729706,35.14808428153884],[137.8253362886059,35.149784252713694],[137.8288609110238,35.15200919177581],[137.8290108642873,35.15302572549913],[137.82797344837977,35.15493382515095],[137.82741101093058,35.15547542399224],[137.82452381235254,35.15619189482845],[137.82231154564087,35.15709171706519],[137.82161160844322,35.1576500286402],[137.82112414054006,35.159274845369495],[137.8212990949791,35.160249794796954],[137.82294888431394,35.16294958143526],[137.8258235513871,35.16620765739308],[137.82597352755397,35.16695756730329],[137.8255985935269,35.16799083449621],[137.8242362114214,35.16914897870115],[137.82063663405935,35.17265684079374],[137.81838689495024,35.174489889144766],[137.81629961879372,35.175098128468925],[137.8151997692723,35.17493977629078],[137.813912448294,35.174173097293185],[137.8128125752167,35.174014720711945],[137.8105628596004,35.17480627033401],[137.8093754744891,35.17562280056057],[137.80696313008985,35.177872501717346],[137.804688217942,35.17952233199289],[137.80413825384056,35.18035561576376],[137.80317571795217,35.183221991216236],[137.8034756518854,35.18409692774079],[137.80553790013846,35.18655511216019],[137.80754560426664,35.18778882674492],[137.8090625762132,35.1878300219072],[137.81193732769583,35.18650528084186],[137.8130372328351,35.18629701260284],[137.814257916789,35.18658691202195],[137.81545369271035,35.187555470521026],[137.81601853622186,35.18838641431208],[137.81656208722183,35.1901336989673],[137.81658746450108,35.19151966341909],[137.816959732427,35.193326602274006],[137.81777835364497,35.19456141317698],[137.82024994692208,35.19751994873333],[137.82067171810647,35.19835172778068],[137.82124841278167,35.201029294866835],[137.82152333111605,35.20307916479607],[137.82218574759213,35.203954053759794],[137.82322315284236,35.20461237962104],[137.82452301611295,35.20481237167404],[137.82737277713946,35.20440418172459],[137.82927258226167,35.20435422502424],[137.8308974417854,35.20498752242087],[137.83103490376064,35.205729109229324],[137.83043494702784,35.206970662336694],[137.8282851591798,35.20798714441847],[137.82768519328826,35.20875366505225],[137.82754770683766,35.21021189814766],[137.82796013950426,35.21147840314765],[137.82869754628507,35.2115450926784],[137.83183475330378,35.21108696243412],[137.83362207572114,35.21099539937649],[137.8363218217087,35.21140376883396],[137.83735921216842,35.21185374010786],[137.83788415215113,35.212503651033266],[137.83464695766597,35.213745133772],[137.82754767490076,35.21564460145897],[137.82439795943134,35.21591937374418],[137.82164823792542,35.21569430179389],[137.81947346724235,35.214769314775644],[137.81812361559003,35.21466092618799],[137.81617381333834,35.2138943082819],[137.81493647101695,35.212727647951965],[137.8116118371341,35.21186924078272],[137.80964957492202,35.2103443225875],[137.80682484580257,35.209869277563605],[137.8054749482823,35.20928597253562],[137.80233780197761,35.207444401180204],[137.80016304009632,35.20561953311343],[137.79887568430536,35.20527785635273],[137.79720082563645,35.20521945677134],[137.7952760421661,35.204111189609556],[137.79410111276212,35.204944431739044],[137.7930012209212,35.205127673080625],[137.7917263258776,35.204727703789665],[137.79062643396534,35.2052026225665],[137.78885162542753,35.20436934414006],[137.7876642006262,35.20508595894739],[137.78598933295802,35.20565251643518],[137.78346454646018,35.20592739758497],[137.78287713267105,35.20480255390506],[137.78085232365163,35.204235885211716],[137.77930248952993,35.20275275114651],[137.77796507028435,35.20370257249786],[137.7740653905191,35.203252607838245],[137.77425286093288,35.20408581875618],[137.77386538862226,35.20505241524328],[137.77317793881295,35.20555234547818],[137.76930318515474,35.206143753645975],[137.76762829498978,35.206935276274415],[137.76606586408715,35.21022642087432],[137.76834066675218,35.21267623943364],[137.76914060067787,35.214276016708574],[137.7692530636445,35.21610081670269],[137.76826560846087,35.21720901843295],[137.7680781118733,35.218358822034816],[137.76642823686294,35.21867542277818],[137.7647783788537,35.218675310062835],[137.7633784728762,35.22016677344057],[137.76175359575856,35.22065826795395],[137.76045373547782,35.22074990567338],[137.75955377636387,35.22205805588618],[137.75715397792703,35.221449634046955],[137.75652901655886,35.220849688916644],[137.75249181098317,35.22024119351488],[137.7507544332082,35.22075772207965],[137.74946702798047,35.21947441933271],[137.74960454492782,35.21936608651511],[137.749929518542,35.21816629603726],[137.75025445060743,35.21661650633394],[137.7501794421977,35.21600820510632],[137.75119188318303,35.21440849551312],[137.75201683091794,35.21363361782411],[137.75345420978041,35.21253381190079],[137.7539916771084,35.211134036260454],[137.75481660887766,35.210275827423295],[137.75529157920252,35.20788451769637],[137.75529156377203,35.20759289736773],[137.7551540561106,35.20649299772437],[137.75627898709192,35.20506826226368],[137.75657898803988,35.20281856154751],[137.75735391291806,35.202276977579444],[137.75836639547143,35.2003772284054],[137.75955384972116,35.19959403614066],[137.7598788104882,35.19909412728847],[137.76012879439295,35.198302533444284],[137.76207868377458,35.19697775158827],[137.76212872307954,35.19611952365637],[137.76105376961397,35.195327860477136],[137.76047882579618,35.194969533389326],[137.76036633115194,35.19352800145717],[137.75987887590918,35.19249479090839],[137.76045386864038,35.191653227422535],[137.76089132212945,35.191203260213456],[137.76235374051166,35.189561830193966],[137.76325370726704,35.188611966143235],[137.7630661983698,35.18777870860883],[137.76341668354914,35.18639525689907],[137.763753659343,35.18579562440404],[137.7629037333127,35.18507061894036],[137.7600164718571,35.18440388468786],[137.76006645585605,35.18377066236261],[137.76097890947318,35.18243749566891],[137.76064145281202,35.18137925107886],[137.760841454447,35.18090431403748],[137.76149145005024,35.179779405299826],[137.76171641175574,35.179171169769475],[137.7612539871468,35.17862954249675],[137.75995408153608,35.17795453798726],[137.75956662343845,35.17730458231515],[137.7582792039616,35.175521393853586],[137.7579292179908,35.17459652918336],[137.75710426858092,35.17381320767665],[137.75685429236697,35.17320497268406],[137.75720431361714,35.1723216943485],[137.7573108263381,35.171178045906146],[137.75732932998247,35.16961368747915],[137.7597917726651,35.168213869625674],[137.76015427920075,35.16788060388795],[137.7607417382074,35.16770560639201],[137.7612167422607,35.16696402755487],[137.76202919160116,35.167247369855225],[137.76346659236043,35.167147406430175],[137.764266539893,35.166747464874106],[137.76491654005804,35.165514293115855],[137.76492903191885,35.16497266689078],[137.76485406693084,35.164381048389664],[137.76530403494522,35.16357281739849],[137.76538677131632,35.16338310763444],[137.76561655286582,35.16285625345248],[137.76502909462087,35.1616979948107],[137.76509159788387,35.16052313102654],[137.7652166036475,35.15984818934328],[137.76495413317866,35.15908156531615],[137.76522981527032,35.158693638130245],[137.7654666168653,35.15770672201076],[137.7649041698559,35.15652346385757],[137.7649416881068,35.155373580646796],[137.76474473524334,35.15480410639933],[137.76499171213652,35.15402369763557],[137.76629165334145,35.153790426122036],[137.76690411876353,35.1532071545011],[137.76765050523645,35.15331979346609],[137.77207882897252,35.15395719816404],[137.7728912539952,35.15502382008459],[137.77681598774308,35.15564885800778],[137.77789094965456,35.15536553431864],[137.77890336616372,35.1557822019568],[137.7797658252166,35.154932300919754],[137.78029079513735,35.15451567662395],[137.78189069864464,35.15432402667339],[137.78277818747839,35.15388244746034],[137.78387810752102,35.15384916755002],[137.78576550085685,35.153957500139256],[137.78642794280586,35.153599235988764],[137.7874903795765,35.152840960179184],[137.78836532362288,35.152624360833634],[137.78957774521544,35.15284102366476],[137.79089015971883,35.15305772349182],[137.79320243342138,35.15479930850479],[137.79371487008373,35.1559325483472],[137.7959521700247,35.15717408863188],[137.79711456177353,35.15863231988775],[137.7979269714145,35.157707431356656],[137.7993143642752,35.15628262850167],[137.80008927174765,35.155566104108715],[137.80140161733576,35.154607890020394],[137.80208904646224,35.15420794996695],[137.8025264910887,35.15260816324632],[137.80273897399857,35.15103336519524],[137.80321388237275,35.15074172027746],[137.80501363302193,35.14971691215849],[137.80656344443523,35.148450499995384],[137.80835070715003,35.14668406939343],[137.81006300473052,35.1453176503807],[137.812250278645,35.144076120974695]]]},"properties":{"KEY_CODE":"235630060","PREF":"23","CITY":"563","CITY_NAME":"豊根村","S_NAME":"富山","SETAI":"32"}}]}