{"type":"FeatureCollection","features":[{"type":"Feature","properties":{"KEY_CODE":"33445001001","PREF":"33","CITY":"445","CITY_NAME":"里庄町","S_NAME":"大字浜中","SETAI":"548"},"geometry":{"type":"Polygon","coordinates":[[[133.52973823441584,34.4970795006555],[133.53096842392225,34.49668625228195],[133.53169223121353,34.49644589340416],[133.53331821432425,34.4959491433359],[133.5344044434363,34.49559013495019],[133.53668623606572,34.49474869790988],[133.5376779922088,34.493404432763775],[133.53990077191065,34.49395101223006],[133.5418430767189,34.49273499334081],[133.54319833385074,34.49320054707615],[133.54421212113235,34.492131335574356],[133.54512552043883,34.494979332395026],[133.54573775385913,34.49571348485054],[133.54607215277352,34.49796614835883],[133.54477877764242,34.49951898572169],[133.54382300133625,34.50115568230521],[133.54281667040854,34.502187195536834],[133.5423241354902,34.50241460655129],[133.542009529594,34.502395391988394],[133.54181006299245,34.50226521849773],[133.54132582888545,34.50225349908137],[133.54025528306803,34.502784947096245],[133.54012880496265,34.50280849787522],[133.53997892671995,34.50292204751893],[133.53983542717074,34.50309874407447],[133.53973846299755,34.503473226986486],[133.53964184467577,34.50363163378243],[133.5394957454489,34.50426216527202],[133.53950763171798,34.50519868259993],[133.53944594987334,34.50557564867521],[133.5393836015049,34.50612164300243],[133.53934986781564,34.50619791252212],[133.53907727837566,34.50621460067198],[133.53888250522138,34.50622587699336],[133.53782239390821,34.50592996290238],[133.53657946404593,34.505203225116006],[133.5363115987748,34.50491159371289],[133.53620893464998,34.50481035130889],[133.53480253530591,34.50364388722645],[133.53397750776173,34.50270840403649],[133.53354926913795,34.502132871531956],[133.53322286212344,34.501674493934225],[133.53138666953254,34.4993053325636],[133.5313186239471,34.49920600260661],[133.53131862394707,34.499206002606606],[133.53062277725647,34.498292755031336],[133.53040486130638,34.49800383094415],[133.52975786880074,34.49712569080981],[133.52973823441584,34.4970795006555]],[[133.53169223121353,34.49644589340416],[133.5322813242008,34.49776665068586],[133.5322813242008,34.49776665068586],[133.53169223121353,34.49644589340416]]]}},{"type":"Feature","properties":{"KEY_CODE":"33445002001","PREF":"33","CITY":"445","CITY_NAME":"里庄町","S_NAME":"大字新庄","SETAI":"1324"},"geometry":{"type":"Polygon","coordinates":[[[133.53635422423702,34.50513513485929],[133.53657946404593,34.505203225116006],[133.53782239390821,34.50592996290238],[133.53888250522138,34.50622587699336],[133.53907727837566,34.50621460067198],[133.53934986781564,34.50619791252212],[133.5393836015049,34.50612164300243],[133.53944594987334,34.50557564867521],[133.53950763171798,34.50519868259993],[133.5394957454489,34.50426216527202],[133.53964184467577,34.50363163378243],[133.53973846299755,34.503473226986486],[133.53983542717074,34.50309874407447],[133.53997892671995,34.50292204751893],[133.54012880496265,34.50280849787522],[133.54025528306803,34.502784947096245],[133.54132582888545,34.50225349908137],[133.54181006299245,34.50226521849773],[133.542009529594,34.502395391988394],[133.5423241354902,34.50241460655129],[133.54281667040854,34.502187195536834],[133.54382300133625,34.50115568230521],[133.54477877764242,34.49951898572169],[133.54607215277352,34.49796614835883],[133.54573775385913,34.49571348485054],[133.54512552043883,34.494979332395026],[133.54421212113235,34.492131335574356],[133.5457136618737,34.49218423993916],[133.5477054703535,34.491051983019865],[133.54833301561024,34.49101952233684],[133.54979302411533,34.49130016171479],[133.55200103460433,34.49279046144396],[133.55305503205213,34.49244502985024],[133.55400907133657,34.49324399441818],[133.55656407718186,34.492523665876476],[133.55728089577744,34.49292866808036],[133.55894126471546,34.492963257966345],[133.56054332944547,34.493636819674194],[133.5615117931689,34.495351545739446],[133.56207882419312,34.49561063869649],[133.56256311808775,34.49577440855187],[133.56316887322657,34.49643025890405],[133.56347133145698,34.49665612807525],[133.5634570543098,34.49745118931151],[133.56360656788655,34.49674135255052],[133.56427920487388,34.4952082392894],[133.5662705367132,34.49490182569143],[133.5676470425859,34.49630706218835],[133.5679359742678,34.49775535165678],[133.565847645138,34.49927426637093],[133.56604506321395,34.49991838516791],[133.56571706667916,34.50185708852961],[133.56459346044804,34.50308988454754],[133.56424717270647,34.50428192485643],[133.56383872679947,34.50507071380653],[133.56371469373468,34.50598764111193],[133.56395747584727,34.50621257058806],[133.56439645417456,34.50682595745356],[133.56488634944404,34.50763052810892],[133.56466047547653,34.50836299362093],[133.563853302079,34.50913674230035],[133.5627837850345,34.510783437742255],[133.56257611070305,34.511245279781065],[133.56258543995685,34.51150761989675],[133.56240234620353,34.5118497475161],[133.56268810986302,34.51225976438412],[133.56176218605452,34.5129597945083],[133.56125465796313,34.513025476742634],[133.55874531141322,34.511485784739975],[133.5577110962118,34.51085508674853],[133.55706560413506,34.51139401073904],[133.55600160598223,34.51078353453025],[133.55528989823878,34.51224973485442],[133.55372619054026,34.5122085145999],[133.55328915032842,34.51254337094641],[133.5531561117374,34.51257647017768],[133.55153582314202,34.51194113724111],[133.55115498690103,34.51273568634109],[133.55031734236275,34.51264370193939],[133.55089934625846,34.5117097238339],[133.55089610219216,34.51139178377516],[133.550890273607,34.51135075648163],[133.55055545051235,34.51138960622496],[133.55031570446477,34.51053193147386],[133.5501759612965,34.51048145530846],[133.54996674429248,34.51047251002207],[133.54980825456528,34.51058883161113],[133.5490938996965,34.511025992267164],[133.54915563163988,34.508420776786],[133.54958522456624,34.50799953991483],[133.5495847246705,34.50746173671622],[133.54916072858362,34.50721237836926],[133.5486471652574,34.506897509340405],[133.54807660506486,34.507581245255295],[133.5475449675049,34.50793294127098],[133.54716752745125,34.50815251603499],[133.5469803184962,34.50820061772985],[133.54676327348997,34.50847221214625],[133.5467218082931,34.509925470670936],[133.54670591768965,34.510140742302525],[133.5466695804528,34.510222912634354],[133.54655144654384,34.51029920527658],[133.54653324957204,34.51139426753789],[133.54750043093065,34.511411870268496],[133.5474866979701,34.51203339065603],[133.5473536870478,34.51268132938201],[133.54725075425588,34.51245163628659],[133.54718538861036,34.512344447121116],[133.54706233968855,34.512354787770235],[133.54699633453328,34.512343237673946],[133.5468217342856,34.51226154943852],[133.5467051515429,34.51218107795376],[133.5466141504522,34.51222190726077],[133.54638586186675,34.512276225617626],[133.5462675239026,34.51231040073647],[133.5457150468919,34.51231967945365],[133.54555200514008,34.51232102905652],[133.5449117001964,34.51254948146561],[133.54464202943976,34.51234406880899],[133.54439644892656,34.51192949283541],[133.54414930165194,34.51169098005475],[133.54398972172135,34.5114242938569],[133.54410459297483,34.51166787362208],[133.54248526765684,34.511301648533674],[133.54084066567623,34.50984948775531],[133.53825566581583,34.508678003683876],[133.53765933847714,34.507752629511295],[133.5365854211663,34.50701910278698],[133.53635422423702,34.50513513485929]],[[133.55073476332345,34.505827796239736],[133.55073476332348,34.50582779623976],[133.55122249269067,34.50548326963034],[133.55073476332345,34.505827796239736]],[[133.55226562565363,34.50722615840977],[133.55284197132048,34.50777171874491],[133.55393833428795,34.50866456638951],[133.55226562565363,34.50722615840977]],[[133.5544578722746,34.50943837420278],[133.55462910424473,34.509506230658666],[133.55464412086386,34.50919953362751],[133.5544578722746,34.50943837420278]],[[133.554853818985,34.5055755583929],[133.55494770845536,34.50547853846552],[133.55487462772678,34.5054327172994],[133.554853818985,34.5055755583929]],[[133.5601726073148,34.501495137507455],[133.56026694158402,34.50158827767749],[133.56038033377408,34.5013031894835],[133.5601726073148,34.501495137507455]]]}},{"type":"Feature","properties":{"KEY_CODE":"33445003001","PREF":"33","CITY":"445","CITY_NAME":"里庄町","S_NAME":"大字里見","SETAI":"1894"},"geometry":{"type":"Polygon","coordinates":[[[133.54363045945865,34.51871217534274],[133.54546450104667,34.51650285040029],[133.54536564744583,34.51543098591385],[133.54446618158454,34.51451301901284],[133.5446937971786,34.512530476644514],[133.5449117001964,34.51254948146561],[133.54555200514008,34.51232102905652],[133.5457150468919,34.51231967945365],[133.5462675239026,34.51231040073647],[133.54638586186675,34.512276225617626],[133.5466141504522,34.51222190726077],[133.5467051515429,34.51218107795376],[133.5468217342856,34.51226154943852],[133.54699633453328,34.512343237673946],[133.54706233968855,34.512354787770235],[133.54718538861036,34.512344447121116],[133.54725075425588,34.51245163628659],[133.5473536870478,34.51268132938201],[133.54745786543762,34.51277764044213],[133.54844816734817,34.51286766587048],[133.55031734236275,34.51264370193939],[133.55115498690103,34.51273568634109],[133.55153582314202,34.51194113724111],[133.5531561117374,34.51257647017768],[133.55328915032842,34.51254337094641],[133.55372619054026,34.5122085145999],[133.55528989823878,34.51224973485442],[133.55600160598223,34.51078353453025],[133.55706560413506,34.51139401073904],[133.5577110962118,34.51085508674853],[133.55874531141322,34.511485784739975],[133.56125465796313,34.513025476742634],[133.56176218605452,34.5129597945083],[133.56268810986302,34.51225976438412],[133.56240234620353,34.5118497475161],[133.56258543995685,34.51150761989675],[133.56257611070305,34.511245279781065],[133.5627837850345,34.510783437742255],[133.563853302079,34.50913674230035],[133.56466047547653,34.50836299362093],[133.56514679042976,34.50780471648625],[133.5656658853547,34.50898049349543],[133.56676260397995,34.51016537789575],[133.56697536168807,34.51139698412124],[133.5684937476403,34.51202795798827],[133.56874563343428,34.51402005643672],[133.5692469337189,34.513928102739996],[133.56925358208332,34.51392687701187],[133.5694986888428,34.513919672081556],[133.57013770862588,34.513999299321156],[133.5704830016478,34.514118366515554],[133.57126672876703,34.514415817298314],[133.57173729964134,34.51459721742546],[133.57231065656856,34.51475953441708],[133.5724585016706,34.514894411946514],[133.57252237966054,34.51510314371779],[133.57241297869908,34.5158511485106],[133.5731043235355,34.51603686685207],[133.57398652872627,34.51636279491548],[133.57416360489873,34.51641798235838],[133.57433420173095,34.516437068678286],[133.5744239673152,34.516437201063866],[133.57447021315676,34.516422978410795],[133.57483467526106,34.51650383485765],[133.57554472873056,34.51679558362322],[133.57576134093117,34.51687326874778],[133.57589295972423,34.516940427901964],[133.57628070373136,34.51706297768324],[133.5764051477359,34.517133332380546],[133.576792513215,34.51725094747054],[133.57715522344574,34.517394610265505],[133.577393640707,34.51735677949146],[133.57742415931415,34.517444865722005],[133.57705936969464,34.51951357488609],[133.57608386773984,34.521570222728386],[133.57608144008972,34.52157513743068],[133.57475269244037,34.52446506555324],[133.57478721626717,34.52469347896124],[133.57511318985289,34.524988067674805],[133.577780559231,34.525493598860756],[133.57812595494124,34.5257309677663],[133.57903669565604,34.526492865292795],[133.57990525706023,34.52651496279924],[133.581625498874,34.5274357682694],[133.5816640360311,34.5274465695471],[133.5817419160938,34.526847109244954],[133.58275184315985,34.52697217752703],[133.58281469039375,34.5280410086735],[133.58373900238476,34.527930726203536],[133.58428915378002,34.52855205242883],[133.5845131573691,34.52924703466312],[133.58474259373202,34.529475789207105],[133.58514639837398,34.52954347032917],[133.58607985186325,34.53041025526421],[133.5861864599629,34.531150721492054],[133.58498338113196,34.53255035009053],[133.58460389967877,34.531346324544984],[133.58333491435445,34.53088077266368],[133.5831099589052,34.5294446942223],[133.58152052756907,34.52878910816607],[133.58028793736483,34.52887494783523],[133.57981586441258,34.52961722507593],[133.5812709571026,34.52973658423281],[133.5817165965564,34.5302445940056],[133.58117415989418,34.53088122012346],[133.582125614755,34.53143218965087],[133.58192793687024,34.53206782904065],[133.58249942877418,34.533979613372786],[133.58236462814037,34.533978789347614],[133.5821514955098,34.53394382014363],[133.5817616093323,34.53345094479489],[133.58179356827821,34.53315109965082],[133.58072685552276,34.53325613283236],[133.5800442650069,34.531800479591894],[133.57811907918466,34.532185471155415],[133.57718809507077,34.53176405040869],[133.5764278719239,34.53066715644311],[133.57389117505113,34.529961339056996],[133.572751113359,34.530191498775444],[133.57214137975365,34.53102361297366],[133.5716281130252,34.53172756981141],[133.57135694144358,34.53218059876543],[133.57099104909722,34.53255823960337],[133.57080571229886,34.53279923471102],[133.5707282703973,34.533060763110385],[133.57062794065337,34.53319072162866],[133.57043856965078,34.533313646507374],[133.57027552670212,34.53362014193262],[133.57016101073017,34.533765648575596],[133.56998875117858,34.53396249243121],[133.569867294299,34.534178529384334],[133.56978220645158,34.53443803728192],[133.56961252598185,34.534641095496035],[133.56944049281896,34.53481272584796],[133.56852704910773,34.53609849325616],[133.56836002464104,34.53600053653143],[133.56799616403245,34.53573301733564],[133.56775599895226,34.53557374935882],[133.5672194658072,34.53527768165712],[133.5666889098828,34.535714433658406],[133.56624031002707,34.53594631271109],[133.5653867573908,34.536930421033766],[133.56536811866957,34.53717160962143],[133.56524618803508,34.537251704340676],[133.5645193791311,34.53625742294784],[133.56520453505408,34.537255387957025],[133.5643429261907,34.537871780529436],[133.56249782816792,34.538545809593195],[133.56063404414567,34.53777467508395],[133.55970328151662,34.53740635901344],[133.5594778540516,34.53679582488352],[133.5594502004604,34.53582000322138],[133.55927009434367,34.53543542534345],[133.5593010775443,34.53515909825586],[133.559406000105,34.53508721424476],[133.55953535170534,34.534812493938794],[133.56011992635422,34.53438273137418],[133.5605338777902,34.53343420466137],[133.56044897449482,34.532242214843656],[133.5607574769085,34.531550810607456],[133.5594178565175,34.531128492512416],[133.55950009055323,34.53092348627003],[133.55905286881904,34.53102504406507],[133.5589111169136,34.53093892346847],[133.558563948132,34.530786141482125],[133.5583479095677,34.53073603511026],[133.55810955335272,34.530881029734964],[133.55752315541065,34.53125188594442],[133.55717819340384,34.53127421314028],[133.55702900262912,34.53126537954],[133.55661720979685,34.53120783117213],[133.55602693359612,34.53127156422867],[133.5531467257956,34.529953466316655],[133.5511739121858,34.53075074257197],[133.54966651186592,34.529957736745494],[133.54971199113118,34.528256890059275],[133.54914395914136,34.526914432564155],[133.54893350988218,34.52646159781621],[133.54891790413143,34.52564980846824],[133.54892412908853,34.52498719878696],[133.54860905519723,34.524557639314516],[133.5484715620215,34.52437419000021],[133.5481264428142,34.52404543787394],[133.54776762335567,34.523951990181835],[133.54695722952476,34.5237449335147],[133.54688186552832,34.523425100428845],[133.54647508186957,34.522875082818594],[133.54650060231236,34.522325290436115],[133.54666422842362,34.52158676883396],[133.54669958901695,34.52065176039466],[133.54649624525518,34.51846399875077],[133.54363045945865,34.51871217534274]],[[133.56743317935107,34.529599154010604],[133.5675700243053,34.52973848041158],[133.56767169962697,34.52967544408079],[133.56743317935107,34.529599154010604]]]}},{"type":"Feature","properties":{"KEY_CODE":"33445004012","PREF":"33","CITY":"445","CITY_NAME":"里庄町","S_NAME":"大字新庄グリーンクレスト","SETAI":"372"},"geometry":{"type":"Polygon","coordinates":[[[133.54653324957204,34.51139426753787],[133.54655144654384,34.51029920527657],[133.5466695804528,34.510222912634354],[133.54670591768965,34.510140742302525],[133.5467218082931,34.509925470670936],[133.54676327348997,34.50847221214625],[133.5469803184962,34.50820061772985],[133.54716752745125,34.50815251603499],[133.5475449675049,34.50793294127098],[133.54807660506486,34.507581245255295],[133.5486471652574,34.506897509340405],[133.54916072858362,34.50721237836926],[133.5495847246705,34.50746173671622],[133.54958522456624,34.50799953991483],[133.54915563163988,34.508420776786],[133.5490938996965,34.511025992267164],[133.54980825456528,34.51058883161113],[133.54996674429248,34.51047251002207],[133.5501759612965,34.51048145530846],[133.55031570446477,34.51053193147386],[133.55055545051235,34.51138960622496],[133.550890273607,34.51135075648163],[133.55089610219216,34.51139178377516],[133.55089934625846,34.5117097238339],[133.55031734236275,34.51264370193939],[133.54844816734817,34.51286766587048],[133.54745786543762,34.51277764044213],[133.5474866979701,34.51203339065603],[133.54750043093063,34.511411870268496],[133.54653324957204,34.51139426753787]]]}}]}