{"type":"FeatureCollection","features":[{"type":"Feature","properties":{"KEY_CODE":"20432001001","PREF":"20","CITY":"432","CITY_NAME":"木曽町","S_NAME":"福島","SETAI":"1881"},"geometry":{"type":"Polygon","coordinates":[[[137.6392638369168,35.84737094983094],[137.640823984198,35.84628562109228],[137.64202419697776,35.844391940627666],[137.64516682686568,35.84158303109485],[137.64534424095552,35.84023186102055],[137.64618330959416,35.83907181242228],[137.64487695660088,35.838212529342954],[137.64526422692956,35.83756435236362],[137.64482834427892,35.83515025076733],[137.6461004287889,35.833762598136],[137.64708042163227,35.8335672918273],[137.6490641631377,35.834936957359815],[137.65182131348504,35.834014790003295],[137.65588614766,35.834558458206615],[137.6571307153357,35.833556006368184],[137.658762783933,35.83370332206544],[137.66063451872049,35.83172882790317],[137.66213729056943,35.830519576892115],[137.66422614199323,35.83003170137931],[137.66539936487294,35.829155074601196],[137.66557544137711,35.82790498141988],[137.6664583685325,35.82695998146455],[137.66612605607833,35.82608555318579],[137.66758463221586,35.82425344203456],[137.66892828906018,35.824142670318615],[137.6711454545282,35.823225824218135],[137.67406780516055,35.821274174815514],[137.67333440595021,35.82016949886191],[137.67487307212156,35.81919418949713],[137.6764283279733,35.819463163141876],[137.67702101345108,35.81933529901376],[137.6773423263459,35.81902152328522],[137.67737668731777,35.81869944643633],[137.676325260755,35.816451857966],[137.67571431140522,35.81625806994369],[137.67554501645904,35.8161178873604],[137.67521762956451,35.81551524998967],[137.6745703633494,35.815081048724416],[137.67430028415683,35.81456412967552],[137.67401824360485,35.814075556231835],[137.67278315728393,35.8134729946146],[137.67147554630668,35.812746668834855],[137.66940700405164,35.812454288601394],[137.66877856291447,35.81244993586109],[137.66775083554177,35.81242700181047],[137.66736176964622,35.8117860044827],[137.666481544577,35.811381737380515],[137.66562453302137,35.81135365117601],[137.66525952579343,35.8113890311549],[137.66483137295512,35.8115187672771],[137.6647307142758,35.81150542600955],[137.6643747232723,35.811414469298214],[137.66405091226125,35.8112226193116],[137.6639434474655,35.81110811371219],[137.66347842478044,35.81106065006646],[137.66313587497356,35.81117200037306],[137.6627484104145,35.81113139587469],[137.66244333697279,35.81099970113311],[137.6619498747098,35.81070554249472],[137.6618747748205,35.810464864725425],[137.6614893760572,35.81022833744534],[137.66130431322435,35.81011960726995],[137.6610183776984,35.80927076888992],[137.66125754067835,35.80829603806048],[137.6614495773271,35.807741254158685],[137.6611573520537,35.8063899375184],[137.6604784748603,35.80602495748476],[137.66036506767347,35.805006672321284],[137.66035449704344,35.80490232944478],[137.66032672892257,35.80459246411559],[137.6600651489027,35.8043883979396],[137.65970316942074,35.80413938893749],[137.65937120146162,35.803979084586786],[137.65903482567936,35.803515382799105],[137.65875104769412,35.80320372406968],[137.6585989018441,35.80291826786611],[137.65903930402152,35.80272227060458],[137.65862346107352,35.80168925370357],[137.6588805633733,35.80085054216885],[137.65901386892295,35.8003490441781],[137.65877628893796,35.80007564903006],[137.65870202941719,35.79976545948163],[137.65917823339524,35.79873867026902],[137.65961528730736,35.79848893836707],[137.66004936417377,35.79816019625036],[137.66035540875433,35.79634857676628],[137.66063585095816,35.79586708212765],[137.66083989410188,35.79564731525787],[137.66163321483296,35.794704886123725],[137.6619717164206,35.79386990438598],[137.6623911222209,35.79308285908716],[137.66257268053627,35.79278077558984],[137.66249408373176,35.79214193074534],[137.66263916612058,35.79198811679738],[137.6643753370678,35.791374570668815],[137.66554497791492,35.79152804036812],[137.66730013100823,35.79095565374467],[137.66893375906088,35.79124504030528],[137.6701962683969,35.792533508983226],[137.67151519976406,35.7962396596669],[137.67051582052648,35.79798018050256],[137.6712307383807,35.79935651452555],[137.6724689679221,35.800773500458185],[137.67284119015662,35.801519544521454],[137.67342699129253,35.80188380144606],[137.67452066269854,35.80301942415041],[137.67545375822755,35.803563027896104],[137.67638665373252,35.80411926274977],[137.67687718159755,35.804321696509305],[137.67775261647398,35.80444145848843],[137.67811465345423,35.80469041336329],[137.67811683466843,35.80523393094812],[137.67818915950113,35.80573999334019],[137.67868193362534,35.80610359820984],[137.67882737460164,35.80667020779687],[137.67914266314375,35.80694411791943],[137.6802631948608,35.80737520963492],[137.68052490056226,35.807572911598506],[137.68157194566479,35.808739737110095],[137.68413027703053,35.81157893246872],[137.68460687365013,35.81201823449646],[137.6863992139287,35.8120113881816],[137.68728940580897,35.81183097879123],[137.68767618376776,35.81194102536745],[137.68833347770445,35.81216033152203],[137.68933644033865,35.81195854042737],[137.6900494359595,35.8120391771892],[137.69119431295312,35.813522523853294],[137.69231298918896,35.814155667401366],[137.6929745642923,35.81471623746116],[137.69370315227877,35.81479695390527],[137.6940716091088,35.814420238683645],[137.69551936715712,35.81512191679619],[137.6968803305675,35.81635069597351],[137.697062944,35.817871767730914],[137.6966452985111,35.81966692038841],[137.69723895407043,35.8200500665413],[137.6982379636367,35.820239987536034],[137.69947540050566,35.82026935390317],[137.70134747257234,35.8208389486297],[137.70173545002135,35.8208352037213],[137.70230998584475,35.82080741575669],[137.70319948569087,35.82109136620062],[137.70413904726107,35.821410427624656],[137.7044455676823,35.82179796623979],[137.70483168159035,35.82199011380556],[137.70507352125026,35.821858994838436],[137.70577388906534,35.821655064832576],[137.7061182550978,35.82136030502819],[137.70693638959773,35.82102442879003],[137.70944405964624,35.821284237242295],[137.71163018055205,35.82149448815379],[137.71302292272696,35.82150676928442],[137.71362735304962,35.82158655743558],[137.71412014591374,35.82197528491708],[137.7144649172964,35.82163626423119],[137.7150350360093,35.821267112460454],[137.71513910910355,35.8212344138618],[137.71673681995432,35.820624103438725],[137.71754519946123,35.82048400490446],[137.7182345475963,35.82061487936189],[137.7190820878261,35.82043078610509],[137.71953981895348,35.82044639357149],[137.7204023289362,35.82072056568066],[137.72061273133974,35.82062714835092],[137.72112055485832,35.82027652573646],[137.72122129713938,35.82028349676031],[137.72231123206905,35.820713974061874],[137.72265159194944,35.820823612040215],[137.7238147438882,35.82130192615282],[137.72406156578026,35.821455194611374],[137.72507836605214,35.82222644795241],[137.72545050263014,35.822661742891945],[137.72692658769722,35.82248164702181],[137.72768404542555,35.821993588986665],[137.72859219220462,35.821961499243265],[137.73046717869804,35.821862909028354],[137.73121165049898,35.82191190960561],[137.732078447155,35.82215127922122],[137.73318631669858,35.822335302481825],[137.73342294366438,35.82193234655875],[137.73494131430633,35.820990902041075],[137.73593434377065,35.82020094359021],[137.73622469619303,35.81985520186686],[137.73646144293593,35.819445923263196],[137.73613043589654,35.818764461359486],[137.73611983538615,35.81824617775773],[137.7362066997689,35.81809507381804],[137.73676385167883,35.81744135983252],[137.7372307148267,35.817305286576214],[137.73784482144637,35.81799170787515],[137.73797463319903,35.81821370299473],[137.73844728933713,35.81828621306304],[137.73870996704966,35.81840163083475],[137.73925356161314,35.818360832677584],[137.73965310909503,35.81836652683542],[137.7402022910672,35.81854694956507],[137.74075586677205,35.8182660555881],[137.7413928688447,35.8181942377146],[137.7419417531045,35.81840624914415],[137.74233894266376,35.81825075739138],[137.74292350607988,35.81838398512172],[137.74304716959693,35.81843532091087],[137.74533522048267,35.81853817364172],[137.74594393525402,35.818175442522715],[137.74637885656907,35.8181339292861],[137.74764430992093,35.81682420269891],[137.74873566043738,35.81628752715783],[137.7488767632301,35.816130414116515],[137.74893447481958,35.81577686701425],[137.7490303282711,35.815072815776404],[137.74903729511337,35.81433344236157],[137.74967620193888,35.8132188452737],[137.75060983122782,35.81253266127346],[137.75107485869128,35.81258611851441],[137.75245107813012,35.81227869645882],[137.7530262194957,35.81216851605699],[137.753800292196,35.81195529965074],[137.75423644711952,35.811768413254654],[137.75572551178132,35.81183452188124],[137.75631543835414,35.81180657477168],[137.75793249964522,35.811876599695104],[137.75872121911755,35.812159539246856],[137.75990480360383,35.812539704084436],[137.76058402080787,35.8129230765413],[137.76104027963623,35.813083880130755],[137.76168420766817,35.813087840730994],[137.76272557611043,35.813331223094636],[137.76337684954976,35.81337313801602],[137.7639764923824,35.81313666254793],[137.76558691187145,35.813086491995506],[137.76636718420175,35.81261095639419],[137.76749009690727,35.81199848744656],[137.7689267200512,35.8118555664246],[137.76990028104956,35.812686831621825],[137.77031754674695,35.8147619833029],[137.76935112204706,35.817751922281886],[137.7665796421144,35.8220678023239],[137.7634256531166,35.82444828015833],[137.76109684444614,35.82536870261929],[137.75979047266762,35.82726783519398],[137.75936034818668,35.83000588784592],[137.75679732009576,35.83270777279435],[137.7544369297696,35.83620246029946],[137.75367967181566,35.83766939191007],[137.75083241500323,35.83975167646689],[137.74841201415836,35.84119624779518],[137.74428289144387,35.84273862713261],[137.7415629928288,35.843857240387464],[137.73683385763255,35.84513366599199],[137.73487613176178,35.84531947304547],[137.73172564502067,35.84681399880269],[137.72949913756057,35.84693817661405],[137.72768419507602,35.8479447456257],[137.72724389529347,35.848387970148835],[137.7234539885876,35.85054363816126],[137.72143709870446,35.85122286761085],[137.71866134800487,35.85158587290853],[137.71544502910876,35.851733362957745],[137.71318645797902,35.85132025720658],[137.7094759670508,35.851428310774224],[137.70757457359346,35.85192642471474],[137.708678293648,35.852674668080915],[137.70863245829932,35.85335168761225],[137.70677168107903,35.852366646252136],[137.70693603249447,35.8526859381737],[137.70699977460333,35.85329322742431],[137.70708250698007,35.85507573552172],[137.70699702073708,35.85524336902831],[137.7068572439164,35.85526063319715],[137.70667968433838,35.85515490644261],[137.70327665582587,35.857349541959486],[137.70102819654534,35.85818683235516],[137.69879338228102,35.858214721588865],[137.69513739251317,35.85948322596524],[137.6944715232518,35.8603197153991],[137.69240865140287,35.860806419119946],[137.69154510756923,35.859037073049684],[137.69078698403808,35.857494297598194],[137.69009522300533,35.85691223913461],[137.6874247475021,35.85580899888827],[137.68530836472442,35.85509195328423],[137.6842165572202,35.85449147137789],[137.68342701180592,35.85381981509372],[137.68121701754737,35.85317255433323],[137.67807856342355,35.85279321399002],[137.67557776947567,35.85279731830456],[137.6745293469329,35.855187911249516],[137.6735731575164,35.859018896804386],[137.67297538615625,35.8594911713321],[137.67184809299465,35.86006799688696],[137.67072369688572,35.86015677623569],[137.66921727325013,35.86263652369506],[137.66778769601294,35.863284424172925],[137.66603043561173,35.86295601579274],[137.6648897718267,35.863247490520266],[137.66428770897414,35.86356030427721],[137.66389718200094,35.864133370042545],[137.66357092161297,35.86492881295939],[137.66281219241733,35.86761033137271],[137.66161598144552,35.869588160879864],[137.6606183146356,35.87013280232247],[137.6582480909393,35.87037716612706],[137.656537473209,35.87095060945135],[137.65621865017513,35.871508305894466],[137.65617007540192,35.87211655256239],[137.6562048633292,35.873005931215566],[137.65604479983142,35.874272708135635],[137.65508682564902,35.87492360484404],[137.65339675956898,35.87514000131374],[137.65310987071632,35.87379690731974],[137.65171204859894,35.87381233554789],[137.65147106424226,35.87310915714837],[137.65198219927387,35.87140963785025],[137.65019319524845,35.86916303272698],[137.64793076916814,35.867627156595],[137.64703603491822,35.865266745992145],[137.64691190921434,35.86344896280796],[137.64635431428275,35.86331861735452],[137.64625983567933,35.86163375888301],[137.64521535040595,35.85948713684502],[137.64616751657348,35.85901359782141],[137.64613948210126,35.85692474124472],[137.64663583179723,35.855525293145874],[137.6456067415484,35.85484495326241],[137.6443724935773,35.850864253457424],[137.64248081135113,35.85029150377095],[137.64168329721576,35.84866165404256],[137.64064842126336,35.847816907924056],[137.6392638369168,35.84737094983094]],[[137.69124354023234,35.842992543919],[137.69223352648206,35.843681082091926],[137.69192165288194,35.84336731052069],[137.69124354023234,35.842992543919]],[[137.69385453749112,35.84543534132403],[137.69415724469962,35.847041134274306],[137.694145316207,35.846929375483235],[137.69385453749112,35.84543534132403]],[[137.69678728037144,35.85114080013894],[137.69700819745782,35.851327538032166],[137.6974276747465,35.85096815058242],[137.69701528388637,35.850856522953436],[137.69678728037144,35.85114080013894]],[[137.69786108346287,35.8509510562821],[137.69849268989935,35.850869246203544],[137.69851774428471,35.849798549795345],[137.69786108346287,35.8509510562821]],[[137.69824811152645,35.85260147958881],[137.6982850508362,35.852738243621985],[137.6984255347238,35.85267627974337],[137.69824811152645,35.85260147958881]],[[137.69842959108746,35.849353940712206],[137.69855714536175,35.84943314350591],[137.6986826259973,35.849426126600235],[137.69842959108746,35.849353940712206]],[[137.70042863028226,35.85000860162421],[137.70141683717702,35.85053772754099],[137.70065637731605,35.85011013920952],[137.70042863028226,35.85000860162421]],[[137.7041566413126,35.85396649416845],[137.7047067852317,35.85341782437853],[137.70418668481395,35.85380793294185],[137.7041566413126,35.85396649416845]]]}},{"type":"Feature","properties":{"KEY_CODE":"20432002024","PREF":"20","CITY":"432","CITY_NAME":"木曽町","S_NAME":"新開","SETAI":"796"},"geometry":{"type":"Polygon","coordinates":[[[137.63329097193864,35.91545309648242],[137.63372405866647,35.91278303488568],[137.6370156149698,35.911918821762484],[137.6391843751565,35.91071155507777],[137.64035347101154,35.909639283094144],[137.6408592985945,35.90775651499599],[137.64023462242224,35.90733496083844],[137.6394744581207,35.90615723836909],[137.63866388178408,35.90569642630318],[137.63793085737848,35.9052361571357],[137.63771871734093,35.904741705047265],[137.63805879750993,35.90418801901027],[137.63910793632448,35.90306118814987],[137.63985755097957,35.900188008993254],[137.63993823023708,35.899858346728735],[137.640002437801,35.899715075436006],[137.64192602976675,35.89889149539176],[137.6428885974598,35.89822217206768],[137.64420347191526,35.896932890392996],[137.64423368856345,35.89628851628107],[137.6441151425432,35.89575682444655],[137.64390367392167,35.89519920118223],[137.643865724741,35.89475339904835],[137.6441217316377,35.89406007957729],[137.64379036795725,35.89309715048953],[137.64508439226407,35.891573890874454],[137.64541260600546,35.89066621568912],[137.645504791255,35.89039828923797],[137.64667443123093,35.8906846675078],[137.64678743823183,35.88884016669164],[137.64718106086875,35.88798666561513],[137.64813165816201,35.88696332221133],[137.64914165793226,35.88619949444482],[137.64951842770444,35.88545961274879],[137.64988597319183,35.88448899805404],[137.6510603249801,35.884332988941374],[137.65222511215623,35.88323844986684],[137.65230617066553,35.882923031014094],[137.65194307496148,35.88201677743149],[137.65235115665774,35.88161519835827],[137.65276430473182,35.88110305954981],[137.6529709206662,35.88065583853433],[137.6529886456625,35.88045372524005],[137.6531945861861,35.88006968608763],[137.65338544268334,35.87964761408961],[137.6532257231071,35.87933051540837],[137.65288568247277,35.87881938742939],[137.65278714110167,35.878591185615534],[137.6527760728929,35.878167699708875],[137.65310780553426,35.877645507061054],[137.6531907814528,35.87714052996158],[137.65322392170205,35.876944854071276],[137.65338743903908,35.87580532902907],[137.65340448918298,35.87566640766653],[137.65339675956898,35.87514000131374],[137.65508682564902,35.87492360484404],[137.65604479983142,35.874272708135635],[137.6562048633292,35.873005931215566],[137.65617007540192,35.87211655256239],[137.65621865017513,35.871508305894466],[137.656537473209,35.87095060945135],[137.6582480909393,35.87037716612706],[137.6606183146356,35.87013280232247],[137.66161598144552,35.869588160879864],[137.66281219241733,35.86761033137271],[137.66357092161297,35.86492881295939],[137.66389718200094,35.864133370042545],[137.66428770897414,35.86356030427721],[137.6648897718267,35.863247490520266],[137.66603043561173,35.86295601579274],[137.66778769601294,35.863284424172925],[137.66921727325013,35.86263652369506],[137.67072369688572,35.86015677623569],[137.67184809299465,35.86006799688696],[137.67297538615625,35.8594911713321],[137.6735731575164,35.8590188968044],[137.6745293469329,35.855187911249516],[137.67557776947567,35.85279731830456],[137.67807856342355,35.85279321399002],[137.68121701754737,35.85317255433323],[137.68342701180592,35.85381981509372],[137.6842165572202,35.85449147137789],[137.68530836472442,35.85509195328423],[137.6874247475021,35.85580899888827],[137.69009522300533,35.85691223913461],[137.69078698403808,35.857494297598194],[137.69154510756923,35.859037073049684],[137.69240865140287,35.860806419119946],[137.6944715232518,35.8603197153991],[137.69513739251317,35.85948322596524],[137.69879338228102,35.858214721588865],[137.70102819654534,35.85818683235516],[137.70327665582587,35.857349541959486],[137.70667968433838,35.85515490644261],[137.7068572439164,35.85526063319715],[137.70699702073708,35.85524336902831],[137.70708250698007,35.85507573552172],[137.70699977460333,35.85329322742431],[137.70693603249447,35.8526859381737],[137.70677168107903,35.852366646252136],[137.70863245829932,35.85335168761225],[137.708678293648,35.852674668080915],[137.70757457359346,35.85192642471474],[137.7094759670508,35.851428310774224],[137.71318645797902,35.85132025720658],[137.71544502910876,35.851733362957745],[137.71866134800487,35.85158587290853],[137.72143709870446,35.85122286761085],[137.7234539885876,35.85054363816126],[137.72724389529347,35.848387970148835],[137.72768419507602,35.8479447456257],[137.72949913756057,35.84693817661405],[137.73172564502067,35.84681399880269],[137.73487613176178,35.84531947304547],[137.73683385763255,35.84513366599199],[137.7415629928288,35.843857240387464],[137.74428289144387,35.84273862713261],[137.74841201415836,35.84119624779518],[137.75083241500323,35.83975167646689],[137.75367967181566,35.83766939191007],[137.7544369297696,35.83620246029946],[137.75679732009576,35.83270777279435],[137.75936034818668,35.83000588784592],[137.75979047266762,35.82726783519398],[137.76109684444614,35.82536870261929],[137.7634256531166,35.82444828015833],[137.7665796421144,35.8220678023239],[137.76935112204706,35.817751922281886],[137.77031754674695,35.8147619833029],[137.76990028104956,35.812686831621825],[137.7689267200512,35.8118555664246],[137.76961700239332,35.81188502834158],[137.77051264444125,35.81193787967516],[137.77127003010065,35.811417935226096],[137.77220719109818,35.810741108261816],[137.77238794835733,35.81048941560794],[137.77292506755114,35.810290442340936],[137.7730344251883,35.81020894933509],[137.77451676612344,35.808021836944064],[137.77463466112494,35.80785191553659],[137.7749070514283,35.807332172752595],[137.77689253238333,35.8065415549929],[137.77746786088278,35.80640598343823],[137.77884010331735,35.80522295736985],[137.779668878776,35.804507470439994],[137.78077494593396,35.80272876733961],[137.78081677761415,35.802394064930034],[137.78173969955208,35.80112613920252],[137.78308800785538,35.79957319808238],[137.78381929063804,35.79891081970922],[137.78501317927442,35.79812795338989],[137.78618070783264,35.7976862211475],[137.7863612190741,35.79702055864457],[137.78640876716827,35.7964741810696],[137.78653847826337,35.79584928541799],[137.78686594680963,35.79566163805771],[137.78742718341277,35.795355303702536],[137.7884226041072,35.79507050526303],[137.78907453642734,35.79503013627467],[137.78935876915983,35.79490227314931],[137.79107799667864,35.79346523709637],[137.79172671110612,35.79247369187375],[137.79201338489017,35.79162854641697],[137.79211383968448,35.79079493901213],[137.79274998910347,35.790346815532516],[137.79298429196757,35.790164920407435],[137.79336928607586,35.78960474111924],[137.79368770798868,35.78955605801848],[137.79548318859779,35.78956976537539],[137.79658671698292,35.788848610783226],[137.79676927349146,35.78877121875404],[137.7980414487208,35.788870192265854],[137.7984686205157,35.78895550040886],[137.79894589880828,35.7891217264736],[137.7993740288482,35.78909806813075],[137.8001284691982,35.78907196282734],[137.80150383668635,35.78930008107339],[137.8021002252491,35.78960863001684],[137.80245772832728,35.78971096323934],[137.80309739798932,35.78965582981481],[137.803685173934,35.78972897219171],[137.80474651600912,35.78947363607849],[137.80500007017403,35.789390553548316],[137.80946337549472,35.79086671205612],[137.81226691389026,35.79277274853239],[137.81236263507523,35.79344428755705],[137.81376942603134,35.79532308589307],[137.81596419744784,35.79696982314168],[137.81745966610964,35.797059086758544],[137.81912121670607,35.798423963281735],[137.82278909647872,35.7989330049614],[137.82512362240092,35.80055148620921],[137.8257008147786,35.801787097124134],[137.82788702138276,35.80366232731557],[137.8284485841213,35.804918792236485],[137.82789349930914,35.80475476238771],[137.8272400015194,35.80479077529804],[137.825530267563,35.8051747977936],[137.82452249629546,35.805219373111214],[137.82136450217155,35.806068324213236],[137.82021253803495,35.80613719285748],[137.81843865162244,35.80620672717181],[137.81799614543863,35.80626284332574],[137.81710778549538,35.806760259637464],[137.816516326088,35.80740169561773],[137.81602976281545,35.80780086326001],[137.81448512140065,35.808700653538864],[137.81328071558204,35.808886399833135],[137.80884505774034,35.8100375702861],[137.8059480658487,35.81039351387977],[137.80544436533643,35.81157132587283],[137.80487288759477,35.812263064589786],[137.80438727118965,35.812544957976144],[137.80384197678507,35.81259204208791],[137.80179416152407,35.81340498075464],[137.7991078072919,35.813757791330616],[137.79878537222098,35.81418297323207],[137.79803949394335,35.816577719370336],[137.79688693838017,35.816696585756326],[137.79640417942056,35.816643537197976],[137.79407533912735,35.81608557152646],[137.79288292603923,35.816643776164966],[137.79230209157058,35.81721816175452],[137.79207762645686,35.8181798319965],[137.79187600727957,35.81946403026852],[137.79084280671313,35.8211829568818],[137.7902653529244,35.8213721494798],[137.7891740676106,35.82153316416678],[137.7849012060333,35.82390690913624],[137.78337120553496,35.82425367182341],[137.782578330005,35.82438291180452],[137.7813635614086,35.824551482242924],[137.77986542064562,35.82535476003417],[137.77998599067794,35.825665305811576],[137.78006548385275,35.8259672426882],[137.77983347794432,35.82661063360315],[137.7797424701177,35.82700783861577],[137.7803140649961,35.82861066878196],[137.7795579323811,35.82979100495394],[137.7784328862092,35.8302531870139],[137.77700225352055,35.83153414078206],[137.77594325442485,35.833215071281515],[137.77550404520036,35.83571197717537],[137.77547521399327,35.837754986541874],[137.77474879366045,35.83903597667131],[137.77484715574056,35.839530605773966],[137.7743043235113,35.84041494130231],[137.77379410402995,35.84110687579127],[137.77386892930033,35.84248478461646],[137.7722709321117,35.842910573654464],[137.7716571189324,35.84264251252477],[137.76946462844032,35.84220275402023],[137.76712431968787,35.84394701449136],[137.76288974572054,35.84531543447231],[137.76104083436027,35.84506126536414],[137.7591287096062,35.845522636261016],[137.758542615567,35.846616002014564],[137.75599398987515,35.846939396574875],[137.75503816080732,35.84797185732006],[137.75292016701567,35.84789172009172],[137.74885897486095,35.848280943435455],[137.74665636634788,35.85007174600018],[137.7466113440052,35.851562038832355],[137.74560401677246,35.85257735214192],[137.74445725937207,35.85472643413386],[137.74432027842764,35.85506891089603],[137.74449963576402,35.855681329916166],[137.7440783639192,35.85730210969333],[137.7429210289062,35.8594145558376],[137.74167581972148,35.86068617088902],[137.73987708086165,35.861935149768],[137.7397912147999,35.86213956859129],[137.73813493056932,35.86349188136316],[137.73550672197678,35.86416741419392],[137.73378927225167,35.86521185310105],[137.73258238509305,35.86484819102639],[137.73208541808788,35.86484682997074],[137.72864174129168,35.86533003830893],[137.728081669895,35.86591076129811],[137.72626314320735,35.86666140479509],[137.72488341528586,35.865864669572254],[137.7247971505811,35.865281621868576],[137.72471087704724,35.86660428312116],[137.72471353588534,35.86677487893331],[137.72622696180596,35.86875802622446],[137.72857109845452,35.87066715775693],[137.72993718349508,35.871295206375976],[137.7308030662627,35.87173580006398],[137.73177706689054,35.87257354147733],[137.733091816094,35.87411607844027],[137.7357863775691,35.8744030204307],[137.73635777223677,35.87476804591569],[137.7371560626716,35.87541717638425],[137.73780789839347,35.87633572001022],[137.7382445814346,35.87676644335211],[137.73866582264054,35.87749082596023],[137.7388357330772,35.87822357262631],[137.73941513200978,35.87938432465129],[137.74072051215722,35.880895527977586],[137.74084826307623,35.88097284760626],[137.7414860354033,35.881290174154344],[137.7420240473854,35.88146247672956],[137.74236006084305,35.88251190272066],[137.7429000266937,35.88393424972883],[137.7429925364806,35.8843965484514],[137.74363621745002,35.88582516665392],[137.74440084568093,35.88692232325631],[137.7454178345349,35.887671950362986],[137.74558188006614,35.88791123924328],[137.7456801848325,35.88835797781286],[137.7455552827922,35.888835953722285],[137.74575296610178,35.889141862239306],[137.7456703119274,35.88939886478279],[137.74570506359294,35.88973094110998],[137.7458630132058,35.8899930756195],[137.7464429312989,35.89041743515076],[137.74649407035272,35.890664386432555],[137.74647431879285,35.89110493711107],[137.74664420862817,35.89152311142364],[137.74657409038153,35.89186360529257],[137.74637410554647,35.892502518373306],[137.74622874934468,35.892791764386324],[137.7462714224412,35.89299151263678],[137.7465398723065,35.89359345766847],[137.7465505523874,35.893872801636036],[137.74659838018826,35.89400367418635],[137.74667780646817,35.894562733992004],[137.74670813452366,35.894649962853734],[137.7468417611427,35.89489561781157],[137.7468126450323,35.895620845056264],[137.74693969516355,35.89585739503453],[137.74678057210244,35.89642040186624],[137.74676313532,35.896844653634595],[137.74720101671818,35.897440415595185],[137.74735889671365,35.89772068449925],[137.74763318344523,35.897936391713166],[137.74794614918665,35.8985458834127],[137.7477699243019,35.89879504206223],[137.7476466295875,35.89910256192201],[137.7477116008674,35.89954365682361],[137.7479309036631,35.899918611672184],[137.74807034565407,35.90026405538324],[137.74804915386943,35.900619365761074],[137.74804687446718,35.90156418691434],[137.74881064971296,35.90188452184634],[137.74928096346383,35.9023498947645],[137.74951881353604,35.90265967814517],[137.74976217470083,35.90285342750323],[137.74981373979145,35.90305686804049],[137.7500391475066,35.90350257789305],[137.75028128152047,35.90382688231933],[137.75050128778088,35.9048456324116],[137.75074729373688,35.9052280012123],[137.7507468833521,35.9052715234097],[137.75048773148617,35.906044278120966],[137.7505933353553,35.90619002489304],[137.75098182151677,35.90659866577936],[137.75100041314107,35.90675656275603],[137.75106497195583,35.9069963463405],[137.75162382028998,35.907779630816115],[137.75212164896786,35.90793869821509],[137.75290348105884,35.908482170623664],[137.75318837130777,35.90900260559445],[137.75379378285146,35.90933824853924],[137.75391773601186,35.90942968710456],[137.7541385619272,35.910127456741385],[137.75430615617464,35.91055829882229],[137.75421813797374,35.910916821948284],[137.75421747628485,35.91145724887202],[137.75414892230452,35.91164180067215],[137.75370788569316,35.912308244733424],[137.75372418267438,35.9124715555688],[137.75356119192148,35.91273894150723],[137.75362441834724,35.913361360080664],[137.75353424550605,35.91346960667905],[137.75354118417002,35.91368001941551],[137.75367579939686,35.91406531431891],[137.7537101842012,35.914440929608176],[137.7533640956116,35.91520769472371],[137.7532655157082,35.91526148496042],[137.75309564824428,35.91531120534725],[137.7525908166708,35.91541324404704],[137.75212281864634,35.91562976504802],[137.7518560851674,35.91601982318491],[137.7515070364559,35.916151838475265],[137.75099547106646,35.91720591862068],[137.75107778459153,35.91746394359828],[137.750649456141,35.918199372886434],[137.75027845762168,35.91829861214817],[137.7496326805591,35.918693540907],[137.74897413045994,35.91901947891968],[137.74858361026966,35.919058747566176],[137.74828875719072,35.919114939965446],[137.74812614669855,35.91933879672776],[137.7479682253379,35.91953365460897],[137.7475022527656,35.91977012481308],[137.7470228925892,35.920240443735366],[137.74659887393952,35.92075281441603],[137.74629667927334,35.92161793866642],[137.7460947461592,35.92195202063575],[137.74585684240876,35.92211736558846],[137.7453946576465,35.92242639130431],[137.74515507077618,35.92253188146621],[137.74432940401354,35.92307437479172],[137.74375093546738,35.92341167335619],[137.74337865881742,35.92364145912131],[137.74282516500642,35.92393720662291],[137.74239391166566,35.923796662838996],[137.74188947894285,35.923858764320755],[137.74170215070478,35.92385758267845],[137.74112846401778,35.92392831910158],[137.74045414609375,35.924500757962704],[137.74026380061548,35.92481509648838],[137.74013860375666,35.92508814399647],[137.73963660400057,35.92581762285321],[137.73939742889564,35.926113519508206],[137.739123046908,35.92659598131248],[137.7389011450844,35.92695001950669],[137.73820190703978,35.92755311744901],[137.7382568834145,35.92786900635557],[137.73824401181557,35.92851634465779],[137.73808071183032,35.928798218783164],[137.73788688509222,35.929482492188384],[137.73672963720037,35.93040909695599],[137.7363783059534,35.9307695617353],[137.73486179633227,35.93149075415187],[137.73410129983785,35.93289137333393],[137.73384554413394,35.93305296258275],[137.7335548890135,35.93313452276168],[137.73318219256123,35.93340054035534],[137.7313681321405,35.934442595773945],[137.7309666254496,35.93445453614319],[137.73087954603002,35.93447030155891],[137.73066421527824,35.93459586986457],[137.72863486849394,35.934842188332496],[137.72740815519512,35.93533483571495],[137.72622851343448,35.937394635691724],[137.72414349196032,35.93876851213932],[137.72169980044572,35.941005079462045],[137.7205179920092,35.941443557695635],[137.7198248724956,35.942314979114],[137.71843862728082,35.94584955804045],[137.71785585669605,35.94796031593186],[137.71814705565066,35.94850806983398],[137.71684614198523,35.94993771677041],[137.71642851028307,35.95180470474986],[137.7144841526231,35.95242855953563],[137.71455937265642,35.95338657739144],[137.71248719796733,35.956019348126404],[137.71056905618576,35.95584877109704],[137.70787246424266,35.95774902759009],[137.70632343739615,35.95797264671048],[137.70576998027587,35.96084168787619],[137.70535815471953,35.96199182828421],[137.7048691307511,35.96270269728656],[137.70356233281004,35.96395479649885],[137.7021557193103,35.96391386442425],[137.7011814932837,35.964172813599845],[137.70029422948193,35.96466298845921],[137.70013849498469,35.96738881933003],[137.6984772392239,35.96793385947501],[137.69712764108652,35.96839879838875],[137.69635101927142,35.96947740381568],[137.69569811284168,35.96869574154934],[137.69466323318952,35.96802527829895],[137.69189220010009,35.967219925896686],[137.68901572144796,35.96685616609013],[137.6871286071759,35.96515610999199],[137.68607707552417,35.96498153931109],[137.68158549493225,35.963696640367],[137.6808762785267,35.963875083732574],[137.67922537416425,35.96340251279422],[137.6787756319531,35.963298326883844],[137.6768073807522,35.96232747537929],[137.67545644740534,35.96029914492023],[137.6734230523501,35.959248810119334],[137.67120784239302,35.95625711152631],[137.67009063848153,35.95606614962961],[137.66952781281526,35.95488052633532],[137.6679330232645,35.95316010540152],[137.6644050050546,35.95014654545699],[137.66384831208987,35.94987094279918],[137.66313998895941,35.94960376318273],[137.6627538546186,35.94937357434871],[137.66225382353133,35.94888349194478],[137.66203310252087,35.948439585257056],[137.66165177688453,35.948124119360976],[137.66128195796858,35.947818203480615],[137.66024549197311,35.9466165940696],[137.659693128028,35.945936543495655],[137.65952830492958,35.94498430673747],[137.65952984569466,35.94483896617221],[137.65899911897947,35.944323366327744],[137.6585110782079,35.94416828153364],[137.6584422072471,35.94407300951454],[137.6583374528162,35.943686783293515],[137.65818499945607,35.94303795834838],[137.6579306986548,35.94284026871018],[137.6577594919895,35.94285803298359],[137.65658753556104,35.94088759042973],[137.65346765587876,35.93866961630821],[137.6525115590089,35.93723465749956],[137.65195095159672,35.93370438298912],[137.64999667194607,35.93224655983096],[137.6487272361336,35.93034169489244],[137.64756332569678,35.92983103809272],[137.64723219696728,35.92774006283853],[137.64582587323676,35.92701598157279],[137.64478903717043,35.92480625645617],[137.64453956622285,35.923082395708995],[137.64192030842213,35.92245074020865],[137.6410552057954,35.92161986204751],[137.63948305175535,35.92186771691744],[137.638360625568,35.920772719524855],[137.63807756485727,35.91929507440804],[137.63617028504186,35.91821969488243],[137.63416715837496,35.91774710619089],[137.63417659206712,35.916881391076565],[137.63329097193864,35.91545309648242]],[[137.69240865140287,35.860806419119946],[137.69321337927877,35.86175209421735],[137.69337430565054,35.86282471266489],[137.69321337927877,35.861752094217344],[137.69240865140287,35.860806419119946]],[[137.65756181476223,35.90526103847659],[137.65879647817002,35.90518365884762],[137.66006094498155,35.90453017721894],[137.65879647817002,35.905183658847584],[137.65756181476223,35.90526103847659]],[[137.67340616918176,35.93706314451983],[137.67424265088715,35.935922619663195],[137.6754706122928,35.93326650615387],[137.67424265088712,35.935922619663195],[137.67340616918176,35.93706314451983]],[[137.673865130317,35.92271083271203],[137.67415169701928,35.92396672340712],[137.67415169701928,35.92396672340711],[137.673865130317,35.92271083271203]],[[137.721914062999,35.86392908031202],[137.72208221276776,35.863886570461176],[137.72237411253968,35.86360084669918],[137.72256232780938,35.86332895927668],[137.7221432655647,35.863826796117685],[137.721914062999,35.86392908031202]]]}},{"type":"Feature","properties":{"KEY_CODE":"20432003001","PREF":"20","CITY":"432","CITY_NAME":"木曽町","S_NAME":"日義","SETAI":"889"},"geometry":{"type":"Polygon","coordinates":[[[137.72471087704724,35.86660428312116],[137.72488341528586,35.865864669572254],[137.72626314320735,35.86666140479509],[137.728081669895,35.86591076129811],[137.72864174129168,35.86533003830893],[137.73208541808788,35.86484682997074],[137.73258238509305,35.86484819102639],[137.73378927225167,35.86521185310105],[137.73550672197678,35.86416741419392],[137.73813493056932,35.86349188136316],[137.7397912147999,35.86213956859129],[137.73987708086165,35.861935149768],[137.74167581972148,35.86068617088902],[137.7429210289062,35.8594145558376],[137.7440783639192,35.85730210969333],[137.74449963576402,35.855681329916166],[137.74432027842764,35.85506891089603],[137.74445725937207,35.85472643413386],[137.74560401677246,35.85257735214192],[137.7466113440052,35.851562038832355],[137.74665636634788,35.85007174600018],[137.74885897486095,35.848280943435455],[137.75292016701567,35.84789172009172],[137.75503816080732,35.84797185732006],[137.75599398987515,35.846939396574875],[137.758542615567,35.846616002014564],[137.7591287096062,35.845522636261016],[137.76104083436027,35.84506126536414],[137.76288974572054,35.84531543447231],[137.76712431968787,35.84394701449136],[137.76946462844032,35.84220275402023],[137.7716571189324,35.84264251252477],[137.7722709321117,35.842910573654464],[137.77386892930033,35.84248478461646],[137.77379410402995,35.84110687579127],[137.7743043235113,35.84041494130231],[137.77484715574056,35.839530605773966],[137.77474879366045,35.83903597667131],[137.77547521399327,35.837754986541874],[137.77550404520036,35.83571197717537],[137.77594325442485,35.833215071281515],[137.77700225352055,35.83153414078206],[137.7784328862092,35.8302531870139],[137.7795579323811,35.82979100495394],[137.7803140649961,35.82861066878196],[137.7797424701177,35.82700783861577],[137.77983347794432,35.82661063360315],[137.78006548385275,35.8259672426882],[137.77998599067794,35.82566530581155],[137.77986542064562,35.82535476003417],[137.7813635614086,35.824551482242924],[137.782578330005,35.82438291180452],[137.78337120553496,35.82425367182341],[137.7849012060333,35.82390690913624],[137.7891740676106,35.82153316416678],[137.7902653529244,35.8213721494798],[137.79084280671313,35.8211829568818],[137.79187600727957,35.81946403026852],[137.79207762645686,35.8181798319965],[137.79230209157058,35.81721816175452],[137.79288292603923,35.816643776164966],[137.79407533912735,35.81608557152646],[137.79640417942056,35.816643537197976],[137.79688693838017,35.816696585756326],[137.79803949394335,35.816577719370336],[137.79878537222098,35.81418297323207],[137.7991078072919,35.813757791330616],[137.80179416152407,35.81340498075464],[137.80384197678507,35.81259204208791],[137.80438727118965,35.812544957976144],[137.80487288759477,35.812263064589786],[137.80544436533643,35.81157132587283],[137.8059480658487,35.81039351387977],[137.80884505774034,35.8100375702861],[137.81328071558204,35.808886399833135],[137.81448512140065,35.808700653538864],[137.81602976281545,35.80780086326001],[137.816516326088,35.80740169561773],[137.81710778549538,35.806760259637464],[137.81799614543863,35.80626284332574],[137.81843865162244,35.80620672717181],[137.82021253803495,35.80613719285748],[137.82136450217155,35.806068324213236],[137.82452249629546,35.805219373111214],[137.825530267563,35.8051747977936],[137.8272400015194,35.80479077529804],[137.82789349930914,35.80475476238771],[137.8284485841213,35.804918792236485],[137.8285127414594,35.80587107061204],[137.8277583806532,35.80643715250711],[137.82716956444156,35.80801504830787],[137.82463015980457,35.81090132231386],[137.82464340245272,35.81322534515796],[137.82362555237052,35.81329937297709],[137.82162607821277,35.81459918549943],[137.8214010979117,35.81519193491418],[137.8214523399713,35.815499440597755],[137.82121030834566,35.816500234014924],[137.82046182420765,35.818438113971766],[137.8201934373932,35.8198959384084],[137.8186210247188,35.822936731521914],[137.8170889064263,35.82371820279911],[137.81642660475464,35.82715712558935],[137.81628213633013,35.82850141232806],[137.81525293068057,35.828969693089356],[137.81294478180502,35.829502818750754],[137.81172193589452,35.83040286774805],[137.80865904731257,35.8311119531152],[137.8083917335942,35.83128564206645],[137.80712493287123,35.83286566160043],[137.80597880701043,35.83438967924121],[137.80770102770785,35.837223783284145],[137.80772199782865,35.83845562025733],[137.80773013391652,35.84043464784117],[137.80845411044893,35.842350805847474],[137.80947820135347,35.8439646269083],[137.81068743591908,35.84589964197335],[137.81091076943682,35.84656543079818],[137.8100959889805,35.84805298235594],[137.8078192446108,35.84887340357422],[137.80442361670055,35.85038273819673],[137.80555378256696,35.85331945765787],[137.80545381108038,35.854927708274204],[137.80563985111687,35.857406157591015],[137.80534212563308,35.858698493268626],[137.80619768886106,35.86076693455528],[137.80636201870064,35.862452479011424],[137.80686684751527,35.86369116175417],[137.80836965322928,35.86628209232958],[137.80712151302228,35.867042757802345],[137.80689746418216,35.868840725831305],[137.80646226311384,35.8696712048064],[137.80651286253553,35.86984113280086],[137.80725543791937,35.87089350064622],[137.8081744536185,35.871347105386185],[137.80894675226446,35.871984635862674],[137.80980684130125,35.872371253734684],[137.81130821746652,35.87347643405164],[137.81314184481326,35.874272763696155],[137.81579253454188,35.87646061554351],[137.81600698596586,35.87850536792706],[137.81345623933828,35.88155148168551],[137.81434419891715,35.88647590528221],[137.81440166882552,35.88811245109749],[137.8131300624786,35.88918540643564],[137.81320701903797,35.89007014896231],[137.81154620996614,35.89249642546574],[137.8112758532902,35.89365981574333],[137.8097738013903,35.89502263183959],[137.80734800895297,35.89558054628776],[137.80583500799358,35.8966390733356],[137.80544484110655,35.89740173053085],[137.80461976849435,35.89872606948442],[137.80548604403552,35.89938770324516],[137.80525731278686,35.90024421336793],[137.80518992129186,35.90050858435527],[137.80525148457633,35.900911371530746],[137.8056291335058,35.901639016695896],[137.8056649284364,35.902009889098586],[137.8063027043129,35.90350684303204],[137.8046400579014,35.90533467195978],[137.8040235804293,35.90587120977655],[137.8040239957511,35.90600172538529],[137.80447922329375,35.9065995618224],[137.8045345698136,35.90670393898337],[137.8047117238105,35.907508265380734],[137.80481336686216,35.907881374201224],[137.80509199355097,35.90878201674191],[137.8049862056416,35.91005711699825],[137.80477280929432,35.910472105145956],[137.8064182465685,35.912861331063965],[137.8066556151647,35.91419944655463],[137.80585733567963,35.915331138727446],[137.80581654935037,35.915665187034506],[137.80560591009996,35.91610491576367],[137.8035040373491,35.9174716591829],[137.80358424073782,35.91834632077831],[137.80372486676393,35.91865283270821],[137.80359446517588,35.919185386342036],[137.8035700172028,35.91951073553472],[137.80345436635264,35.9197475714917],[137.8027272075613,35.920653823336416],[137.8012646561575,35.92201871502155],[137.80214122176082,35.92549526109852],[137.80200081988397,35.92608383300995],[137.80190536491273,35.92633068489825],[137.8012741562926,35.92646776952116],[137.8003037017796,35.925696253304345],[137.79858088922293,35.92531837319935],[137.7960634248096,35.92548841836837],[137.7946236689565,35.924561297146845],[137.79318231801693,35.924526926228445],[137.79231946102354,35.923908805673605],[137.79206773234654,35.9219024166307],[137.78761959149224,35.920280485749934],[137.7858629308225,35.92085546412488],[137.78340666776398,35.92037286036997],[137.7826371173779,35.91884000014136],[137.78134364900728,35.918666506652016],[137.77882853035882,35.91742885168522],[137.7783190286386,35.91672641104784],[137.77823062553102,35.91664299542473],[137.7776905356607,35.91627366412126],[137.77728459966903,35.91399003016571],[137.77649625435419,35.91150895838219],[137.77531233419776,35.90958154351026],[137.77509630682857,35.908366238546314],[137.77496335411675,35.90758488989809],[137.77487774789077,35.90696442487855],[137.7744758211869,35.90635067891369],[137.77221197918647,35.904846712023044],[137.77062086142504,35.90521698274735],[137.76796350767697,35.903593096576195],[137.7646626102528,35.90431550476879],[137.76123459969605,35.90546531643983],[137.7602691616594,35.90633490977332],[137.7565907119757,35.90746230775752],[137.75391773601186,35.90942968710456],[137.75379378285146,35.90933824853924],[137.75318837130777,35.90900260559445],[137.75290348105884,35.908482170623664],[137.75212164896786,35.90793869821509],[137.75162382028998,35.907779630816115],[137.75106497195583,35.9069963463405],[137.75100041314107,35.90675656275603],[137.75098182151677,35.90659866577936],[137.7505933353553,35.90619002489304],[137.75048773148617,35.906044278120966],[137.7507468833521,35.9052715234097],[137.75074729373688,35.9052280012123],[137.75050128778088,35.9048456324116],[137.75028128152047,35.90382688231933],[137.7500391475066,35.90350257789305],[137.74981373979145,35.90305686804049],[137.74976217470083,35.90285342750323],[137.74951881353604,35.90265967814517],[137.74928096346383,35.9023498947645],[137.74881064971296,35.90188452184634],[137.74804687446724,35.90156418691436],[137.74804915386943,35.900619365761074],[137.74807034565407,35.90026405538324],[137.7479309036631,35.899918611672184],[137.7477116008674,35.89954365682361],[137.7476466295875,35.89910256192201],[137.7477699243019,35.89879504206223],[137.74794614918665,35.8985458834127],[137.74763318344523,35.897936391713166],[137.74735889671365,35.89772068449925],[137.74720101671818,35.897440415595185],[137.74676313532,35.896844653634595],[137.74678057210244,35.89642040186624],[137.74693969516355,35.89585739503453],[137.7468126450323,35.895620845056264],[137.7468417611427,35.89489561781157],[137.74670813452366,35.894649962853734],[137.74667780646817,35.894562733992004],[137.74659838018826,35.89400367418635],[137.7465505523874,35.893872801636036],[137.7465398723065,35.89359345766847],[137.7462714224412,35.89299151263678],[137.74622874934468,35.892791764386324],[137.74637410554647,35.892502518373306],[137.74657409038153,35.89186360529257],[137.74664420862817,35.89152311142364],[137.74647431879285,35.89110493711107],[137.74649407035272,35.890664386432555],[137.7464429312989,35.89041743515076],[137.7458630132058,35.8899930756195],[137.74570506359294,35.88973094110998],[137.7456703119274,35.88939886478279],[137.74575296610178,35.889141862239306],[137.7455552827922,35.888835953722285],[137.7456801848325,35.88835797781286],[137.74558188006614,35.88791123924328],[137.7454178345349,35.887671950362986],[137.74440084568093,35.88692232325631],[137.74363621745002,35.88582516665392],[137.7429925364806,35.8843965484514],[137.7429000266937,35.88393424972883],[137.74236006084305,35.88251190272066],[137.7420240473854,35.88146247672956],[137.7414860354033,35.881290174154344],[137.74084826307623,35.88097284760626],[137.74075156810488,35.88091430429325],[137.74072051215722,35.880895527977586],[137.73941513200978,35.87938432465129],[137.7388357330772,35.87822357262631],[137.73866582264054,35.87749082596023],[137.7382445814346,35.87676644335211],[137.73780789839347,35.87633572001022],[137.7371560626716,35.87541717638425],[137.73635777223677,35.87476804591569],[137.7357863775691,35.8744030204307],[137.733091816094,35.87411607844027],[137.73177706689054,35.87257354147733],[137.7308030662627,35.87173580006398],[137.72993718349508,35.871295206375976],[137.72857109845452,35.87066715775693],[137.72622696180596,35.86875802622446],[137.72471353588534,35.86677487893331],[137.72471087704724,35.86660428312116]]]}},{"type":"Feature","geometry":{"type":"Polygon","coordinates":[[[137.61111722913012,36.01953897351521],[137.60902780142254,36.0221726012527],[137.60863641202312,36.024132163389424],[137.6071826198059,36.02522725339166],[137.6048258337187,36.024728981600234],[137.60119476604189,36.02596309782446],[137.59953388824832,36.025690402054984],[137.59849887065482,36.02359366727061],[137.5982181237333,36.02207001543909],[137.59718716186117,36.02039977422455],[137.59581592513842,36.01931606102475],[137.59594989747563,36.01731850063526],[137.5944591374032,36.0154062618599],[137.59384753293168,36.01403913304882],[137.59474510552386,36.01335201319102],[137.59393022900085,36.01186047336784],[137.59237195778115,36.01042475071635],[137.59126366424,36.00893096972916],[137.59133499481305,36.00814365092848],[137.59011623760256,36.00644832564092],[137.5872492229598,36.00537144950004],[137.5857067135309,36.00449268756882],[137.58477807615677,36.00341399017151],[137.58309070723993,36.00271707525719],[137.57980620684475,36.00066307260812],[137.57791124439552,35.998556714278415],[137.57621669794077,35.997181242456655],[137.57568391408188,35.9954247877974],[137.5714452260122,35.9958415961328],[137.56905143153963,35.9953963891382],[137.56852994683027,35.99461248698562],[137.567080258872,35.99405071937397],[137.56486754281724,35.99260680703093],[137.56286113114146,35.9904350784907],[137.56033957554635,35.98934648579528],[137.5570529646784,35.98900413344609],[137.55305578688527,35.987581281419104],[137.5506491500602,35.98695757287998],[137.54879987607507,35.985437454508194],[137.54728117671306,35.98547474247799],[137.5458230848853,35.98425384772141],[137.54455279430343,35.98383649934883],[137.54338396985614,35.98255617979998],[137.54332223552018,35.98012477160636],[137.54473736712936,35.978593624707536],[137.54495247811752,35.977750078222115],[137.54423548678298,35.97237045110758],[137.5418897361952,35.97051307077619],[137.541286087109,35.96896577995516],[137.54197805562353,35.966972290893],[137.5378406187168,35.965186825672546],[137.53509753838537,35.96358522609163],[137.53247680247281,35.96129967314135],[137.53204389848253,35.95945752618372],[137.5309347599977,35.957066948474214],[137.52967902445724,35.95550193501173],[137.5289849443851,35.95330598431876],[137.5272718487735,35.951922326786715],[137.5252495638577,35.94729072848225],[137.52487074858865,35.945393460747006],[137.52473685420205,35.942702285781564],[137.51950556816703,35.940543203225545],[137.5188929776319,35.939773101263185],[137.51406850290408,35.94093035873066],[137.51087236288282,35.941095213069545],[137.5043556488908,35.94043647150668],[137.50322108660438,35.93955705358933],[137.50186427830312,35.937645392662816],[137.5007664342103,35.93505102031472],[137.49916122292396,35.93239685057429],[137.49768178647628,35.9287997066362],[137.4941652071098,35.926141791015006],[137.4924616965232,35.92528832971053],[137.49167621100293,35.92312724582839],[137.4893142594269,35.91979248427593],[137.48771409340858,35.91812123740904],[137.48443184184606,35.91635372110271],[137.4838021942827,35.91534662883517],[137.4832766481003,35.91331685768809],[137.48409587670048,35.909974334324204],[137.48637320775123,35.90983248280978],[137.48829973713092,35.909064790339684],[137.48834349377654,35.90777693771422],[137.48811018115902,35.90752404348662],[137.4879645911486,35.9072876182118],[137.4906649068918,35.90603865972824],[137.4909636959211,35.906049761668484],[137.49165622258099,35.90614639427571],[137.49321759440346,35.90588750261733],[137.49575188839788,35.90530772902492],[137.49729475146864,35.90565604694754],[137.4993072687821,35.90569902151012],[137.50125341292306,35.9059069166969],[137.50286723676777,35.906155570611894],[137.50779331787075,35.907394307307605],[137.50945916431894,35.90733405673834],[137.51348182432832,35.908482305669736],[137.51829598159048,35.90927540029364],[137.51876411649002,35.90951444537833],[137.5192964838057,35.9095214636371],[137.52009836197686,35.90964817590555],[137.52119838351243,35.9100224202938],[137.52161708061865,35.91008831470238],[137.52397674014117,35.91107594743363],[137.52433807757586,35.910992381264414],[137.52556846370692,35.91133879687929],[137.52655880659904,35.91175295484796],[137.52958821177384,35.91257290496238],[137.53207732681867,35.912405604502894],[137.5323518231554,35.91218193668296],[137.53389537840252,35.91179789453636],[137.53432609602913,35.91184462582485],[137.53616173603513,35.91197958288466],[137.53657056020037,35.9118771420376],[137.53671870094365,35.9118446867566],[137.5373885585971,35.91190054909461],[137.53753643727973,35.91188251598759],[137.53804969851177,35.91169680420488],[137.53987950149957,35.910118363030726],[137.54045991769476,35.9104834546746],[137.5413955432614,35.91127912315371],[137.54183560834034,35.911527752072544],[137.54207531975942,35.91198383368592],[137.5425614926485,35.912328954352695],[137.5431388374863,35.91246333630855],[137.54358896716153,35.91236600967701],[137.54467596444948,35.91187968808808],[137.54660847543772,35.912065718590746],[137.54951862938827,35.91052931850862],[137.55377798529437,35.91078170240063],[137.55575911066094,35.91035759261427],[137.5571795820393,35.911132929450496],[137.5594926675436,35.911605280695966],[137.5603952908622,35.91221789726771],[137.56176462820767,35.91232473581488],[137.56353756135363,35.91101454516579],[137.56633301684477,35.91267756528216],[137.56814912767393,35.91298004255581],[137.57024295060762,35.911504036019394],[137.57283269883632,35.91106990096291],[137.57554135067272,35.910307416783475],[137.57695938790434,35.91054180614927],[137.57972854329952,35.91041646826138],[137.58283804765867,35.91100016365689],[137.58657395063446,35.91003618046446],[137.58701407040004,35.910803683281614],[137.58626744315046,35.91125697879601],[137.58656885308523,35.91227814665665],[137.5878741598608,35.91230247953153],[137.58907581037798,35.91338092399523],[137.58799569214867,35.91381008345706],[137.58724841885058,35.91483048449248],[137.58900238512936,35.91592034438882],[137.59155266942207,35.91919813850411],[137.59296433044494,35.91922803368713],[137.59415838791557,35.91995554517974],[137.59526391419317,35.91987689484349],[137.59714097563713,35.9218406396535],[137.59830566898586,35.924630092477805],[137.59863682560535,35.92779515156134],[137.6002227899033,35.93293876533533],[137.60292391601598,35.9368614644267],[137.6042381151929,35.93814823669692],[137.60781004061738,35.94099695953325],[137.60960269788157,35.94219986467144],[137.6112477313714,35.944274045452744],[137.6137763201636,35.95090468326638],[137.6149017413148,35.953254819132276],[137.61679007540488,35.95912939283086],[137.61729016288407,35.96147402726179],[137.61757960844355,35.966210345155204],[137.61770455941635,35.96846070922607],[137.61784405928037,35.96966628303589],[137.61864001160023,35.971416512502515],[137.62108415430544,35.97501252436979],[137.6203855419739,35.977124606764356],[137.6190715406542,35.982925566088845],[137.61894549294286,35.985300333966826],[137.6190291425338,35.98624660284271],[137.61951757536917,35.989965149154926],[137.62045315891868,35.99308986983185],[137.6205224159444,35.997728891039316],[137.6200608988384,36.000912100559965],[137.61932004074342,36.002708678243785],[137.61797825059674,36.00449010114052],[137.61340804117853,36.00800680111011],[137.6117304521212,36.0108104614198],[137.61105892822403,36.01374452373061],[137.61090432466185,36.01747006718029],[137.61111722913012,36.01953897351521]]]},"properties":{"KEY_CODE":"204320040","PREF":"20","CITY":"432","CITY_NAME":"木曽町","S_NAME":"開田高原西野","SETAI":"373"}},{"type":"Feature","geometry":{"type":"Polygon","coordinates":[[[137.70376744144482,36.01014370849307],[137.70094524600526,36.0096642683903],[137.6995885569676,36.01054790909623],[137.69761795358255,36.01099012965184],[137.6969681082568,36.01321571505593],[137.6951818581099,36.01477229632607],[137.692815852596,36.015143129046585],[137.69183534430934,36.01444983866763],[137.68890293958543,36.01453486841711],[137.68749568001297,36.015551766984764],[137.68535668475693,36.0163359927241],[137.68180186295083,36.01680333187932],[137.68057457377125,36.01632151046414],[137.6794742735733,36.01517914771245],[137.67798027274023,36.01468823303785],[137.67408471871315,36.01284716125707],[137.67226135668315,36.01067693321217],[137.670009989411,36.01072648443718],[137.66787317244643,36.01045513039268],[137.6656100616104,36.0107719680164],[137.66296491104302,36.011458347364254],[137.6606549521546,36.0132529765835],[137.6568199347888,36.01370684843903],[137.65525520037528,36.01693415274421],[137.65460549745984,36.017374120438674],[137.6538048798754,36.01902376602017],[137.6514342373064,36.020629787241184],[137.64896573942886,36.020164165438565],[137.64716117668846,36.02042242356433],[137.64499396009225,36.021292491832995],[137.64371756803456,36.022483295417906],[137.63951677777808,36.02338570803652],[137.63730115226818,36.0250106128827],[137.63495976469963,36.02634180497615],[137.6332280933391,36.02682804553548],[137.63174918625472,36.026174033937416],[137.62946292313586,36.0257129114437],[137.62866237455475,36.0248830826124],[137.625776074662,36.023560964351475],[137.62437805542757,36.02405312521094],[137.62174702163844,36.023802560759606],[137.62133461844022,36.023279093359335],[137.6216393726723,36.021882650132405],[137.62052900121415,36.02091313492477],[137.62027323956153,36.01990651947763],[137.61867928478435,36.01922257883305],[137.61724308445562,36.01955173733716],[137.61268268097976,36.01879161610626],[137.61111722913012,36.01953897351521],[137.61090432466185,36.01747006718029],[137.61105892822403,36.01374452373061],[137.6117304521212,36.0108104614198],[137.61340804117853,36.00800680111011],[137.61797825059674,36.00449010114052],[137.61932004074342,36.002708678243785],[137.6200608988384,36.000912100559965],[137.6205224159444,35.997728891039316],[137.62045315891868,35.99308986983185],[137.61951757536917,35.989965149154926],[137.6190291425338,35.98624660284271],[137.61894549294286,35.985300333966826],[137.6190715406542,35.982925566088845],[137.6203855419739,35.977124606764356],[137.62108415430544,35.97501252436979],[137.61864001160023,35.971416512502515],[137.61784405928037,35.96966628303589],[137.61770455941635,35.96846070922607],[137.61757960844355,35.966210345155204],[137.61729016288407,35.96147402726179],[137.61679007540488,35.95912939283086],[137.6149017413148,35.953254819132276],[137.6137763201636,35.95090468326638],[137.6112477313714,35.944274045452744],[137.60960269788157,35.94219986467144],[137.60781004061738,35.94099695953325],[137.6042381151929,35.93814823669692],[137.60292391601598,35.9368614644267],[137.6002227899033,35.93293876533533],[137.59863682560535,35.92779515156134],[137.59830566898586,35.924630092477805],[137.59714097563713,35.9218406396535],[137.59526391419317,35.91987689484349],[137.59667427726086,35.918232322115806],[137.59873664902833,35.91767109083076],[137.60288355625397,35.9156355404408],[137.60483453291428,35.91787772692587],[137.60598872300378,35.91821794435004],[137.60701167352954,35.91788192746076],[137.6094938339484,35.91570876601114],[137.60995802976527,35.91487595182506],[137.61153001709576,35.9137773700917],[137.61386986689675,35.91296079697536],[137.61591475091734,35.91413104066505],[137.61785204118786,35.914799616405],[137.61819006681964,35.912824385094176],[137.61991248484904,35.911462471560135],[137.62449656965188,35.91222538456163],[137.62737096368386,35.91388821000618],[137.63034336870524,35.91372464870515],[137.63329097193864,35.91545309648242],[137.63417659206712,35.916881391076565],[137.63416715837496,35.91774710619089],[137.63617028504186,35.91821969488243],[137.63807756485727,35.91929507440804],[137.638360625568,35.920772719524855],[137.63948305175535,35.92186771691744],[137.6410552057954,35.92161986204751],[137.64192030842213,35.92245074020865],[137.64453956622285,35.923082395708995],[137.64478903717043,35.92480625645617],[137.64582587323676,35.92701598157279],[137.64723219696728,35.92774006283853],[137.64756332569678,35.92983103809272],[137.6487272361336,35.93034169489244],[137.64999667194607,35.93224655983096],[137.65195095159672,35.93370438298912],[137.6525115590089,35.93723465749956],[137.65346765587876,35.93866961630821],[137.65658753556104,35.94088759042973],[137.6577594919895,35.94285803298359],[137.6579306986548,35.94284026871018],[137.65818499945607,35.94303795834838],[137.6583374528162,35.943686783293515],[137.6584422072471,35.94407300951454],[137.6585110782079,35.94416828153364],[137.65899911897947,35.944323366327744],[137.65952984569466,35.94483896617221],[137.65952830492958,35.94498430673747],[137.659693128028,35.945936543495655],[137.66024549197311,35.9466165940696],[137.66128195796858,35.947818203480615],[137.66165177688453,35.948124119360976],[137.66203310252087,35.948439585257056],[137.66225382353133,35.94888349194478],[137.6627538546186,35.94937357434871],[137.66313998895941,35.94960376318273],[137.66384831208987,35.94987094279918],[137.6644050050546,35.95014654545699],[137.6679330232645,35.95316010540152],[137.66952781281526,35.95488052633532],[137.67009063848153,35.95606614962961],[137.67120784239302,35.95625711152631],[137.6734230523501,35.959248810119334],[137.67545644740534,35.96029914492023],[137.6768073807522,35.96232747537929],[137.6787756319531,35.963298326883844],[137.67922537416425,35.96340251279422],[137.6808762785267,35.963875083732574],[137.68158549493225,35.963696640367],[137.68607707552417,35.96498153931109],[137.6871286071759,35.96515610999199],[137.68901572144796,35.96685616609013],[137.69189220010009,35.967219925896686],[137.69466323318952,35.96802527829895],[137.69569811284168,35.96869574154934],[137.69635101927142,35.96947740381568],[137.69616919412263,35.970573215924766],[137.69658498426597,35.97242065532318],[137.69632479932534,35.9736408369333],[137.69657606358172,35.97552642535511],[137.69739456824286,35.97798620544252],[137.69654895144814,35.979160629661806],[137.69734924873467,35.9811938208527],[137.6984016813059,35.9824908324663],[137.70007320271154,35.98337068813279],[137.70098855583296,35.98709230072222],[137.70063281650044,35.98885606805174],[137.69905264558136,35.99070586456394],[137.69883651181385,35.99265894723426],[137.6979888426438,35.99466013419332],[137.69781103502103,35.99600644219588],[137.69904348577467,35.997990124400324],[137.70022279133835,35.99854745342787],[137.70018857780275,35.999706336835374],[137.70175708774556,36.00350806564667],[137.70285521048683,36.00446253258134],[137.70191125278149,36.00706487845504],[137.70045188056883,36.00776422085469],[137.70340871715166,36.00930929252494],[137.70376744144482,36.01014370849307]]]},"properties":{"KEY_CODE":"204320050","PREF":"20","CITY":"432","CITY_NAME":"木曽町","S_NAME":"開田高原末川","SETAI":"257"}},{"type":"Feature","geometry":{"type":"Polygon","coordinates":[[[137.63329097193864,35.91545309648242],[137.63034336870524,35.91372464870515],[137.62737096368386,35.91388821000618],[137.62449656965188,35.91222538456163],[137.61991248484904,35.911462471560135],[137.61819006681964,35.912824385094176],[137.61785204118786,35.914799616405],[137.61591475091734,35.91413104066505],[137.61386986689675,35.91296079697536],[137.61153001709576,35.9137773700917],[137.60995802976527,35.91487595182506],[137.6094938339484,35.91570876601114],[137.60701167352954,35.91788192746076],[137.60598872300378,35.91821794435004],[137.60483453291428,35.91787772692587],[137.60288355625397,35.9156355404408],[137.59873664902833,35.91767109083076],[137.59667427726086,35.918232322115806],[137.59526391419317,35.91987689484349],[137.59415838791557,35.91995554517974],[137.59296433044494,35.91922803368713],[137.59155266942207,35.91919813850411],[137.58900238512936,35.91592034438882],[137.58724841885058,35.91483048449248],[137.58799569214867,35.91381008345706],[137.58907581037798,35.91338092399523],[137.5878741598608,35.91230247953153],[137.58656885308523,35.91227814665665],[137.58626744315046,35.91125697879601],[137.58701407040004,35.910803683281614],[137.58657395063446,35.91003618046446],[137.58283804765867,35.91100016365689],[137.57972854329952,35.91041646826138],[137.57695938790434,35.91054180614927],[137.57554135067272,35.910307416783475],[137.57283269883632,35.91106990096291],[137.57024295060762,35.911504036019394],[137.56814912767393,35.91298004255581],[137.56633301684477,35.91267756528216],[137.56353756135363,35.91101454516579],[137.56176462820767,35.91232473581488],[137.5603952908622,35.91221789726771],[137.5594926675436,35.911605280695966],[137.5571795820393,35.911132929450496],[137.55575911066094,35.91035759261427],[137.55377798529437,35.91078170240063],[137.54951862938827,35.91052931850862],[137.54660847543772,35.912065718590746],[137.54467596444948,35.91187968808808],[137.54358896716153,35.91236600967701],[137.5431388374863,35.91246333630855],[137.5425614926485,35.912328954352695],[137.54207531975942,35.91198383368592],[137.54183560834034,35.911527752072544],[137.5413955432614,35.91127912315371],[137.54045991769476,35.9104834546746],[137.53987950149957,35.910118363030726],[137.53804969851177,35.91169680420488],[137.53753643727973,35.91188251598759],[137.5373885585971,35.91190054909461],[137.53671870094365,35.9118446867566],[137.53657056020037,35.9118771420376],[137.53616173603513,35.91197958288466],[137.53432609602913,35.91184462582485],[137.53389537840252,35.91179789453636],[137.5323518231554,35.91218193668296],[137.53207732681867,35.912405604502894],[137.52958821177384,35.91257290496238],[137.52655880659904,35.91175295484796],[137.52556846370692,35.91133879687929],[137.52433807757586,35.910992381264414],[137.52397674014117,35.91107594743363],[137.52161708061865,35.91008831470238],[137.52119838351243,35.9100224202938],[137.52009836197686,35.90964817590555],[137.5192964838057,35.9095214636371],[137.51876411649002,35.90951444537833],[137.51829598159048,35.90927540029364],[137.51348182432832,35.908482305669736],[137.50945916431894,35.90733405673834],[137.50779331787075,35.907394307307605],[137.50286723676777,35.906155570611894],[137.50125341292306,35.9059069166969],[137.4993072687821,35.90569902151012],[137.49729475146864,35.90565604694754],[137.49575188839788,35.90530772902492],[137.49321759440346,35.90588750261733],[137.49165622258099,35.90614639427571],[137.4909636959211,35.906049761668484],[137.4906649068918,35.90603865972824],[137.4879645911486,35.9072876182118],[137.48811018115902,35.90752404348662],[137.48834349377654,35.90777693771422],[137.48829973713092,35.909064790339684],[137.48637320775123,35.90983248280978],[137.48409587670048,35.909974334324204],[137.48333465237275,35.90813527012674],[137.48159755788174,35.90667237958919],[137.48113574619146,35.905768105105],[137.48107974842398,35.90328191394283],[137.4813438712539,35.90062731400928],[137.4806732532882,35.898877579111804],[137.47894519300488,35.896934949407196],[137.47670158170573,35.89650950567379],[137.47618657173766,35.89541337880634],[137.47641743902616,35.89406021634129],[137.47643966696032,35.89401396114412],[137.47763983185405,35.89350226132839],[137.47829594752244,35.89335397918273],[137.4803121929575,35.89329036219236],[137.4806425534456,35.89334047468486],[137.48062370426578,35.89327151415446],[137.48081005254377,35.89310626881533],[137.48143227081587,35.8922307354261],[137.48152351955167,35.89215987732831],[137.48194941185056,35.89137645701132],[137.48223707456913,35.89089347701944],[137.4825187840686,35.89032750879723],[137.48268184645957,35.88980954658761],[137.48251798599833,35.88939341421494],[137.48248087947923,35.88921589918496],[137.4825235643887,35.889051314452686],[137.4830824470821,35.88873464777048],[137.48368787785967,35.88849283300864],[137.48395174656912,35.88832728838823],[137.48466887370364,35.88758967764496],[137.4855186437876,35.88735275065969],[137.48592637745918,35.887167693371026],[137.48693780478465,35.886417488634805],[137.48849920780862,35.88542518973054],[137.48926596950676,35.88507891136727],[137.4900218176365,35.88480145976467],[137.4912405586229,35.883581134661846],[137.49273218371815,35.88205088538511],[137.49542355709045,35.87981298862971],[137.49666632350514,35.879243576484946],[137.49802550622036,35.87892246477132],[137.4986132167193,35.87894359852443],[137.49907451247464,35.87870417178705],[137.49996157232243,35.87749921818122],[137.50053433571026,35.876939246726316],[137.50163474211558,35.87654559816309],[137.50209379893047,35.87624865429264],[137.50288350244807,35.87431632981635],[137.5031665770074,35.87373623078755],[137.50375556565692,35.872989664204525],[137.5038645169263,35.8728627788862],[137.5044791917153,35.87254480154186],[137.5065011190328,35.87208471667191],[137.50687943103222,35.872119816137456],[137.50703552318035,35.872201036177906],[137.50726764999027,35.8722623328629],[137.50739126110759,35.87224964210197],[137.50787291911996,35.87210063646233],[137.5089744557826,35.87184598900095],[137.51070427750503,35.871745060190115],[137.51202783171155,35.87147706922812],[137.51335467632208,35.87175869384894],[137.51388445689716,35.872107585353255],[137.51570617178433,35.872311230954026],[137.51707205897532,35.871879468822755],[137.51873545587154,35.871320099768816],[137.52069989431246,35.87096305336254],[137.52231341958716,35.87086043202469],[137.52418349461286,35.870463971077136],[137.5254031592144,35.86958252243171],[137.5263070343065,35.86919668795539],[137.52689072473885,35.868868738942965],[137.5298607060055,35.86780795203735],[137.5306080180644,35.867105784017426],[137.53133497818368,35.86672414207513],[137.53188686442033,35.866561562657886],[137.5329627866023,35.86684752563123],[137.53436756687233,35.86675194575268],[137.53564600573927,35.86624108661265],[137.5370587343327,35.865490769835354],[137.53833865506223,35.86481187216585],[137.53931475114737,35.864612946092876],[137.5394704794644,35.864568257980494],[137.53994858933385,35.864124126556],[137.54057521986883,35.8641456904474],[137.54103228843036,35.86439079503242],[137.54260521691853,35.86442435910486],[137.54337281090224,35.86297659343429],[137.54443954330196,35.86220127909756],[137.54518216905703,35.86193427593945],[137.54627708758449,35.861323637166386],[137.54765526270378,35.86110364654556],[137.5489619820797,35.8611070210997],[137.55100787087832,35.861130230291145],[137.55211660051293,35.86079258282239],[137.55265282210408,35.86052387988778],[137.55322054084172,35.860500383722865],[137.5535595958029,35.86037187166963],[137.55377348669504,35.86009821584407],[137.55461638054078,35.860058118592214],[137.5549639933167,35.85980628692895],[137.55506784675842,35.8596564464438],[137.55562711240856,35.85931797300536],[137.5563961111626,35.859053867471374],[137.55685554668133,35.85905748235278],[137.55742068755245,35.85930091974565],[137.55762526235708,35.8592713521341],[137.55798732774568,35.85887936074824],[137.55861388376954,35.85878037740045],[137.55928540445217,35.858120660272434],[137.55955122925786,35.85790741907952],[137.55980067304634,35.85783550122903],[137.55987962654825,35.85782969522369],[137.5599323224579,35.85771124955446],[137.55990794712469,35.8571039502817],[137.5598736671544,35.8570040988716],[137.56108618075757,35.85690759394359],[137.56188027506283,35.8571579394772],[137.56223634387973,35.8570804165968],[137.56395916589122,35.856369512441695],[137.5646031172548,35.8561352238892],[137.56584627623945,35.85544785525399],[137.56642216492702,35.85513111699732],[137.56756835952348,35.854463852938764],[137.56893502241974,35.85400869331773],[137.57040640712094,35.853192946662546],[137.570968379505,35.85304954077393],[137.57145057447661,35.85298260195575],[137.57208187282268,35.852812419291766],[137.5727366457162,35.85283030204517],[137.5735051901717,35.852563166882746],[137.57344081934028,35.850807141514665],[137.57327356261288,35.85009433717816],[137.57334562432445,35.848824410842134],[137.57349125271028,35.84851394013763],[137.573884867095,35.848081690079624],[137.57401104990376,35.8477550149846],[137.5758789479172,35.846921301691225],[137.57631774615314,35.846335197601285],[137.57623052681336,35.84518613184051],[137.57578416930488,35.84438445597659],[137.57561307966745,35.84417112006984],[137.5756377058871,35.844090998977364],[137.57630368298635,35.84364479302974],[137.57752415469275,35.84249770176911],[137.57796191751413,35.84166104276788],[137.57833539732428,35.84075158950191],[137.57836046619067,35.84046106851843],[137.5782324525109,35.83993327119299],[137.57821804215263,35.83981109464929],[137.57837712602628,35.839193935291746],[137.5784422965353,35.838158455156005],[137.57820171333225,35.837472398245644],[137.5781771061368,35.83721522634688],[137.5781888036558,35.837056299210985],[137.57830105498846,35.83690618593673],[137.57852776114137,35.83674407898767],[137.57854959360725,35.836561147016056],[137.57836027421786,35.836047350022646],[137.57806851581924,35.83517938528509],[137.57785743533083,35.83415463975343],[137.57795708453781,35.83372494758982],[137.57841715274705,35.833166318395776],[137.57880249774195,35.832937984919255],[137.57894873976983,35.83291340205686],[137.5794105502961,35.832884804478105],[137.57950937452262,35.83286307947048],[137.57974805357287,35.83268822927727],[137.58064046910982,35.831924076265025],[137.58098305152146,35.83163115513029],[137.58122481268438,35.8315334314842],[137.58141651113453,35.831157445309124],[137.58137967298478,35.83093229037267],[137.58138948791262,35.83042482388535],[137.5815091189198,35.82945080740647],[137.58165419655734,35.82866971335045],[137.5821246086457,35.82788948096776],[137.58234380651115,35.827691979043784],[137.58259947354983,35.827586331621035],[137.58268321668754,35.827506660042424],[137.58285000010525,35.82706142199772],[137.58313972928525,35.82690300973346],[137.58387981690683,35.82617140429863],[137.58420145235024,35.82563418251323],[137.58419793261078,35.825080033289794],[137.5842953515426,35.824839846233274],[137.58459978618492,35.823915416148246],[137.5846293330079,35.8230547326158],[137.58464018543657,35.82261955534393],[137.58519743406,35.82252421180991],[137.5864289630583,35.82243399164711],[137.58697313857232,35.82192255817905],[137.5876895479254,35.821006060451495],[137.58798167550006,35.819979783141655],[137.58800099359942,35.819717843150876],[137.58799692139206,35.81911813643924],[137.58891999235607,35.817790306252505],[137.59043940106682,35.81677791961063],[137.59150576132603,35.816035283238406],[137.5916325946188,35.81591187009503],[137.5940975485038,35.813738322887005],[137.59468082032276,35.81327629873516],[137.59593869563852,35.81440071253529],[137.5986462291081,35.81706849905108],[137.6000493550507,35.818807139454016],[137.60030375393964,35.819393690141005],[137.60047866827406,35.82067057808767],[137.60090353474385,35.82148428961418],[137.60499874553267,35.82668891968154],[137.60602803554147,35.82802001324815],[137.60653879782683,35.828448998810266],[137.60734670316805,35.82885628446818],[137.60866546485815,35.829561431224825],[137.60896263837927,35.829746399212816],[137.60939089731067,35.82990695523081],[137.60964194042742,35.830314932494574],[137.60962174104466,35.83045184683202],[137.60913907930177,35.83125543755374],[137.60849193793962,35.83171258904674],[137.60671674895744,35.83243294883509],[137.60581893014702,35.83301513842151],[137.60551073135846,35.834096662247376],[137.6059230773945,35.83568433056517],[137.6060963702991,35.83661156078572],[137.6063562399963,35.83746948106333],[137.60677182420875,35.83817492711995],[137.60785631295516,35.83914402450038],[137.60843455828459,35.83925650112638],[137.61069726990786,35.839367358616826],[137.61135743644587,35.83955722587095],[137.6117311588817,35.83867422395873],[137.61190873339015,35.83828986756385],[137.61245441878413,35.83769502566849],[137.6126604620399,35.83751781289545],[137.612853333874,35.83696270173446],[137.61340752828156,35.83629266234393],[137.61469158175467,35.83559821169154],[137.6151081853807,35.83518425742866],[137.61546826723358,35.83479873829634],[137.61585685412496,35.834501535043344],[137.6165305825008,35.833987554074454],[137.6173141795814,35.83258392537965],[137.61782407819646,35.83243401439262],[137.61799825892624,35.832344365814464],[137.61827558452669,35.83076767980494],[137.6185217496215,35.830266233375326],[137.618573435334,35.83011924764156],[137.61860296199387,35.82901105582853],[137.6180345230617,35.82732157450718],[137.61770642848484,35.826872385280865],[137.61758293633898,35.82620048790074],[137.6175855291118,35.82596535263307],[137.6169194840551,35.82509977964329],[137.61576351506815,35.824318416050936],[137.61551533405546,35.824134727475766],[137.61532923826002,35.82337929432299],[137.61523786966254,35.82293965080564],[137.61509044375936,35.82269086216887],[137.61384949900858,35.82159215705118],[137.6134115329256,35.82116877932788],[137.6141623800219,35.820279140177504],[137.6144719052314,35.819621386847615],[137.61449349581218,35.81940520635552],[137.61431088214087,35.819212593371084],[137.61306678658383,35.81806366879977],[137.61299958141015,35.81787192189564],[137.61273942960975,35.81772577367369],[137.61235963623724,35.817610079403046],[137.609655974443,35.817646335095716],[137.60851709242243,35.81733713481074],[137.60811304197102,35.81715070430569],[137.60762863996706,35.81658115511922],[137.60739587988024,35.815191971789176],[137.60720213090704,35.81461361001826],[137.60676498830315,35.813947199210645],[137.60628239498496,35.81286970977332],[137.60677229718263,35.812434385279666],[137.60657989633566,35.811565986593216],[137.60613505009047,35.80987420880406],[137.6062390253475,35.80934977623384],[137.60620170702205,35.80821131352488],[137.60600204730153,35.80800130898469],[137.60543071295479,35.806948237521105],[137.6059719492715,35.80603982988704],[137.60542137064863,35.80520325086466],[137.60565031828637,35.804687597901605],[137.60609288583234,35.804345983712395],[137.6055672208567,35.80299850473877],[137.60561368302737,35.80246111648361],[137.6059955433363,35.80204379922575],[137.60658759053345,35.80089277260985],[137.60652419692596,35.800362402320744],[137.60647852285615,35.79911257964001],[137.6064907415739,35.79888534918921],[137.60672617791275,35.79813457704389],[137.60710311402443,35.797637278964295],[137.6075696989357,35.7963473507709],[137.6069228525595,35.795684090035785],[137.60682218821623,35.79521771479025],[137.60776608284326,35.794556452337304],[137.60814433143514,35.79438937976758],[137.60870158385245,35.79435206850637],[137.60918665947713,35.79429248026007],[137.6093376060528,35.79421071884095],[137.60950091088404,35.79416012017763],[137.609599773754,35.79419193997433],[137.61051391660524,35.79464930952177],[137.6106695962155,35.79460074773294],[137.6114585047742,35.79431446211812],[137.6119621519618,35.7944124501392],[137.612497522881,35.79451790644562],[137.61298844098576,35.794734921240924],[137.61334118593828,35.794918807766145],[137.6152702913094,35.79558045943523],[137.6166783773333,35.79576172870851],[137.61787815047,35.79556958421163],[137.6199279554548,35.79601968813859],[137.6212150351367,35.796681702204516],[137.62135227451415,35.796682705037824],[137.62205377842693,35.796491014404126],[137.62288856513092,35.79644851053203],[137.6233091495855,35.796361018723395],[137.62358152231948,35.79634268649575],[137.62371591101703,35.796493333964065],[137.6237092857364,35.796687300310374],[137.62374869843822,35.79681322799472],[137.62382726539008,35.796884004226605],[137.62440733475202,35.797243913916965],[137.62478487858291,35.79736122639419],[137.62512697285047,35.79718818222343],[137.62532334472402,35.797164663841926],[137.6259461739393,35.79747232753385],[137.62662352578138,35.79772651533884],[137.62858937803963,35.79716186687381],[137.62955883623272,35.79730897124633],[137.62942242367387,35.796368599528876],[137.62998661338293,35.79494502851765],[137.63089059588523,35.79436445383133],[137.63345688218195,35.79438501158265],[137.63530551691505,35.79412226047965],[137.63600280222246,35.79347835814324],[137.63933102742516,35.79365258829077],[137.64218620969422,35.79407878692217],[137.64487305877904,35.79629390461853],[137.64773081332893,35.795076105183796],[137.64909278003714,35.79516608540853],[137.64932468862793,35.795229534564115],[137.65011630080173,35.79544937458575],[137.65053057078364,35.7954893955758],[137.6507588293185,35.79542510060929],[137.6511548510734,35.7952795695851],[137.65147354464668,35.79456286438283],[137.65206146035507,35.79443928254885],[137.6525684830047,35.79431514374956],[137.6526723998342,35.794052190204205],[137.65247468961405,35.793389528072325],[137.65285563913594,35.79274948163451],[137.65314138002944,35.792512524864286],[137.65434245838006,35.79203275892287],[137.6547108735991,35.79162745319185],[137.65486363246123,35.791525527700294],[137.65517638720485,35.7911198464697],[137.65535581870128,35.79089037451372],[137.65555311676093,35.79088352237971],[137.65597830564826,35.790845316227106],[137.65647392314295,35.7906036449957],[137.65696574778073,35.79048348236023],[137.6584091258845,35.78979731279676],[137.65869445637452,35.78983432495388],[137.65919124171324,35.78971832338039],[137.66064081111497,35.78988503155606],[137.66106691380574,35.78999717065481],[137.66115042995028,35.7902326074382],[137.66132726230265,35.791202070470675],[137.6613562093738,35.79134236446237],[137.66150938027323,35.79167714978986],[137.66202357699015,35.791837307117675],[137.66263916612058,35.79198811679738],[137.66249408373176,35.79214193074534],[137.66257268053627,35.79278077558984],[137.6623911222209,35.79308285908716],[137.6619717164206,35.79386990438598],[137.66163321483296,35.794704886123725],[137.66083989410188,35.79564731525787],[137.66063585095816,35.79586708212765],[137.66035540875433,35.79634857676628],[137.66004936417377,35.79816019625036],[137.65961528730736,35.79848893836707],[137.65917823339524,35.79873867026902],[137.65870202941719,35.79976545948163],[137.65877628893796,35.80007564903006],[137.65901386892295,35.8003490441781],[137.6588805633733,35.80085054216885],[137.65862346107352,35.80168925370357],[137.65903930402152,35.80272227060458],[137.6585989018441,35.80291826786611],[137.65875104769412,35.80320372406968],[137.65903482567936,35.803515382799105],[137.65937120146162,35.803979084586786],[137.65970316942074,35.80413938893749],[137.6600651489027,35.8043883979396],[137.66032672892257,35.80459246411559],[137.66035449704344,35.80490232944478],[137.66036506767347,35.805006672321284],[137.6604784748603,35.80602495748476],[137.6611573520537,35.8063899375184],[137.6614495773271,35.807741254158685],[137.66125754067835,35.80829603806048],[137.6610183776984,35.80927076888992],[137.66130431322435,35.81011960726995],[137.6614893760572,35.81022833744534],[137.6618747748205,35.810464864725425],[137.6619498747098,35.81070554249472],[137.66244333697279,35.81099970113311],[137.6627484104145,35.81113139587469],[137.66313587497356,35.81117200037306],[137.66347842478044,35.81106065006646],[137.6639434474655,35.81110811371219],[137.66405091226125,35.8112226193116],[137.6643747232723,35.811414469298214],[137.6647307142758,35.81150542600955],[137.66483137295512,35.8115187672771],[137.66525952579343,35.8113890311549],[137.66562453302137,35.81135365117601],[137.666481544577,35.811381737380515],[137.66736176964622,35.8117860044827],[137.66775083554177,35.81242700181047],[137.66877856291447,35.81244993586109],[137.66940700405164,35.812454288601394],[137.67147554630668,35.812746668834855],[137.67278315728393,35.8134729946146],[137.67401824360485,35.814075556231835],[137.67430028415683,35.81456412967552],[137.6745703633494,35.815081048724416],[137.67521762956451,35.81551524998967],[137.67554501645904,35.8161178873604],[137.67571431140522,35.81625806994369],[137.676325260755,35.816451857966],[137.67737668731777,35.81869944643633],[137.6773423263459,35.81902152328522],[137.67702101345108,35.81933529901376],[137.6764283279733,35.819463163141876],[137.67487307212156,35.81919418949713],[137.67333440595021,35.82016949886191],[137.67406780516055,35.821274174815514],[137.6711454545282,35.823225824218135],[137.66892828906018,35.824142670318615],[137.66758463221586,35.82425344203456],[137.66612605607833,35.82608555318579],[137.6664583685325,35.82695998146455],[137.66557544137711,35.82790498141988],[137.66539936487294,35.829155074601196],[137.66422614199323,35.83003170137931],[137.66213729056943,35.830519576892115],[137.66063451872049,35.83172882790317],[137.658762783933,35.83370332206544],[137.6571307153357,35.833556006368184],[137.65588614766,35.834558458206615],[137.65182131348504,35.834014790003295],[137.6490641631377,35.834936957359815],[137.64708042163227,35.8335672918273],[137.6461004287889,35.833762598136],[137.64482834427892,35.83515025076733],[137.64526422692956,35.83756435236362],[137.64487695660088,35.838212529342954],[137.64618330959416,35.83907181242228],[137.64534424095552,35.84023186102055],[137.64516682686568,35.84158303109485],[137.64202419697776,35.844391940627666],[137.640823984198,35.84628562109228],[137.6392638369168,35.84737094983094],[137.64064842126336,35.847816907924056],[137.64168329721576,35.84866165404256],[137.64248081135113,35.85029150377095],[137.6443724935773,35.850864253457424],[137.6456067415484,35.85484495326241],[137.64663583179723,35.855525293145874],[137.64613948210126,35.85692474124472],[137.64616751657348,35.85901359782141],[137.64521535040595,35.85948713684502],[137.64625983567933,35.86163375888301],[137.64635431428275,35.86331861735452],[137.64691190921434,35.86344896280796],[137.64703603491822,35.865266745992145],[137.64793076916814,35.867627156595],[137.65019319524845,35.86916303272698],[137.65198219927387,35.87140963785025],[137.65147106424226,35.87310915714837],[137.65171204859894,35.87381233554789],[137.65310987071632,35.87379690731974],[137.65339675956898,35.87514000131374],[137.65340448918298,35.87566640766653],[137.65338743903908,35.87580532902907],[137.65322392170205,35.876944854071276],[137.65319078145276,35.877140529961615],[137.65314884726146,35.87743093787538],[137.65310780553426,35.877645507061054],[137.6527760728929,35.878167699708875],[137.65278714110167,35.878591185615534],[137.65288568247277,35.87881938742939],[137.6532257231071,35.87933051540837],[137.65338544268334,35.87964761408961],[137.6531945861861,35.88006968608763],[137.6529886456625,35.88045372524005],[137.6529709206662,35.88065583853433],[137.65276430473182,35.88110305954981],[137.65235115665774,35.88161519835827],[137.65194307496148,35.88201677743149],[137.65230617066553,35.882923031014094],[137.65222511215623,35.88323844986684],[137.6510603249801,35.884332988941374],[137.64988597319183,35.88448899805404],[137.64951842770444,35.88545961274879],[137.64914165793226,35.88619949444482],[137.64813165816201,35.88696332221133],[137.64718106086875,35.88798666561513],[137.64678743823183,35.88884016669164],[137.64667443123093,35.8906846675078],[137.645504791255,35.89039828923797],[137.64541260600546,35.89066621568912],[137.64508439226407,35.891573890874454],[137.64379036795725,35.89309715048953],[137.6441217316377,35.89406007957729],[137.643865724741,35.89475339904835],[137.64390367392167,35.89519920118223],[137.6441151425432,35.89575682444655],[137.64423368856345,35.89628851628107],[137.64420347191526,35.896932890392996],[137.6428885974598,35.89822217206768],[137.64192602976675,35.89889149539176],[137.640002437801,35.899715075436006],[137.63993823023708,35.899858346728735],[137.63985755097957,35.900188008993254],[137.63910793632448,35.90306118814987],[137.63805879750993,35.90418801901027],[137.63771871734093,35.904741705047265],[137.63793085737848,35.9052361571357],[137.63866388178408,35.90569642630318],[137.6394744581207,35.90615723836909],[137.64023462242224,35.90733496083844],[137.6408592985945,35.90775651499599],[137.64035347101154,35.909639283094144],[137.6391843751565,35.91071155507777],[137.6370156149698,35.911918821762484],[137.63372405866647,35.91278303488568],[137.63329097193864,35.91545309648242]]]},"properties":{"KEY_CODE":"204320060","PREF":"20","CITY":"432","CITY_NAME":"木曽町","S_NAME":"三岳","SETAI":"484"}}]}